name,address,postal code,city1,st,city,Country,type,check,website,Link to Contact Data,Opening Hours (Url when available),Tags (seperate by comma),Short description English,Short description local language,Image Filename/Link,Image License,Image Credit,Email-Address,is Mail public,Telephone Number,Phone public,GeocodeQualityType,lon,lat,Source,Completed by,organic,fair-trade,regional,category-tag1,category-tag2,category-tag3
1871,"222 W. Merchandise Mart Plaza, Suite 1212",60654,Chicago,IL,"Chicago, IL 60654",USA,Coworking Space,yes,http://www.1871.com/,,,,,,,,,,,,,,-87.63612199,41.88802611,Steve Ediger,SE,,,,,,
1335 ASTOR CO-OP BUILDING,1335 N ASTOR ST,60610,Chicago,IL,"Chicago, IL 60610",USA,Housing Coop,yes,https://www.dkcondo.com/managed-associations/1335-astor-co-op/,,,,,,,,,,,312-943-7500,,,-87.6271603,41.9069583,SEWG,DC,,,,,,
1530 N STATE PKWY CO-OP,1530 N STATE PKWY,60610,Chicago,IL,"Chicago, IL 60610",USA,Housing Coop,yes,https://mce.uwcc.wisc.edu/Cooperatives_map/,,,,,,,,,,,312.944.8945 or 312.751.0900 (Sudler Property Management),,,-87.6291461,41.9105834,SEWG,DC,,,,,,
1800 South Troy Block Club Garden,1842 S Troy St,60623,Chicago,IL,"Chicago, IL 60623",USA,Community Garden,yes,http://neighbor-space.org/2012/04/21/1800-south-troy-block-club-garden/,,,,,,,,,,,,,,-87.70425024,41.85595552,Neighborspace,SE,,,,,,
1900 S. Avers Block Club Garden,1900 S Avers,,Chicago,IL,"Chicago, IL",USA,Community Garden,no,,,,,,,,,,,,,,,-87.7214429,41.8548959,SEWG,DC,,,,,,
1900 South Ridgeway Ave,1900 S Ridgeway Ave,,Chicago,IL,"Chicago, IL",USA,Community Garden,no,http://neighbor-space.org/2011/05/19/1900-s-ridgeway-enabling-garden-2/,,,,,,,,,,,773.895.2128,,,-87.719115,41.854895,SEWG,DC,,,,,,
2100 South Central Park Block Club Garden,2117 S Central Park Ave,60623,Chicago,IL,"Chicago, IL 60623",USA,Community Garden,yes,http://neighbor-space.org/2011/05/19/2100-south-central-park-block-club-garden/,,,,,,,,,,,,,,-87.71492829,41.85232583,Neighborspace,SE,,,,,,
2450 LAKEVIEW CO-OP,2450 N LAKEVIEW AVE,,Chicago,IL,"Chicago, IL",USA,Housing Coop,yes,https://mce.uwcc.wisc.edu/Cooperatives_map/,,,,,,,,,,,773.348.2063 or 312.335.1950 (First Service Chicago Office),,,-87.6393435,41.9271996,SEWG,DC,,,,,,
2840 N. Francisco,2840 N. Francisco,60618,Chicago,IL,"Chicago, IL 60618",USA,Housing Coop,no,http://chicagocoop.net/directory/,,,,,,,,,,,,,,,,SEWG,DC,,,,,,
3317 West Walnut Garden,3317 W Walnut St,60624,Chicago,IL,"Chicago, IL 60624",USA,Community Garden,yes,http://neighbor-space.org/2012/07/21/3317-west-walnut-garden/,,,,,,,,,,,,,,-87.70911151,41.88526629,Neighborspace,SE,,,,,,
3500 NORTH LAKE SHORE DR CO-OP,3500 N LAKE SHORE DR,60657,Chicago,IL,"Chicago, IL 60657",USA,Housing Coop,yes,https://mce.uwcc.wisc.edu/Cooperatives_map/,,,,,,,,,,,(773) 327-8660,,,-87.6428605,41.9469092,SEWG,DC,,,,,,
3800 Fillmore Block Club Garden of Hope,3834 W Fillmore St,60624,Chicago,IL,"Chicago, IL 60624",USA,Community Garden,yes,http://neighbor-space.org/2012/06/24/3800-fillmore-block-club-garden-of-hope/,,,,,,,,,,,,,,-87.72132783,41.86812772,Neighborspace,SE,,,,,,
399 COOPERATIVE CORP,399 W FULLERTON PKWY,60614,Chicago,IL,"Chicago, IL 60614",USA,Housing Coop,yes,https://mce.uwcc.wisc.edu/Cooperatives_map/,,,,,,,,,,,(773) 348-0390,,,-87.6390351,41.9254114,SEWG,DC,,,,,,
4 Star Courier Collective LLC,2040 N Milwaukee Ave,60647,Chicago,IL,"Chicago, IL 60647",USA,Workers Collective,yes,fourstarcourier.com,,,,,,,,,,,,,,-87.68988891,41.91823851,Shareable Map,SE,,,,,,
42nd Street Garden,4200 S Vincennes,60653,Chicago,IL,"Chicago, IL 60653",USA,Community Garden,yes,no website or facebook,,,,,,,,,,,,,,-87.6139326,41.8183809,SEWG,DC,,,,,,
4400 Maypole Block Club Gardens,222-30 N Kenneth Ave,60624,Chicago,IL,"Chicago, IL 60624",USA,Community Garden,yes,http://neighbor-space.org/2011/05/19/4400-maypole-block-club-garden/,,,,,,,,,,,,,,-87.723846,41.877445,Neighborspace,SE,,,,,,
500 West 103rd Place Garden,533 W 103rd Pl,60628,Chicago,IL,"Chicago, IL 60628",USA,Community Garden,yes,http://neighbor-space.org/2012/06/24/500-west-103rd-place-garden/,,,,,,,,,,,,,,-87.63633928,41.70599107,Neighborspace,SE,,,,,,
57TH STREET BOOKS,1301 E 57TH ST,60637,Chicago,IL,"Chicago, IL 60637",USA,Housing Coop,yes,https://www.semcoop.com/,,,,,,,,,,,(773) 684-1300,,,-87.5946818,41.7912322,SEWG,DC,,,,,,
6062Trees,2612 S Trumbull Ave,60623,Chicago,IL,"Chicago, IL 60623",USA,Community Garden,yes,http://neighbor-space.org/2012/06/23/26th-and-trumbull-pocket-park/,,,,,,,,,,,,,,-87.71121419,41.84420071,Accelerate77,SE,,,,,,
61st Street Farmers Market,6100 S. Blackstone Ave.,60637,Chicago,IL,"Chicago, IL 60637",USA,Farmers Market,yes,https://www.dnainfo.com/chicago/20160407/downtown/chicago-farmers-markets-heres-schedule-map,,,,,,,,,,,,,,-87.59038586,41.78388065,City of Chicago Farmers Markets,SE,,,,,,
62Garden (West Side),6183 S Dorchester Ave,60637,Chicago,IL,"Chicago, IL 60637",USA,Community Garden,yes,62garden.com,,,,,,,,,,,,,,-87.5913065,41.78260014,Shareable Map,SE,,,,,,
62nd & Central Green Space,6200-08 S Central Ave,60638,Chicago,IL,"Chicago, IL 60638",USA,Community Garden,yes,http://neighbor-space.org/2011/05/20/ubam-park62nd-central-green-space/,,,,,,,,,,,,,,-87.774356,41.781649,Neighborspace,SE,,,,,,
65th and Woodlawn Community Garden,1228 E. 65th St.,60643,Chicago,IL,"Chicago, IL 60643",USA,Community Garden,yes,http://www.65thandwoodlawn.com,,,,,,,,,,,,,,-87.59567637,41.77697449,Accelerate77,SE,,,,,,
6900 South Dante Garden,1422 E 69th St,60637,Chicago,IL,"Chicago, IL 60637",USA,Community Garden,yes,http://neighbor-space.org/2012/07/24/6900-south-dante-garden/,,,,,,,,,,,,,,-87.58979589,41.76974772,Neighborspace,SE,,,,,,
69th and Stewart Block Club Garden,6946 S Stewart Ave,60621,Chicago,IL,"Chicago, IL 60621",USA,Community Garden,yes,http://neighbor-space.org/2012/05/24/69th-and-stewart-block-club-garden/,,,,,,,,,,,,,,-87.63482752,41.76813646,Neighborspace,SE,,,,,,
71st & Crandon Organic Garden,2301 E 71st St,60649,Chicago,IL,"Chicago, IL 60649",USA,Community Garden,yes,no website or facebook,,,,,,,,,,,,,,-87.568681,41.765958,SEWG,DC,,,,,,
77th Street Depot Federal Credit Union,5401 S Wentworth Ave Suite 26,60609,Chicago,IL,"Chicago, IL 60609",USA,Credit Union,yes,http://www.77thstreetdepotfcu.org/,,,,,,,,,,,(773)846-7137,,,-87.63046153,41.79623768,creditunionaccess.com,eaz,,,,,,
7900 South Lowe Block Club Park,7932 S Lowe Ave,60620,Chicago,IL,"Chicago, IL 60620",USA,Community Garden,yes,http://neighbor-space.org/2012/06/24/7900-south-lowe-block-club-garden/,,,,,,,,,,,,,,-87.64044753,41.74996543,Neighborspace,SE,,,,,,
820 w Belle Plaine Coop,820 w Belle Plaine,60613,Chicago,IL,"Chicago, IL 60613",USA,Housing Coop,yes,http://www.uhab.org/coopresearch,,,,,,,,,,,,,,-87.650805,41.957651,SEWG,DC,,,,,,
821 Ridge,821 Ridge Ave,60202,Evanston,IL,"Evanston, IL 60202",USA,Housing Coop,yes,http://chicagocoop.net/directory/,,,,,,,,,,,,,,-87.6862656,42.0330356,SEWG,DC,,,,,,
A Just Harvest,7649 N. Paulina St,60626,Chicago,IL,"Chicago, IL 60626",USA,food bank,yes,www.ajustharvest.org,,,,,,,,,,,,,,-87.67299693,42.02026184,Accelerate77,SE,,,,,,
A Knock At Midnight,400 W. 76th Street #206,60620,Chicago,IL,"Chicago, IL 60620",USA,Community Center,yes,www.akamworks.org,,,,,,,,,,,,,,-87.63446338,41.75634365,Accelerate77,SE,,,,,,
Able Community,212 W Washington St Apt 1205,60606,Chicago,IL,"Chicago, IL 60606",USA,Housing Coop,yes,http://www.ablecommunitychicago.org/faq/,,,,,,,,,,,,,,-87.6345125,41.8838363,SEWG,DC,,,,,,
ACCESS CHICAGO,,,Chicago,IL,"Chicago, IL",USA,,no,,,,,,,,,,,,,,,,,SEWG,DC,,,,,,
ACME CONTINENTAL CREDIT UNION,55 E JACKSON BLVD # 150,60604,Chicago,IL,"Chicago, IL 60604",USA,Credit Union,yes,https://www.acmecontinentalcu.com/,,,,,,,,,,,(312) 822-4986,,,-87.6254637,41.8780086,SEWG,DC,,,,,,
ACRE (Artists' Cooperative Residency & Exhibitions),1345 W 19th Street,60608,Chicago,IL,"Chicago, IL 60608",USA,Arts Centre,yes,acreresidency.org,,,,,,,,,,,,,,-87.6605631,41.85598019,Shareable Map,SE,,,,,,
Active Transportation Alliance,"9 W. Hubbard St, #402",60654,Chicago,IL,"Chicago, IL 60654",USA,Social Workshop,yes,www.activetrans.org,,,,,,,,,,,,,,-87.62833889,41.88996977,Accelerate77,SE,,,,,,
Addison and Avondale Mural Garden,3571 N Avondale Ave,60618,Chicago,IL,"Chicago, IL 60618",USA,Community Garden,yes,https://www.govserv.org/US/Chicago/136491123111933/Mural-at-Addison-%26-Avondale,,,,,,,,,,,,,,-87.7197893,41.946479,SEWG,DC,,,,,,
Advocates for Urban Agriculture,"159 N. Sangamon Street, Suite 200",60607,Chicago,IL,"Chicago, IL 60607",USA,Community Garden,yes,https://auachicago.org/,,,,,,,,,,,,,,-87.65082636,41.88359432,SEWG,DC,,,,,,
African Heritage Garden,3546 W. 12th Place,60623,Chicago,IL,"Chicago, IL 60623",USA,Community Garden,yes,http://neighbor-space.org/2011/05/19/african-heritage-garden/,,,,,,,,,,,,,,-87.71410959,41.86524301,Accelerate77,SE,,,,,,
"Albany Consensus, 4 units",2423 N Albany Ave,60647,Chicago,IL,"Chicago, IL 60647",USA,Housing Coop,yes,http://albanyconsensus.org/home,,,,,,,,,,,,,,-87.7046836,41.9255816,SEWG,DC,,,,,,
Agitator cooperative gallery,1112 N Ashland Ave ,60622,Chicago,IL,"Chicago, IL 60622 ",USA,Cooperative,yes,http://www.agitatorgallery.com,,,,,,,,,,,,,,-87.6677806,41.9019617,Gretchen Hasse,SE,,,,,,
Albany Park Branch Library,3401 W. Foster Avenue,60625,Chicago,IL,"Chicago, IL 60625",USA,Library,yes,http://www.chipublib.org/locations/1,,,,,,,,,,,,,,-87.71357615,41.97559971,data.cityofchicago.org,SE,,,,,,
Alliance for a Greener South Loop,600 S. Dearborn St,60605,Chicago,IL,"Chicago, IL 60605",USA,Association Office,yes,https://www.facebook.com/GreenerSouthLoop/,,,,,,,,,,,,,,-87.62929994,41.87453032,Accelerate77,SE,,,,,,
Alliance of the Southeast,"9204 South Commercial Avenue, #301",60617,Chicago,Il,"Chicago, Il 60617",USA,Social Workshop,yes,https://asechicago.wordpress.com/,,,,,,,,,,,,,,-87.55130098,41.7280945,Accelerate77,SE,,,,,,
Alliant Credit Union,11545 W Touhy Ave,60666,Chicago,IL,"Chicago, IL 60666",USA,Credit Union,yes,http://www.alliantcreditunion.org/,,,,,,,,,,,(800)328-1935,,,-87.895058,41.972411,creditunionaccess.com,SE,,,,,,
Altgeld Branch Library,13281 S. Corliss Avenue,60827,Chicago,IL,"Chicago, IL 60827",USA,Library,yes,http://www.chipublib.org/locations/3,,,,,,,,,,,,,,-87.60221997,41.65505805,data.cityofchicago.org,SE,,,,,,
Altgeld Gardens Growing Power Urban Farm,951 E 132nd Pl,60827,Chicago,Il,"Chicago, Il 60827",USA,Community Garden,yes,http://www.growingpower.org/education/chicago-farms-and-projects/,,,,,,,,,,,,,,-87.59745732,41.65518548,Neighborspace,SE,,,,,,
Altgeld/Sawyer Corner Garden,3240 W Altgeld St,60639,Chicago,Il,"Chicago, Il 60639",USA,Community Garden,yes,http://altgeldsawyer.cornerfarmchicago.com/,,,,,,,,,,,,,,-87.70949224,41.92660652,Accelerate77,SE,,,,,,
Amate House,3600 S. Seeley Ave.,60609,Chicago,IL,"Chicago, IL 60609",USA,Social Workshop,yes,https://amatehouse.org/,,,,,,,,,,,,,,-87.67654344,41.82853142,Accelerate77,SE,,,,,,
AMERICA SCORES-CHICAGO,600 W CERMAK RD # 204,60616,Chicago,IL,"Chicago, IL 60616",USA,Social Workshop,yes,https://www.chicagoscores.org,,,,,,,,,,,(312) 666-0496,,,-87.642104,41.8529376,SEWG,DC,,,,,,
AMERICAN EGYPTIAN COOPERATION,28 E JACKSON BLVD # 809,,Chicago,IL,"Chicago, IL",USA,,no,https://mce.uwcc.wisc.edu/Cooperatives_map/,,,,,,,,,,,(312) 427-9368,,,-87.6264528,41.8783799,SEWG,DC,,,,,,
AMERICAN BROADCAST EMPLOYEE CU,190 N STATE ST,60601,Chicago,IL,"Chicago, IL 60601",USA,Credit Union,yes,https://www.abefcu.org/,,,,,,,,,,,(312) 899-4104,,,-87.6284713,41.8853588,SEWG,DC,,,,,,
AMERITAS GROUP,643 E 83RD ST,,Chicago,IL,"Chicago, IL",USA,,no,https://mce.uwcc.wisc.edu/Cooperatives_map/,,,,,,,,,,,773-633-2566,,,-87.6085616,41.7438163,SEWG,DC,,,,,,
American Indian Center Inc.,3401 West Ainslie Street,60625,Chicago,IL,"Chicago, IL 60625",USA,Social Workshop,yes,http://aic-chicago.org/,,,,,,,,,,,,,,-87.7137847,41.9699711,Accelerate77,SE,,,,,,
Andersonville Farmers Market,1500 W. Berwyn Ave.,60640,Chicago,IL,"Chicago, IL 60640",USA,Farmers Market,yes,https://www.dnainfo.com/chicago/20160407/downtown/chicago-farmers-markets-heres-schedule-map,,,,,,,,,,,,,,-87.66835785,41.97810892,City of Chicago Farmers Markets,SE,,,,,,
Annie B. Jones Community Services Inc. (ABJ),1818 E. 71st St,60636,Chicago,IL,"Chicago, IL 60636",USA,Social Workshop,yes,http://www.abjchicago.org/index.php?page=meet-the-leadership-team,,,,,,,,,,,,,,-87.66944964,41.76493965,Accelerate77,SE,,,,,,
Archer Heights Branch Library,5055 S. Archer Avenue,60632,Chicago,IL,"Chicago, IL 60632",USA,Library,yes,http://www.chipublib.org/locations/4,,,,,,,,,,,,,,-87.72650303,41.80112567,data.cityofchicago.org,SE,,,,,,
Archeworks,625 N. Kingsbury St,60654,Chicago,IL,"Chicago, IL 60654",USA,School,no,archeworks.org,,,,,,,,,,,,,,-87.64114967,41.89325585,Accelerate77,SE,,,,,,
Archer Heights Credit Union,6554 W Archer Ave,60638,Chicago,IL,"Chicago, IL 60638",USA,Credit Union,yes,http://www.archerheights.com/,,,,,,,,,,,(773)229-1500,,,-87.78588167,41.79235484,creditunionaccess.com,SE,,,,,,
Argyle Apartment Building,1458 W. Argyle,60640,Chicago,IL,"Chicago, IL 60640",USA,Housing Coop,yes,http://www.rosenmanagement.com/argyle-apts/,,,,,,,,,,,,,,-87.6669586,41.9727081,SEWG,DC,,,,,,
Architreasures,"3500 S. Lake Park, #1 West",60653,Chicago,Il,"Chicago, Il 60653",USA,Arts Centre,yes,http://architreasures.org/,,,,,,,,,,,,,,-87.612036,41.820185,Accelerate77,SE,,,,,,
Artist’s Garden,8931-35 S Brandon Ave,,Chicago,IL,"Chicago, IL",USA,,no,,,,,,,,,,,,,,,-87.546639,41.733225,SEWG,DC,,,,,,
Ashford Annie Beck Garden,1000 N Keystone Ave,,Chicago,IL,"Chicago, IL",USA,,no,,,,,,,,,,,,,,,-87.7276451,41.8991694,SEWG,DC,,,,,,
Assata's Daughters,,,Chicago,IL,"Chicago, IL",USA,,no,http://www.assatasdaughters.org,,,,,,,,,,,,,,,,SEWG,DC,,,,,,
Argyle Night Market,Broadway & Argyle St.,60640,Chicago,IL,"Chicago, IL 60640",USA,Farmers Market,yes,https://www.dnainfo.com/chicago/20160407/downtown/chicago-farmers-markets-heres-schedule-map,,,,,,,,,,,,,,-87.666715,41.9726,City of Chicago Farmers Markets,SE,,,,,,
Austin Branch Library,5615 W. Race Avenue,60644,Chicago,IL,"Chicago, IL 60644",USA,Library,yes,http://www.chipublib.org/locations/6,,,,,,,,,,,,,,-87.76574288,41.88919197,data.cityofchicago.org,SE,,,,,,
Austin Coming Together,5049 W. Harrison Street,60644,Chicago,IL,"Chicago, IL 60644",USA,Association Office,yes,http://austincomingtogether.org,,,,,,,,,,,,,,-87.74936063,41.87292816,Accelerate77,SE,,,,,,
Austin Food Coop,Austin,,Chicago,IL,"Chicago, IL",USA,Cooperative,directory only,https://www.facebook.com/pg/acfcchicago/,,,,,,,,,,,773.983.6822,,,,,SEWG,DC,,,,,,
Austin Town Hall Farmers Market *,Lake St. & Central Ave.,60644,Chicago,IL,"Chicago, IL 60644",USA,Farmers Market,check,https://www.dnainfo.com/chicago/20160407/downtown/chicago-farmers-markets-heres-schedule-map,,,,,,,,,,,,,,-87.757606,41.881955,City of Chicago Farmers Markets,SE,,,,,,
Austin-Irving Branch Library,6100 W. Irving Park Road,60634,Chicago,IL,"Chicago, IL 60634",USA,Library,yes,http://www.chipublib.org/locations/7,,,,,,,,,,,,,,-87.77924333,41.95310368,data.cityofchicago.org,SE,,,,,,
Avalon Park Branch Library,8148 S. Stony Island Ave,60617,Chicago,IL,"Chicago, IL 60617",USA,Library,yes,http://www.chipublib.org/locations/8/,,,,,,,,,,,,,,-87.58596146,41.74694783,Accelerate77,SE,,,,,,
Back of the Yards Branch Library,2111 W. 47th Street,60609,Chicago,IL,"Chicago, IL 60609",USA,Library,yes,http://www.chipublib.org/locations/9,,,,,,,,,,,,,,-87.67738031,41.80840659,data.cityofchicago.org,SE,,,,,,
Balzekas Museum of Lithuanian Culture,6500 S. Pulaski Rd.,60629,Chicago,IL,"Chicago, IL 60629",USA,Community Center,yes,https://www.facebook.com/Balzekas-Museum-of-Lithuanian-Culture-170807661630/,,,,,,,,,,,,,,-87.72275675,41.7750006,Accelerate77,SE,,,,,,
BANNER COLLECTIVE,935 W CHESTNUT 305,60642,Chicago,IL,"Chicago, IL 60642",USA,Workers Collective,yes,https://www.bannercollective.com,,,,,,,,,,,312.374.5550,,,-87.6514738,41.8981714,SEWG,DC,,,,,,
Benton House,3052 S. Gratten Avenue,60608,Chicago,IL,"Chicago, IL 60608",USA,Group Home,yes,http://bentonhouse.org/,,,,,,,,,,,,,,-87.65439858,41.83927959,Accelerate77,SE,,,,,,
BEST ADULT LITERACY,6701 S EMERALD AVE,,Chicago,IL,"Chicago, IL",USA,,no,https://mce.uwcc.wisc.edu/Cooperatives_map/,,,,,,,,,,,773.962.1001 (# updated),,,-87.6427924,41.7722642,SEWG,DC,,,,,,
Berean Credit Union,5147 S Dearborn St,60609,Chicago,IL,"Chicago, IL 60609",USA,Credit Union,yes,http://creditunionaccess.com/cu66089.htm,,,,,,,,,,,(773)924-0381,,,-87.6268694,41.79983278,creditunionaccess.com,SE,,,,,,
Bethel Terrace,900 w 63rd,,Chicago,IL,"Chicago, IL",USA,,no,http://www.uhab.org/coopresearch,,,,,,,,,,,,,,-87.6477617,41.782179,SEWG,DC,,,,,,
Better Boys Foundation,1512 S. Pulaski Rd.,60623,Chicago,IL,"Chicago, IL 60623",USA,Social Workshop,no,betterboys.org,,,,,,,,,,,,,,-87.72508908,41.86035956,Accelerate77,SE,,,,,,
Betty Swan Community Arboretum,3836-3848 W Arthington St,,Chicago,IL,"Chicago, IL",USA,,no,,,,,,,,,,,,,,,-87.721828,41.870115,SEWG,DC,,,,,,
Bethel A.M.E. Church Credit Union,4448 S Michigan Ave,60653,Chicago,IL,"Chicago, IL 60653",USA,Credit Union,yes,http://creditunionaccess.com/cu65680.htm,,,,,,,,,,,(708)205-5526,,,-87.62304997,41.81393145,creditunionaccess.com,SE,,,,,,
Beverly Arts Center,2407 W. 111th St.,60655,Chicago,IL,"Chicago, IL 60655",USA,Arts Centre,yes,www.beverlyartcenter.org,,,,,,,,,,,,,,-87.68144663,41.69169014,Accelerate77,SE,,,,,,
Beverly Branch Library,1962 W. 95th St.,60643,Chicago,Il,"Chicago, Il 60643",USA,Library,yes,http://www.chipublib.org/locations/10/,,,,,,,,,,,,,,-87.67146372,41.7211763,Accelerate77,SE,,,,,,
Beverly Farmers Market,95th St. & Longwood Dr.,60643,Chicago,IL,"Chicago, IL 60643",USA,Farmers Market,yes,https://www.dnainfo.com/chicago/20160407/downtown/chicago-farmers-markets-heres-schedule-map,,,,,,,,,,,,,,-87.659992,41.699379,City of Chicago Farmers Markets,SE,,,,,,
Beyond Today,4511 N. Campbell,60625,Chicago,Il,"Chicago, Il 60625",USA,Social Workshop,yes,https://www.transitionnetwork.org/initiatives/beyond-today,,,,,,,,,,,,,,-87.69110202,41.96343387,Accelerate77,SE,,,,,,
Bezazian Branch Library,1226 W. Ainslie Street,60640,Chicago,IL,"Chicago, IL 60640",USA,Library,yes,http://www.chipublib.org/locations/11,,,,,,,,,,,,,,-87.66056249,41.97153797,data.cityofchicago.org,SE,,,,,,
Bickerdike Redevelopment Corporation,2550 W. North Ave.,60647,Chicago,IL,"Chicago, IL 60647",USA,Social Workshop,yes,www.bickerdike.org,,,,,,,,,,,,,,-87.69125962,41.91043289,Accelerate77,SE,,,,,,
Black Star Project,3509 S King Dr #2B,60653,Chicago,IL,"Chicago, IL 60653",USA,Social Workshop,no,blackstarproject.org/action,,,,,,,,,,,773-285-9600,,,-87.61677666,41.8301461,Shareable Map,SE,,,,,,
Black Oak Center for Sustainable Living,10249 S. Halsted St,60617,Chicago,IL,"Chicago, IL 60617",USA,Social Workshop,yes,http://www.blackoakscenter.org,,,,,,,,,,,,,,-87.64276856,41.70784019,Accelerate77,SE,,,,,,
Blacks in Green,PO Box 378411,60637,Chicago,IL,"Chicago, IL 60637",USA,Social Workshop,no,www.blacksingreen.org,,,,,,,,,,,,,,-87.603401,41.78128,Accelerate77,SE,,,,,,
Black Tech Mecca,222 W Merchandise Mart Plaza,60654,Chicago,IL,"Chicago, IL 60654",USA,Workers Collective,yes,http://www.blacktechmecca.org/,,,,,,,,,,,,,,-87.636511,41.887141,Steve Ediger,SE,,,,,,
Blackstone Bicycle Works,6100 S. Blackstone Ave.,60637,Chicago,Il,"Chicago, Il 60637",USA,Bicycle Store,yes,www.experimentalstation.org/blackstone-bikes,,,,,,,,,,,,,,-87.59038586,41.78388065,Accelerate77,SE,,,,,,
Blessed Sacrament Parish Teen Center,3528 S. Hermitage Ave.,60609,Chicago,IL,"Chicago, IL 60609",USA,Community Center,no,http://bspyouth.blogspot.com/p/staff.html,,,,,,,,,,,,,,-87.66925008,41.82978528,Accelerate77,SE,,,,,,
Blackstone Branch Library,4904 S. Lake Park Avenue,60615,Chicago,IL,"Chicago, IL 60615",USA,Library,yes,http://www.chipublib.org/locations/12,,,,,,,,,,,,,,-87.58921513,41.80557185,data.cityofchicago.org,SE,,,,,,
Bethel Terrace,900 W 63rd Pkwy,60621,Chicago,IL,"Chicago, IL 60621",USA,Housing Coop,check,https://www.facebook.com/pages/Bethel-Terrace/111532478910586?ref=br_rs,,,,,,,,,,,773.873.8703,Yes,,,,,,,,,,,
BLUE HAWK COOPERATIVE,,,Chicago,IL,"Chicago, IL",USA,,no,http://www.bluehawk.coop,,,,,,,,,,,,,,,,SEWG,DC,,,,,,
Block Club Federation,3320 W Hirsch St,60651,Chicago,IL,"Chicago, IL 60651",USA,Social Workshop,yes,https://www.blockclubfederation.org/,,,,,,,,,,,,,,-87.70985698,41.90653179,Accelerate77,SE,,,,,,
Blue Recycling Center,4619 W. Homer Street,60639,Chicago,IL,"Chicago, IL 60639",USA,Social Workshop,yes,http://www.chicagorecycling.org,,,,,,,,,,,,,,-87.74202012,41.91597417,Accelerate77,SE,,,,,,
Blue1647 (Blue Lacuna),2150 Canalport Suite 2A-11,60608,Chicago,IL,"Chicago, IL 60608",USA,Coworking Space,yes,http://www.blue1647.com/,,,,,,,,,,,,,,-87.65065498,41.85296204,Steve Ediger,SE,,,,,,
Borderbend Arts Collective,15 S Homan Ave #315,60624,Chicago,IL,"Chicago , IL 60624",USA,Workers Collective,yes,http://www.borderbend.org/,,,,,,,,,,,,,,-87.71090938,41.88072504,Steve Ediger,SE,,,,,,
Bowmanville Community Garden,5412 N. Bowmanville,60625,Chicago,IL,"Chicago, IL 60625",USA,Community Garden,yes,http://neighbor-space.org/2011/05/19/bowmanville-community-garden/,,,,,,,,,,,,,,-87.703667,41.968521,Neighborspace,SE,,,,,,
Bowmanville Gateway Garden,1801 W. Balmoral,60640,Chicago,IL,"Chicago, IL 60640",USA,Community Garden,yes,http://neighbor-space.org/2012/05/23/bowmanville-gateway-garden/,,,,,,,,,,,,,,-87.67450815,41.97965714,Neighborspace,SE,,,,,,
Brainerd Branch Library,1350 W. 89th Street,60620,Chicago,IL,"Chicago, IL 60620",USA,Library,yes,http://www.chipublib.org/locations/13,,,,,,,,,,,,,,-87.65724713,41.73243291,data.cityofchicago.org,SE,,,,,,
Brickyard Garden,6115 S. Woodlawn Ave.,60637,Chicago,IL,"Chicago, IL 60637",USA,Community Garden,yes,http://neighbor-space.org/2012/06/15/brickyard-garden/,,,,,,,,,,,,,,-87.5961914,41.78390191,Accelerate77,SE,,,,,,
Bridgeport Art Center,1200 W. 35th Street,60609,Chicago,IL,"Chicago, IL 60609",USA,Arts Centre,yes,http://bridgeportart.com/,,,,,,,,,,,,,,-87.65573916,41.83070988,Accelerate77,SE,,,,,,
Brighton Park Branch Library,4314 S. Archer Avenue,60632,Chicago,IL,"Chicago, IL 60632",USA,Library,yes,http://www.chipublib.org/locations/16,,,,,,,,,,,,,,-87.70260356,41.81520248,data.cityofchicago.org,SE,,,,,,
Brighton Park Neighborhood Council,4477 S. Archer Ave.,60632,Chicago,IL,"Chicago, IL 60632",USA,Association Office,yes,http://www.bpncchicago.org,,,,,,,,,,,,,,-87.7075367,41.81196339,Accelerate77,SE,,,,,,
Bronzeville Alliance Green Team,4510 S. Michigan Avenue,60653,Chicago,IL,"Chicago, IL 60653",USA,Social Workshop,yes,https://www.facebook.com/Bronzeville-Alliance-Green-Team-156842684376299/,,,,,,,,,,,,,,-87.62302217,41.81289357,Accelerate77,SE,,,,,,
Bronzeville Alliance Neighborhood Garden,4148-4156 South Calumet St,60653,Chicago,IL,"Chicago, IL 60653",USA,Credit Union,yes,https://www.facebook.com/BronzevilleCommunityGarden,,,,,,,,,,,,,,-87.6187282,41.8187215,SEWG,DC,,,,,,
Bronzeville Children's Museum,9301 S. Stony Island Ave,60617,Chicago,IL,"Chicago, IL 60617",USA,museum,yes,www.bronzevillechildrensmuseum.com,,,,,,,,,,,,,,-87.58532394,41.72598483,Accelerate77,SE,,,,,,
Bronzeville Community Garden,360 E. 51st St,60637,Chicago,IL,"Chicago, IL 60637",USA,Community Garden,yes,https://www.facebook.com/BronzevilleCommunityGarden/,,,,,,,,,,,,,,-87.61749122,41.80217279,Accelerate77,SE,,,,,,
Bronzeville Community Market,4400 S. Cottage Grove Ave,60653,Chicago,IL,"Chicago, IL 60653",USA,Farmers Market,yes,http://www.localharvest.org/bronzeville-community-market-M1993,,,,,,,,,,,,,,-87.60677009,41.81498316,Accelerate77,SE,,,,,,
Bronzeville Community Market *,Martin Luther King Dr. & 26th St.,60616,Chicago,IL,"Chicago, IL 60616",USA,Farmers Market,yes,https://www.dnainfo.com/chicago/20160407/downtown/chicago-farmers-markets-heres-schedule-map,,,,,,,,,,,,,,-87.626719,41.844775,City of Chicago Farmers Markets,SE,,,,,,
Bronzeville Green,3757 S. Wabash Avenue,60653,Chicago,IL,"Chicago, IL 60653",USA,gardener,yes,http://www.trcwabash.org/bronzeville-green-organic-landscaping.html,,,,,,,,,,,,,,-87.62476668,41.82614039,Accelerate77,SE,,,,,,
Bucktown Community Garden,1724 N Wilmot Ave.,,Chicago,IL,"Chicago, IL",USA,,no,,,,,,,,,,,,,,,-87.6802411,41.9128877,SEWG,DC,,,,,,
BROTHERS HEALTH COLLECTIVE,2517 S ARCHER AVE,60608,Chicago,IL,"Chicago, IL 60608",USA,Credit Union,yes,https://www.facebook.com/BrothersHealthChicago/,,,,,,,,,,,(312) 808-1044,,,-87.6469756,41.8467267,SEWG,DC,,,,,,
Bucktown Community Organization,1658 N. Milwaukee Ave. #520,60647,Chicago,IL,"Chicago, IL 60647",USA,Social Workshop,yes,http://www.bucktown.org/,,,,,,,,,,,,,,-87.67930655,41.91146275,Accelerate77,SE,,,,,,
Bucktown-Wicker Park Branch Library,1701 N. Milwaukee Avenue,60647,Chicago,IL,"Chicago, IL 60647",USA,Library,yes,http://www.chipublib.org/locations/138,,,,,,,,,,,,,,-87.68031899,41.91232998,data.cityofchicago.org,SE,,,,,,
Budlong Woods Branch Library,5630 N. Lincoln Ave.,60053,Chicago,IL,"Chicago, IL 60053",USA,Library,yes,http://www.chipublib.org/locations/137/,,,,,,,,,,,,,,-87.76836422,42.0343949,Accelerate77,SE,,,,,,
Burling Park,2931 N Burling Street,60657,Chicago,IL,"Chicago, IL 60657",USA,Community Garden,yes,https://www.facebook.com/Burling-Park-of-Lake-View-334146826628425/,,,,,,,,,,,,,,-87.6478209,41.935422,SEWG,DC,,,,,,
C T A F C Federal Credit Union,14 S Ashland Ave,60607,Chicago,IL,"Chicago, IL 60607",USA,Credit Union,yes,http://creditunionaccess.com/cu18882.htm,,,,,,,,,,,(312)243-5190,,,-87.66688243,41.88111986,creditunionaccess.com,SE,,,,,,
C.L.E.S.E. Garden,2953 W. Lawrence Ave,60625,Chicago,IL,"Chicago, IL 60625",USA,Community Garden,yes,www.clese.org,,,,,,,,,,,,,,-87.70294783,41.96840908,Accelerate77,SE,,,,,,
CABALLEROS DE SAN JUAN CU,2359 N WASHTENAW AVE,60647,Chicago,IL,"Chicago, IL 60647",USA,Credit Union,yes,https://www.creditunion1.org,,,,,,,,,,,(773) 278-8660,,,-87.6954364,41.9245393,SEWG,DC,,,,,,
Calumet Ecological Park Association,12932 S. Escanaba Avenue,60633,Chicago,IL,"Chicago, IL 60633",USA,Social Workshop,no,http://www.calumetstewardship.org/contact#.VxhPgpMrK34,,,,,,,,,,,,,,-87.55328804,41.66040232,Accelerate77,SE,,,,,,
Calumet Heights Community Association Garden,2642 E. 93rd St,,Chicago,IL,"Chicago, IL",USA,,no,,,,,,,,,,,,,,,-87.559201,41.726612,SEWG,DC,,,,,,
Calumet Stewardship Initiative,13300 S. Baltimore Ave,60633,Chicago,IL,"Chicago, IL 60633",USA,Social Workshop,no,www.calumetstewardshipinitiative.org/,,,,,,,,,,,,,,-87.54723906,41.65366923,Accelerate77,SE,,,,,,
Bloomingdale Arts Building,2130 W. Fulton Street,60612,Chicago,IL,"Chicago, IL 60612",USA,Housing Coop,yes,https://chicagoartistscoalition.org/residencies,,,,,,,,,,,,,,-87.6806929,41.8869734,SEWG,DC,,,,,,
CafeChicago,3416 W. Bryn Mawr,60659,Chicago,IL,"Chicago, IL 60659",USA,Cooperative,yes,http://cafechicago.org/,,,,,,,,,,,,,,-87.71445184,41.98308578,Steve Ediger,SE,,,,,,
Campbell Co-Op Community Garden,1357-59 N Campbell Ave,60622,Chicago,IL,"Chicago, IL 60622",USA,Community Garden,yes,https://www.facebook.com/CampbellCoOpCommunityGarden,,,,,,,,,,,,,,-87.689221,41.906452,SEWG,DC,,,,,,
Campbell Cooperative Garden,2483 W Hirsch St,60622,Chicago,IL,"Chicago, IL 60622",USA,Community Garden,yes,https://www.facebook.com/CampbellCoOpCommunityGarden/,,,,,,,,,,,,,,-87.68927612,41.90655697,Shareable Map,SE,,,,,,
Canaryville Branch Library,642 W. 43rd Street,60609,Chicago,IL,"Chicago, IL 60609",USA,Library,yes,http://www.chipublib.org/locations/2,,,,,,,,,,,,,,-87.64230431,41.81632939,data.cityofchicago.org,SE,,,,,,
Carlson Community Services,3938 W. Belle Plaine Avenue,60618,Chicago,IL,"Chicago, IL 60618",USA,Social Workshop,yes,http://www.carlsoncommunityservices.org/,,,,,,,,,,,,,,-87.72660243,41.95558046,Accelerate77,SE,,,,,,
Casa Michoacan,1638 S. Blue Island Ave,60612,Chicago,IL,"Chicago, IL 60612",USA,Social Workshop,yes,https://www.facebook.com/Fedecmi,,,,,,,,,,,,,,-87.66025018,41.85905796,Accelerate77,SE,,,,,,
CASEL -- COLLABORATIVE FOR ACADEMIC,815 W VAN BUREN ST,60607,Chicago,IL,"Chicago, IL 60607",USA,Social Workshop,yes,https://casel.org/,,,,,,,,,,,312-226-3770,,,-87.6479362,41.8764481,SEWG,DC,,,,,,
Catatumbo Collective,8900 S. Green Bay Avenue,60617,Chicago,IL,"Chicago, IL 60617",USA,Farm,yes,https://www.facebook.com/CatatumboCooperative/,,,,,,,,,,,,,,-87.5419949,41.7337025,SEWG,DC,,,,,,
Center for Economic Research & Social Change,4015 N Rockwell St,60618,Chicago,IL,"Chicago, IL 60618",USA,Social Workshop,yes,cersc.org,,,,,,,,,,,,,,-87.69314204,41.9542701,Shareable Map,SE,,,,,,
Center For Neighborhood Technology,2125 W North Ave,60647,Chicago,IL,"Chicago, IL 60647",USA,Social Workshop,no,cnt.org,,,,,,,,,,,,,,-87.68060028,41.91033714,Shareable Map,SE,,,,,,
Center for Humans and Nature,"20 N. Wacker Drive, #2807",60606,Chicago,IL,"Chicago, IL 60606",USA,School,yes,www.humansandnature.org/,,,,,,,,,,,,,,-87.63686313,41.88222588,Accelerate77,SE,,,,,,
Center for New Horizons,4150 S King Dr,60653,Chicago,IL,"Chicago, IL 60653",USA,Social Workshop,yes,cnh.org,,,,,,,,,,,,,,-87.61668875,41.81906697,Accelerate77,SE,,,,,,
Center on Halsted,3656 North Halsted Street,60613,Chicago,IL,"Chicago, IL 60613",USA,Social Workshop,yes,www.centeronhalsted.org,,,,,,,,,,,,,,-87.64960862,41.94834248,Accelerate77,SE,,,,,,
Central Lake View Neighbors,836 W Wellington Ave,60657,Chicago,IL,"Chicago, IL 60657",USA,Association Office,yes,http://www.clvn.org/,,,,,,,,,,,,,,-87.65157524,41.93640888,Accelerate77,SE,,,,,,
Centro de Trabajadores Unidos,10638 S Ewing Ave,60617,Chicago,IL,"Chicago, IL 60657",USA,Social Workshop,yes,www.centrodetrabajadoresunidos.org,,,,,,,,,,,,,,-87.5356593,41.7015583,Steve Ediger,SE,,,,,,
Changing Worlds,"329 W. 18th Street, Suite 506",60616,Chicago,IL,"Chicago, IL 60616",USA,Social Workshop,yes,changingworlds.org,,,,,,,,,,,(312) 421-8040,,,-87.63657764,41.85765707,Shareable Map,SE,,,,,,
Cambridge Manor Apartments,2631 S Indiana,60616,Chicago,IL,"Chicago, IL 60616",USA,Housing Coop,yes,https://www.facebook.com/pages/Cambridge-Manor/133556633362837,,,,,,,,,,,,,,-87.6208928,41.8446749,SEWG,DC,,,,,,
Carmen Marine Cooperative,5030 North Marine Drive,60640,Chicago,IL,"Chicago, IL 60640",USA,Housing Coop,check,http://chicagocoop.net/directory/,,,,,,,,,,,773.728.1770 ,,,,,,,,,,,,
Chi ChiCo,,,Chicago,IL,"Chicago, IL",USA,,no,,,,,,,,,,,,,,,,,SEWG,DC,,,,,,
Chaos Brew Club,2417 W. Hubbard,60612,Chicago,IL,"Chicago, IL 60612",USA,Cooperative,yes,https://www.chaosbrewclub.net/,,,,,,,,,,,,,,-87.6874271,41.8892726,SEWG,DC,,,,,,
Chicago Area Office Federal Credit Union,600 W Madison St,60661,Chicago,IL,"Chicago, IL 60661",USA,Credit Union,yes,http://www.chicagoareafcu.org/,,,,,,,,,,,(312)575-5600,,,-87.64267453,41.88192786,creditunionaccess.com,eaz,,,,,,
Chicago Avenue Garage Federal Credit Union,4909 W Division St Suite 403,60651,Chicago,IL,"Chicago, IL 60651",USA,Credit Union,yes,http://creditunionaccess.com/cu02495.htm,,,,,,,,,,,(773)626-1100,,,-87.74862967,41.90223439,creditunionaccess.com,SE,,,,,,
Chicago Chamber of Commons,,,Chicago,IL,"Chicago, IL",USA,,no,,,,,,,,,,,,,,,,,SEWG,DC,,,,,,
Chicago Bee Branch Library,3647 S. State Street,60609,Chicago,IL,"Chicago, IL 60609",USA,Library,yes,http://www.chipublib.org/locations/29,,,,,,,,,,,,,,-87.62640956,41.82838169,data.cityofchicago.org,SE,,,,,,
Chicago Childcare Collective,,,Chicago,IL,"Chicago, IL",USA,Workers Collective,directory only,http://www.chichico.org/,,,,,,,,,,,,,,,,SEWG,DC,,,,,,
Chicago Community & Workers' Rights,2801 S Hamlin Ave,60623,Chicago,IL,"Chicago, IL 60623",USA,Union,yes,https://chicagoworkersrights.org/about/collaborations/,,,,,,,,,,,,,,-87.7192187,41.8404936,SEWG,DC,,,,,,
Chicago Community Gardens Alliance,"445 North Sacramento Blvd, Suite 204",60612,Chicago,IL,"Chicago, IL 60612",USA,Community Garden,yes,http://chicagocommunitygardens.org/contact-us/,,,,,,,,,,,,,,-87.7008823,41.8895641,SEWG,DC,,,,,,
Chicago Community Loan Fund,29 E Madison St # 1700,60602,Chicago,IL,"Chicago, IL 60602",USA,Social Workshop,yes,cclfchicago.org,,,,,,,,,,,,,,-87.62707044,41.88197993,Shareable Map,SE,,,,,,
Chicago Community Trust,"225 North Michigan Avenue, #2200",60601,Chicago,IL,"Chicago, IL 60601",USA,social Workshop,yes,https://www.cct.org/,,,,,,,,,,,,,,-87.6237553,41.8865015,SEWG,DC,,,,,,
Chicago Conservation Corps,Suite 2200,60602,Chicago,IL,"Chicago, IL 60602",USA,Social Workshop,yes,http://chicagoconservationcorps.org/,,,,,,,,,,,,,,-87.63246913,41.88258055,Accelerate77,SE,,,,,,
Chicago FarmWorks,407-419 N Kedzie,60612,Chicago,IL,"Chicago, IL 60612",USA,Farm,yes,https://www.heartlandalliance.org/program/chicago-farmworks-transitional-jobs/,,,,,,,,,,,,,,-87.705694,41.888547,SEWG,DC,,,,,,
Chicago Fire Officers' Association Credit Union,10231 S Western Ave Fl 2,60643,Chicago,IL,"Chicago, IL 60643",USA,Credit Union,yes,http://www.cfoacu.org/,,,,,,,,,,,(773)445-1700,,,-87.6815689,41.70764016,creditunionaccess.com,SE,,,,,,
Chicago Firefighter's Credit Union,6230 S Central Ave,60638,Chicago,IL,"Chicago, IL 60638",USA,Credit Union,yes,http://chicagofirefighterscu.com/,,,,,,,,,,,(773)581-5253,,,-87.76184662,41.77905913,creditunionaccess.com,SE,,,,,,
Chicago Firemans Association Credit Union,2453 S Archer Ave,60616,Chicago,IL,"Chicago, IL 60616",USA,Credit Union,yes,http://chicagofiremansacu.org/,,,,,,,,,,,(312)791-0834,,,-87.64450646,41.84805786,creditunionaccess.com,SE,,,,,,
CHICAGO FOOD COOP,,,Chicago,IL,"Chicago, IL",USA,Cooperative,directory only,http://www.chicagofoodcoop.org,,,,,,,,,,,,,,,,SEWG,DC,,,,,,
Chicago Food Policy Action Council,"1 N State St, Ste 1500",60602,Chicago,IL,"Chicago, IL 60602",USA,Social Workshop,yes,https://www.chicagofoodpolicy.com/,,,,,,,,,,,,,,-87.6284923,41.8828365,SEWG,DC,,,,,,
Chicago Freedom School,719 S. State Street,60605,Chicago,IL,"Chicago, IL 60605",USA,School,yes,http://chicagofreedomschool.org/,,,,,,,,,,,,,,-87.62738203,41.87252443,Shareable Map,SE,,,,,,
Chicago Gateway Green,"1000 N Milwaukee Ave, #302",60642,Chicago,IL,"Chicago, IL 60642",USA,Community Garden,yes,http://www.gatewaygreen.org/,,,,,,,,,,,,,,-87.66102087,41.89976038,Accelerate77,SE,,,,,,
CHICAGO GLASS COLLECTIVE,1770 W BERTEAU AVE # 203,60613,Chicago,IL,"Chicago, IL 60613",USA,Credit Union,yes,https://www.chicagoglasscollective.com/,,,,,,,,,,,216-543-2329,,,-87.6734081,41.9580976,SEWG,DC,,,,,,
CHICAGO GRASS ROOTS CRICULUM,4554 N BROADWAY ST #326,60640,Chicago,IL,"Chicago, IL 60640",USA,Credit Union,yes,http://grassrootscurriculum.org,,,,,,,,,,,773.387.1844,,,-87.6572959,41.9646577,SEWG,DC,,,,,,
Chicago Honey Co-op,2000 W Carroll Ave,60612,Chicago,IL,"Chicago, IL 60612",USA,Cooperative,yes,chicagohoneycoop.com,,,,,,,,,,,,,,-87.67683086,41.88776579,Shareable Map,SE,,,,,,
Chicago Honey Cooperative,1800 N. Clark St.,60614,Chicago,IL,"Chicago, IL 60614",USA,Cooperative,yes,http://www.chicagohoneycoop.com/contact/,,,,,,,,,,,,,,-87.63398077,41.9148328,Steve Ediger,SE,,,,,,
Chicago Instructional Tech,1608 N Milwaukee Ave # 703,60647,Chicago,IL,"Chicago, IL 60647",USA,Social Workshop,yes,http://voqal.org/,,,,,,,,,,,,,,-87.67778126,41.91047657,Shareable Map,SE,,,,,,
Chicago Justice Project,35 E Wacker Dr,60601,Chicago,IL,"Chicago, IL 60601",USA,Social Workshop,yes,http://chicagojustice.org/,,,,,,,,,,,,,,-87.62622741,41.88673096,Shareable Map,SE,,,,,,
Chicago Lawn Branch Library,6120 S. Kedzie Avenue,60629,Chicago,IL,"Chicago, IL 60629",USA,Library,yes,http://www.chipublib.org/locations/19,,,,,,,,,,,,,,-87.7033115,41.78196339,data.cityofchicago.org,SE,,,,,,
Chicago Lights,444 W. Chicago Ave,60610,Chicago,IL,"Chicago, IL 60610",USA,Farm,yes,https://www.chicagolights.org/our-programs/urban-farm/,,,,,,,,,,,,,,-87.6414958,41.89658327,Accelerate77,SE,,,,,,
Chicago Market - A Community Co-op,"4620 North Broadway, Chicago, IL 60640",60640,Chicago,IL,"Chicago, IL 60640",USA,Cooperative,yes,http://www.chicagomarket.coop/,,,,,,,,,,,312-493-9572,,,-87.6582693,41.965912,Steve Ediger,SE,,,,,,
Chicago Municipal Employees Credit Union,18 S Michigan Ave Suite 1000,60603,Chicago,IL,"Chicago, IL 60603",USA,Credit Union,yes,http://www.cmecuonline.org/,,,,,,,,,,,(312)236-2326,,,-87.6243817,41.88189519,creditunionaccess.com,SE,,,,,,
CHICAGO MUTUAL INSURANCE,300 S WACKER DR # 1250,,Chicago,IL,"Chicago, IL",USA,,no,https://www.libertymutual.com/insurance-office-chicago-il,,,,,,,,,,,(312) 347-1200,,,-87.6369152,41.8780652,SEWG,DC,,,,,,
CHICAGO MUNICIPAL EMPLOYEES CU,18 S MICHIGAN,60603,Chicago,IL,"Chicago, IL 60603",USA,Credit Union,yes,http://www.cmecuonline.org/,,,,,,,,,,,312 236-2326,,,-87.625001,41.8814882,SEWG,DC,,,,,,
Chicago Nettelhorst French Market,3252 N. Broadway,60657,Chicago,IL,"Chicago, IL 60657",USA,Farmers Market,yes,https://www.dnainfo.com/chicago/20160407/downtown/chicago-farmers-markets-heres-schedule-map,,,,,,,,,,,,,,-87.654198,41.940734,City of Chicago Farmers Markets,SE,,,,,,
Chicago Patchwork Gardens,2805 W. Chicago Ave,60612,Chicago,Il,"Chicago, Il 60612",USA,Community Garden,yes,http://chicagopatchworkfarms.com/,,,,,,,,,,,,,,-87.69688301,41.89556397,Accelerate77,SE,,,,,,
Chicago Patrolmen's Federal Credit UnioN,1407 W Washington Blvd,60607,Chicago,IL,"Chicago, IL 60607",USA,Credit Union,yes,www.cpdfcu.com,,,,,,,,,,,(312)726-8814,,,-87.6625745,41.88280433,creditunionaccess.com,SE,,,,,,
Chicago Podcast Cooperative,1917 N Elston Ave,60642,Chicago,IL,"Chicago, IL 60642",USA,Cooperative,yes,http://chicagopodcastcoop.com,,,,,,,,,,,,,,-87.6665142,41.9170945,SEWG,DC,,,,,,
Chicago Post Office Employees Credit Union,10025 S Western Ave,60643,Chicago,IL,"Chicago, IL 60643",USA,Credit Union,yes,http://cpoecu.com/,,,,,,,,,,,(773)881-2500,,,-87.68168141,41.71141454,creditunionaccess.com,eaz,,,,,,
Chicago Public Radio,848 E Grand Ave,60611,Chicago,IL,"Chicago, IL 60611",USA,media,yes,wbez.org‎,,,,,,,,,,,,,,-87.61400807,41.89199904,Shareable Map,SE,,,,,,
Chicago Rarities Orchard Project (CROP),2596 N Milwaukee Ave,60647,Chicago,IL,"Chicago, IL 60647",USA,Farm,yes,http://www.chicagorarities.org/,,,,,,,,,,,,,,-87.70574455,41.92794874,Accelerate77,SE,,,,,,
Chicago Recycling Coalition,2430 N Cannon Dr,60614,Chicago,IL,"Chicago, IL 60614",USA,Social Workshop,yes,www.chicagorecycling.org,,,,,,,,,,,,,,-87.63733058,41.93120192,Accelerate77,SE,,,,,,
Chicago Rehab Network,140 S Dearborn St #1420,60603,Chicago,IL,"Chicago, IL 60603",USA,Social Workshop,yes,chicagorehab.org,,,,,,,,,,,,,,-87.62944927,41.87996739,Shareable Map,SE,,,,,,
Chicago Sustainable Manufacturing Center,1048 W. 37th St.,60609,Chicago,IL,"Chicago, IL 60609",USA,workshop for manufacture or repair of goods,yes,www.bubblydynamics.com/,,,,,,,,,,,,,,-87.65475787,41.82707396,Accelerate77,SE,,,,,,
Chicago Time Exchange,3509 S King Dr,60653,Chicago,IL,"Chicago, IL 60653",USA,Talent and Time Barter,yes,www.chicagotimeexchange.com,,,,,,,,,,,,,,-87.61677666,41.8301461,Shareable Map,SE,,,,,,
Chicago Urban Art Retreat Center,1957 S. Spaulding Ave.,60623,Chicago,IL,"Chicago, IL 60623",USA,Arts Centre,yes,www.urbanartretreat.com,,,,,,,,,,,,,,-87.70766747,41.85406702,Accelerate77,SE,,,,,,
Chicago Volunter Doulas,P.O.Box 5851,60680,Chicago,IL,"Chicago, IL 60680",USA,Workers Collective,directory only,https://www.chicagovolunteerdoulas.org,,,,,,,,,,,,,,,,SEWG,DC,,,,,,
Chicago Wilderness Corporate Council,"8 South Michigan Avenue, #2101",60603,Chicago,IL,"Chicago, IL 60603",USA,Association Office,yes,www.chicagowilderness.org,,,,,,,,,,,,,,-87.62438428,41.88202857,Accelerate77,SE,,,,,,
Chicago Wisdom Project,5655 S. University Avenue,60637,Chicago,IL,"Chicago, IL 60637",USA,Social Workshop,yes,http://chicagowisdomproject.org/,,,,,,,,,,,,,,-87.59800623,41.79224841,Accelerate77,SE,,,,,,
Chicago Zine Fest,1104 S Wabash Ave,60605,Chicago,IL,"Chicago, IL 60605",USA,media,yes,http://chicagozinefest.org,,,,,,,,,,,,,,-87.62596305,41.86921062,Shareable Map,SE,,,,,,
ChiCommons Cooperative,2619 E 76th,60649,Chicago,IL,"Chicago, IL",USA,Cooperative,yes,http://chicommons.coop,,,,,,,,,,,,,,-87.5606783,41.7570478,Steve Ediger,SE,,,,,,
ChiHackNight,"8, 222 W Merchandise Mart Plaza",60654,Chicago,IL,"Chicago, IL 60654",USA,Social Workshop,yes,http://chihacknight.org,,,,,,,,,,,,,,-87.636511,41.887141,Steve Ediger,SE,,,,,,
Children’s Garden of Hope,4052-58 W Potomac Ave,60651,Chicago,IL,"Chicago, IL 60651",USA,Community Garden,yes,https://www.facebook.com/cgohchicago/,,,,,,,,,,,,,,-87.728458,41.904708,SEWG,DC,,,,,,
Childrens Garden of Hope,4052 West Potomac,60651,Chicago,IL,"Chicago, IL 60651",USA,Community Garden,yes,https://www.facebook.com/childrensgardenofhope/,,,,,,,,,,,,,,-87.72779874,41.90454148,Accelerate77,SE,,,,,,
CHILDRENS LITERACY INITIATIVE,641 W LAKE ST 200,60661,Chicago,IL,"Chicago, IL 60661",USA,Social Workshop,yes,https://cli.org/,,,,,,,,,,,(312) 726-7320,,,-87.644481,41.885383,SEWG,DC,,,,,,
Chinatown Branch Library,2100 S. Wentworth Avenue,60616,Chicago,IL,"Chicago, IL 60616",USA,Library,yes,http://www.chipublib.org/locations/20,,,,,,,,,,,,,,-87.63190778,41.85430476,data.cityofchicago.org,SE,,,,,,
Chinese American Museum,238 W. 23rd Street,60616,Chicago,IL,"Chicago, IL 60616",USA,museum,yes,www.ccamuseum.org,,,,,,,,,,,,,,-87.63416412,41.85103361,Accelerate77,SE,,,,,,
Chinese American Service League,2141 S. Tan Court,60616,Chicago,IL,"Chicago, IL 60616",USA,Social Workshop,yes,www.caslservice.org,,,,,,,,,,,,,,-87.63480216,41.85491579,Accelerate77,SE,,,,,,
Chinese Community Center,250 W. 22nd Place,60616,Chicago,IL,"Chicago, IL 60616",USA,Social Workshop,yes,ccbachicago.org,,,,,,,,,,,,,,-87.6333971,41.85224382,Accelerate77,SE,,,,,,
Chinese Mutual Aid Association,1016 W Argyle St,60640,Chicago,Il,"Chicago, Il 60640",USA,Social Workshop,yes,www.chinesemutualaid.org/,,,,,,,,,,,,,,-87.65561547,41.97339231,Accelerate77,SE,,,,,,
Civic Knowledge Project,1115 E. 58th Street,60637,Chicago,IL,"Chicago, IL 60637",USA,Social Workshop,no,http://civicknowledge.uchicago.edu,,,,,,,,,,,,,,-87.59840865,41.78951162,Accelerate77,SE,,,,,,
Chatham Park South Coop,660 e 85th,60619,Chicago,IL,"Chicago, IL 60619",USA,Housing Coop,yes,http://chathamparkvillagecoop.com/,,,,,,,,,,,,,,-87.6069759,41.7403397,SEWG,DC,,,,,,
City Bureau,6100 S. Blackstone Ave.,60637,Chicago,Il,"Chicago, Il 60637",USA,media,yes,https://www.citybureau.org/,,,,,,,,,,,,,,-87.59038586,41.78388065,Darryl Holliday,SE,,,,,,
City Farm,1204 N. Clybourn Ave.,60610,Chicago,IL,"Chicago, IL 60610",USA,Farm,yes,www.facebook.com/CityFarmChicago/,,,,,,,,,,,,,,-87.63980332,41.90382675,Accelerate77,SE,,,,,,
Clearing Branch Library,6423 W. 63rd Place,60638,Chicago,IL,"Chicago, IL 60638",USA,Library,yes,http://www.chipublib.org/locations/21,,,,,,,,,,,,,,-87.78178416,41.77667847,data.cityofchicago.org,SE,,,,,,
COLLECTIVE BIAS,322 S GREEN ST # 510,,Chicago,IL,"Chicago, IL",USA,,no,http://vcollectivechicago.com/,,,,,,,,,,,312.878.3144,,,-87.648787,41.8769749,SEWG,DC,,,,,,
COLLECTIVE DANCE,1730 W FULLERTON AVE # 24,60614,Chicago,IL,"Chicago, IL 60614",USA,,no,https://www.collectivedancechicago.com/,,,,,,,,,,,312-522-1388,,,-87.6730624,41.9259915,SEWG,DC,,,,,,
COLLECTIVE OFFICE,9 E 24TH ST,60616,Chicago,IL,"Chicago, IL 60616",USA,,no,http://collectiveoffice.com,,,,,,,,,,,1-312-479-4770,,,-87.6264515,41.8490047,SEWG,DC,,,,,,
Co-Prosperity Sphere,3219 S Morgan St,60608,Chicago,IL,"Chicago, IL 60608",USA,Arts Centre,yes,http://coprosperity.org/,,,,,,,,,,,,,,-87.65099632,41.83572722,Accelerate77,SE,,,,,,
Columbus Park Farmers Market *,Harrison St. & Central Ave.,60644,Chicago,IL,"Chicago, IL 60644",USA,Farmers Market,no,https://www.dnainfo.com/chicago/20160407/downtown/chicago-farmers-markets-heres-schedule-map,,,,,,,,,,,,,,-87.757606,41.881955,City of Chicago Farmers Markets,SE,,,,,,
Coleman Branch Library,731 E. 63rd Street,60637,Chicago,IL,"Chicago, IL 60637",USA,Library,yes,http://www.chipublib.org/locations/18,,,,,,,,,,,,,,-87.60717834,41.78030109,data.cityofchicago.org,SE,,,,,,
COMMUNICATE COOPERATIVE,,,Chicago,IL,"Chicago, IL",USA,,no,,,,,,,,,,,,,,,,,SEWG,DC,,,,,,
College and University Credit Union,208 W Kinzie St Suite 1,60654,Chicago,IL,"Chicago, IL 60654",USA,Credit Union,yes,http://creditunionaccess.com/cu60688.htm,,,,,,,,,,,(312)755-0997,,,-87.6341557,41.88925384,creditunionaccess.com,SE,,,,,,
Community Exchange Garden,8805 S Exchange,,Chicago,IL,"Chicago, IL",USA,,no,,,,,,,,,,,,,,,-87.5525534,41.7352708,SEWG,DC,,,,,,
Commmunities United,4749 N. Kedzie Ave #200,60625,Chicago,IL,"Chicago, IL 60625",USA,Social Workshop,yes,www.apncorganizing.org,,,,,,,,,,,,,,-87.70835696,41.96752494,Accelerate77,SE,,,,,,
Community & Economic Dev Association,208 S La Salle St # 1900,60604,Chicago,IL,"Chicago, IL 60604",USA,Social Workshop,yes,www.cedaorg.net/,,,,,,,,,,,,,,-87.63237426,41.87913914,Shareable Map,SE,,,,,,
Community Youth Development Institute,7836 South Union Avenue,60620,Chicago,Il,"Chicago, Il 60620",USA,School,no,https://www.cydihs.org,,,,,,,,,,,,,,-87.64172064,41.75181051,Accelerate77,SE,,,,,,
Community Federal Credit Union,4610 S Prairie Ave,60653,Chicago,IL,"Chicago, IL 60653",USA,Credit Union,yes,http://creditunionaccess.com/cu07256.htm,,,,,,,,,,,(773)373-8518,,,-87.61972673,41.81095679,creditunionaccess.com,SE,,,,,,
Concordia Place,3300 N. Whipple Street,60618,Chicago,IL,"Chicago, IL 60618",USA,Social Workshop,no,http://www.concordiaplace.org,,,,,,,,,,,,,,-87.70408934,41.94107016,Accelerate77,SE,,,,,,
Community Glue Workshop,1130 W. Thorndale Ave,60660,Chicago,Il,"Chicago, Il 60660",USA,Hackerspace,yes,http://communityglueworkshop.org/,,,,,,,,,,,,,,-87.65927776,41.99012649,Accelerate77,SE,,,,,,
Comrade Cycles,1908 W Chicago Ave,60622,Chicago,IL,"Chicago, IL 60622",USA,Workers Collective,yes,http://comradecycles.com/,,,,,,,,,,,,,,-87.67501132,41.89603448,Steve Ediger,SE,,,,,,
CORNERSTONE REAL ESTATE ADVSRS,150 S WACKER DR # 350,,Chicago,IL,"Chicago, IL",USA,,no,https://mce.uwcc.wisc.edu/Cooperatives_map/,,,,,,,,,,,(312) 786-0055,,,-87.6374352,41.8795923,SEWG,DC,,,,,,
CORNERSTONE REALTY ADVISORS,7742 W HIGGINS RD # C101,,Chicago,IL,"Chicago, IL",USA,,no,https://mce.uwcc.wisc.edu/Cooperatives_map/,,,,,,,,,,,(773) 594-1000,,,-87.8211239,41.9846356,SEWG,DC,,,,,,
Cooperativa Visionarias,,,Chicago,IL,,USA,Workers Collective,directory only,https://www.facebook.com/visionariascoop/,,,,,,,,,,,708.792.0932,Yes,,,,Steve Ediger,SE,,,,,,
Cornerstone,4628 North Clifton Avenue,60640,Chicago,Il,"Chicago, Il 60640",USA,Social Workshop,yes,www.ccolife.org/,,,,,,,,,,,,,,-87.65894468,41.96590848,Accelerate77,SE,,,,,,
COSTCO,,,Chicago,IL,"Chicago, IL",USA,,no,,,,,,,,,,,,,,,,,SEWG,DC,,,,,,
CORPORATE AMERICA FAMILY CU,233 E WACKER DR # 4,60601,Chicago,IL,"Chicago, IL 60601",USA,Credit Union,yes,https://www.cafcu.org/,,,,,,,,,,,(800) 359-1939,,,-87.6212218,41.8876127,SEWG,DC,,,,,,
Cosmopolitan Federal Credit Union,5259 S Wabash Ave,60615,Chicago,IL,"Chicago, IL 60615",USA,Credit Union,yes,http://creditunionaccess.com/cu24188.htm,,,,,,,,,,,(773)536-3614,,,-87.62410651,41.79889071,creditunionaccess.com,SE,,,,,,
CRAFTY BEAVER DO IT BEST,1522 W LAWRENCE AVE,60640,Chicago,IL,"Chicago, IL 60640",USA,hardware store,yes,https://www.craftybeaver.com/,,,,,,,,,,,(773) 271-2288,,,-87.6683617,41.9691051,SEWG,DC,,,,,,
CRAFTY BEAVER DO IT BEST,4306 N CENTRAL AVE,60634,Chicago,IL,"Chicago, IL 60634",USA,hardware store,yes,https://www.craftybeaver.com/,,,,,,,,,,,(773) 725-4432,,,-87.7676466,41.9589947,SEWG,DC,,,,,,
CRAFTY BEAVER DO IT BEST,4810 Oakton St,60077,Skokie,IL,"Skokie, IL 60077",USA,hardware store,yes,https://www.craftybeaver.com/,,,,,,,,,,,(773) 725-4432,,,-87.7676466,41.9589947,SEWG,DC,,,,,,
CREDIT UNION 1,1737 W POLK ST # 7,60612,Chicago,IL,"Chicago, IL 60612",USA,Credit Union,yes,https://mce.uwcc.wisc.edu/Cooperatives_map/,,,,,,,,,,,(312) 413-2431,,,-87.6705576,41.8711746,SEWG,DC,,,,,,
CREDIT UNION 1,601 S MORGAN ST # B5,60607,Chicago,IL,"Chicago, IL 60607",USA,Credit Union,yes,https://mce.uwcc.wisc.edu/Cooperatives_map/,,,,,,,,,,,,,,-87.6509962,41.8737629,SEWG,DC,,,,,,
CREDIT UNION 1,750 S HALSTED ST # 220C,60607,Chicago,IL,"Chicago, IL 60607",USA,Credit Union,yes,https://mce.uwcc.wisc.edu/Cooperatives_map/,,,,,,,,,,,(800) 252-6950,,,-87.6479531,41.8719123,SEWG,DC,,,,,,
CROSSOVER COLLECTIVE,845 W FULTON 205,,Chicago,IL,"Chicago, IL",USA,,no,http://crossovercollective.com/,,,,,,,,,,,(312) 666-5588,,,-87.6492971,41.8866313,SEWG,DC,,,,,,
Crystal’s Peace Garden,3852 W Polk St,,Chicago,IL,"Chicago, IL",USA,,no,,,,,,,,,,,,,,,-87.7224444,41.8709983,SEWG,DC,,,,,,
CREDIT UNION 1,100 W RANDOLPH ST # 208,60601,Chicago,IL,"Chicago, IL 60601",USA,Credit Union,yes,https://www.creditunion1.org/,,,,,,,,,,,(312) 782-7929,,,-87.6316716,41.8851533,SEWG,DC,,,,,,
Credit Union 1,1737 W Polk St,60612,Chicago,IL,"Chicago, IL 60612",USA,Credit Union,yes,creditunion1.org,,,,,,,,,,,,,,-87.67036879,41.87147709,Shareable Map,SE,,,,,,
CTA South Federal Credit Union,8050 S King Dr,60619,Chicago,IL,"Chicago, IL 60619",USA,Credit Union,yes,http://creditunionaccess.com/cu13533.htm,,,,,,,,,,,(773)783-5693,,,-87.607643,41.745767,creditunionaccess.com,SE,,,,,,
CTAFC FEDERAL CREDIT UNION,14 S ASHLAND AVE,60607,Chicago,IL,"Chicago, IL 60607",USA,Credit Union,yes,https://www.creditunionsonline.com/credit-union-3883.html,,,,,,,,,,,(312) 243-5190,,,-87.6672974,41.8808957,SEWG,DC,,,,,,
Cut Cats Collective,,,Chicago,IL,"Chicago, IL",USA,Workers Collective,directory only,http://cutcatscourier.com/,,,,,,,,,,,773.749.9084,Yes,,,,SEWG,DC,,,,,,
D'Puc Credit Union,33 S State St # 8109,60603,Chicago,IL,"Chicago, IL 60603",USA,Credit Union,yes,http://www.dpuccreditunion.com/,,,,,,,,,,,,,,-87.62766927,41.88162153,Shareable Map,SE,,,,,,
D'PUC Credit Union,33 S State St Rm 8109,60603,Chicago,IL,"Chicago, IL 60603",USA,Credit Union,yes,http://www.dpuccreditunion.com/,,,,,,,,,,,(312)793-5721,,,-87.62766927,41.88162153,creditunionaccess.com,SE,,,,,,
Daley Plaza Downtown Market,50 W. Washington St.,60602,Chicago,IL,"Chicago, IL 60602",USA,Farmers Market,yes,https://www.dnainfo.com/chicago/20160407/downtown/chicago-farmers-markets-heres-schedule-map,,,,,,,,,,,,,,-87.62963591,41.88330367,City of Chicago Farmers Markets,SE,,,,,,
Data Commons Cooperative,,,Chicago,IL,"Chicago, IL",USA,,no,find.coop,,,,,,,,,,,505.426.7088,,,,,SEWG,DC,,,,,,
"Daley, Richard J.-Bridgeport Branch Library",3400 S. Halsted Street,60608,Chicago,IL,"Chicago, IL 60608",USA,Library,yes,http://www.chipublib.org/locations/14,,,,,,,,,,,,,,-87.64624277,41.83279878,data.cityofchicago.org,SE,,,,,,
"Daley, Richard M.-W Humboldt Branch Library",733 N. Kedzie Avenue,60612,Chicago,IL,"Chicago, IL 60612",USA,Library,yes,http://www.chipublib.org/locations/173,,,,,,,,,,,,,,-87.70642886,41.89431884,data.cityofchicago.org,SE,,,,,,
Deborah's Place,2822 W Jackson Blvd,60612,Chicago,IL,"Chicago, IL 60612",USA,Social Workshop,yes,https://www.deborahsplace.org,,,,,,,,,,,,,,-87.6971183,41.877663,SEWG,DC,,,,,,
DMSF,309 W WASHINGTON ST # 1250,60606,Chicago,IL,"Chicago, IL 60606",USA,,no,http://www.dmsf.org/,,,,,,,,,,,(312) 455-7800,,,-87.6356426,41.8829477,SEWG,DC,,,,,,
Dill Pickle Food Co-op,3039 W Fullerton Ave,60647,Chicago,IL,"Chicago, IL 60647",USA,Cooperative,yes,dillpickle.coop,,,,,,,,,,,,,,-87.70345846,41.92466218,Shareable Map,SE,,,,,,
Division Street Farmers Market *,Division St. & Dearborn Pkwy.,60610,Chicago,IL,"Chicago, IL 60610",USA,Farmers Market,yes,https://www.dnainfo.com/chicago/20160407/downtown/chicago-farmers-markets-heres-schedule-map,,,,,,,,,,,,,,-87.636455,41.898992,City of Chicago Farmers Markets,SE,,,,,,
Dorchester Community Garden,6953 S Dorchester Ave,60637,Chicago,IL,"Chicago, IL 60637",USA,Community Garden,yes,https://www.facebook.com/dorchestergarden,,,,,,,,,,,,,,-87.590655,41.7680548,SEWG,DC,,,,,,
Douglass Branch Library,3353 W. 13th St.,60623,Chicago,IL,"Chicago, IL 60623",USA,Library,yes,http://www.chipublib.org/locations/23/,,,,,,,,,,,,,,-87.70988265,41.86443491,Accelerate77,SE,,,,,,
Doveland Community Cooperative,1430 W. Leland,60640,Chicago,IL,"Chicago, IL 60640",USA,Group Home,yes,https://www.facebook.com/lelandhouse/,,,,,,,,,,,,,,-87.66543866,41.96719668,Shareable Map,SE,,,,,,
Downtown – Buying Club - Seven Sons Farms,1030 North Larrabee Street,60610,Chicago,IL,"Chicago, IL 60610",USA,Farm,yes,https://sevensons.net/locations/downtown-chicago,,,,,,,,,,,,,,-87.6435067,41.9012315,Find.coop,SE,,,,,,
DPUC CREDIT UNION,33 S STATE ST # 800,,Chicago,IL,"Chicago, IL",USA,,no,http://www.dpuccreditunion.com/,,,,,,,,,,,(312) 793-5721,,,-87.6274112,41.881073,SEWG,DC,,,,,,
Downtown – Federal Plaza Farmers Market *,Adams St. & Dearborn Pkwy.,60604,Chicago,IL,"Chicago, IL 60604",USA,Farmers Market,yes,https://www.dnainfo.com/chicago/20160407/downtown/chicago-farmers-markets-heres-schedule-map,,,,,,,,,,,,,,-87.625562,41.875734,City of Chicago Farmers Markets,SE,,,,,,
Chatham Park Village Coop Apts,737 e 83rd pl,60619,Chicago,IL,"Chicago, IL 60619",USA,Housing Coop,yes,http://chathamparkvillagecoop.com/,,,,,,,,,,,,,,-87.6078859,41.7427009,SEWG,DC,,,,,,
Downtown – Willis Tower Farmers Market *,233 S. Wacker Dr.,60606,Chicago,IL,"Chicago, IL 60606",USA,Farmers Market,yes,https://www.dnainfo.com/chicago/20160407/downtown/chicago-farmers-markets-heres-schedule-map,,,,,,,,,,,,,,-87.63658586,41.87874781,City of Chicago Farmers Markets,SE,,,,,,
Drake Community Garden,4646 N. Drake St.,60625,Chicago,IL,"Chicago, IL 60625",USA,Community Garden,yes,https://www.facebook.com/DrakeGardens/,,,,,,,,,,,,,,-87.717033,41.9655764,Accelerate77,SE,,,,,,
Driven and Empowered Youth Inc.,3030 N Mobile Ave,60634,Chicago,IL,"Chicago, IL 60634",USA,Social Workshop,yes,deyinc.org,,,,,,,,,,,,,,-87.78350562,41.93597258,Shareable Map,SE,,,,,,
Dunning Branch Library,7455 W. Cornelia Avenue,60634,Chicago,IL,"Chicago, IL 60634",USA,Library,yes,http://www.chipublib.org/locations/82,,,,,,,,,,,,,,-87.81342867,41.94322853,data.cityofchicago.org,SE,,,,,,
Eagle Park,6366 N le Mai Ave,,Chicago,IL,"Chicago, IL",USA,,no,,,,,,,,,,,,,,,-87.7568363,41.997148,SEWG,DC,,,,,,
East Beverly Association,1777 W. 103rd St.,60643,Chicago,IL,"Chicago, IL 60643",USA,Association Office,no,https://www.facebook.com/EastBeverlyAssociation,,,,,,,,,,,,,,-87.66674107,41.70653278,Accelerate77,SE,,,,,,
Dunning Community Garden,4243 N Neenah,60634,Chicago,IL,"Chicago, IL 60634",USA,Community Garden,yes,https://www.facebook.com/Dunning-Community-Garden-289334171194445/,,,,,,,,,,,,,,-87.79105197,41.95645248,Neighborspace,SE,,,,,,
eco-Andersonville,"5153 North Clark Street, #204",60640,Chicago,Il,"Chicago, Il 60640",USA,Association Office,no,www.eco-andersonville.org,,,,,,,,,,,,,,-87.66826079,41.97558538,Accelerate77,SE,,,,,,
Dunning Read Conservation Area,4200 N. Oak Park Avenue,60634,Chicago,IL,"Chicago, IL 60634",USA,Open Space,yes,https://www.facebook.com/pages/Dunning-Read-Conservation-Area/215955825232493,,,,,,,,,,,,,,-87.79764849,41.95689094,Accelerate77,SE,,,,,,
Eat to Live Incubator Farm,325-7 W 70th Pl,60621,Chicago,IL,"Chicago, IL 60621",USA,Farm,yes,https://everythinggood.org/contact/,,,,,,,,,,,,,,-87.6331095,41.7660179,SEWG,DC,,,,,,
Edgebrook Branch Library,5331 W. Devon Avenue,60646,Chicago,IL,"Chicago, IL 60646",USA,Library,yes,http://www.chipublib.org/locations/27,,,,,,,,,,,,,,-87.76134452,41.99723367,data.cityofchicago.org,SE,,,,,,
Edgebrook Neighborhood Farmers Market,6525 N. Hiawatha Ave.,60646,Chicago,IL,"Chicago, IL 60646",USA,Farmers Market,yes,https://www.dnainfo.com/chicago/20160407/downtown/chicago-farmers-markets-heres-schedule-map,,,,,,,,,,,,,,-87.76201799,41.99952143,City of Chicago Farmers Markets,SE,,,,,,
Edgewater Branch Library,6000 N. Broadway,60660,Chicago,IL,"Chicago, IL 60660",USA,Library,yes,http://www.chipublib.org/locations/28,,,,,,,,,,,,,,-87.66038442,41.99092876,data.cityofchicago.org,SE,,,,,,
Edgewater Gateway,Hollywood and Ridge Ave,,Chicago,IL,"Chicago, IL",USA,,no,,,,,,,,,,,,,,,-87.6632106,41.9855426,SEWG,DC,,,,,,
Edgewater Comm. Cncl's Edgewater Env. Sust. Proj.,6044 N Broadway St,60660,Chicago,IL,"Chicago, IL 60660",USA,Association Office,yes,http://www.sustainedgewater.org/,,,,,,,,,,,,,,-87.66042828,41.9922667,Accelerate77,SE,,,,,,
Edgewater Reads,,,Chicago,IL,"Chicago, IL",USA,,no,http://www.edgewaterreads.org/littlefreelibraries/,,,,,,,,,,,,,,,,SEWG,DC,,,,,,
Edgewater Farmers Market,1200 W. Norwood Ave.,60660,Chicago,IL,"Chicago, IL 60660",USA,Farmers Market,yes,https://www.dnainfo.com/chicago/20160407/downtown/chicago-farmers-markets-heres-schedule-map,,,,,,,,,,,,,,-87.66035005,41.99191268,City of Chicago Farmers Markets,SE,,,,,,
Edgewater Glen Association,1420 W. Glenlake,60660,Chicago,Il,"Chicago, Il 60660",USA,Association Office,yes,https://www.facebook.com/edgeglen,,,,,,,,,,,,,,-87.66573032,41.99274781,Accelerate77,SE,,,,,,
Edgewater Work Bench,1130 W. THORNDALE,60660,Chicago,IL,"Chicago, IL 60660",USA,Cooperative,yes,http://www.edgewaterworkbench.com/about-us/,,,,,,,,,,,,,,-87.65916629,41.99012896,SEWG,DC,,,,,,
Edna White Century Garden,1812-26 W Monterey Ave,,Chicago,IL,"Chicago, IL",USA,,no,,,,,,,,,,,,,,,-87.6681306,41.6914906,SEWG,DC,,,,,,
Edible Gardens,2200 N Cannon Dr,60614,Chicago,Il,"Chicago, Il 60614",USA,Community Garden,yes,http://www.greencitymarket.org/programs/program.asp?id=8,,,,,,,,,,,,,,-87.63220666,41.92215995,Accelerate77,SE,,,,,,
Edison Park Farmers Market,6730 N. Olmsted Ave.,60631,Chicago,IL,"Chicago, IL 60631",USA,Farmers Market,yes,https://www.dnainfo.com/chicago/20160407/downtown/chicago-farmers-markets-heres-schedule-map,,,,,,,,,,,,,,-87.8199826,42.00370379,City of Chicago Farmers Markets,SE,,,,,,
El Jardin de las Mariposas,1833-1837 S Carpenter St,,Chicago,IL,"Chicago, IL",USA,,no,,,,,,,,,,,,,,,-87.6529242,41.8569875,SEWG,DC,,,,,,
El Conuco Farmers Market at Humboldt Park,California Ave. & Division St.,60622,Chicago,IL,"Chicago, IL 60622",USA,Farmers Market,yes,https://www.dnainfo.com/chicago/20160407/downtown/chicago-farmers-markets-heres-schedule-map,,,,,,,,,,,,,,-87.67088,41.897111,City of Chicago Farmers Markets,SE,,,,,,
El Coqui Garden,2600-02 W Crystal St,60622,Chicago,IL,"Chicago, IL 60622",USA,Community Garden,yes,https://www.facebook.com/elcoquichicago/,,,,,,,,,,,,,,-87.6920867,41.9042085,SEWG,DC,,,,,,
El Paseo Community Garden,944 W. 21st Street,60608,Chicago,IL,"Chicago, IL 60608",USA,Community Garden,yes,https://www.facebook.com/ElPaseoCommunityGarden/,,,,,,,,,,,,,,-87.64987579,41.8539928,Neighborspace,SE,,,,,,
El Yunque Garden,1459 N Artesian Ave,60622,Chicago,IL,"Chicago, IL 60622",USA,Community Garden,yes,https://www.facebook.com/ElYunqueGarden,,,,,,,,,,,,,,-87.68829225,41.90773621,Neighborspace,SE,,,,,,
Emerald Triangle,2100-2116 S Emerald Ave,,Chicago,IL,"Chicago, IL",USA,,no,,,,,,,,,,,,,,,-87.6454197,41.8477191,SEWG,DC,,,,,,
Claretian Associates,9108 S. Brandon Ave,60617,Chicago,IL,"Chicago, IL 60617",USA,Housing Coop,yes,claretianassociates.org,,,,,,,,,,,,,,-87.54701729,41.72996474,Accelerate77,SE,,,,,,
Eli's Cheesecake Company Farm Stand and Fresh Market,6701 West Forest Preserve Drive,60634,Chicago,IL,"Chicago, IL 60634",USA,Farmers Market,yes,https://www.dnainfo.com/chicago/20160407/downtown/chicago-farmers-markets-heres-schedule-map,,,,,,,,,,,,,,-87.79430811,41.95994165,City of Chicago Farmers Markets,SE,,,,,,
Elliott Donnelley Youth Center,3947 S. Michigan Avenue,60653,Chicago,IL,"Chicago, IL 60653",USA,Community Center,yes,http://chicagoyouthcenters.org/bronzeville-elliott-donnelley/,,,,,,,,,,,,,,-87.62319794,41.82293391,Accelerate77,SE,,,,,,
Emma Goldman Cooperative,,,Chicago,IL,"Chicago, IL",USA,Housing Coop,check,http://chicagocoop.net/directory/,,,,,,,,,,,,,,,,SEWG,DC,,,,,,
Environmental Law and Policy Center,35 E. Wacker Dr #1600,60601,Chicago,Il,"Chicago, Il 60601",USA,Social Workshop,no,www.elpc.org,,,,,,,,,,,,,,-87.62622741,41.88673096,Accelerate77,SE,,,,,,
Environmental Sustainability Task Force,1525 E. 53rd Street #907,60615,Chicago,IL,"Chicago, IL 60615",USA,Social Workshop,no,http://www.hydepark.org/hpkcc/SustainableEnvironmentComm/Sustainenvircomm.htm,,,,,,,,,,,,,,-87.58776898,41.79946811,Accelerate77,SE,,,,,,
EPEC,750 N LAKE SHORE DR # 601,,Chicago,IL,"Chicago, IL",USA,,no,http://bioethics.northwestern.edu/programs/epec/,,,,,,,,,,,(312) 503-3732,,,-87.6170098,41.8962126,SEWG,DC,,,,,,
Englewood Comm. Cultural Planning Cncl. (EC3),513 W. 72nd Street,60621,Chicago,IL,"Chicago, IL 60621",USA,Association Office,yes,http://www.facebook.com/pages/Englewood-Community-Cultural-Planning-Council-EC3/117367001609179,,,,,,,,,,,,,,-87.63745593,41.76339684,Accelerate77,SE,,,,,,
Englewood/Anchor House Farmers Market *,71st St. & Racine Ave.,60636,Chicago,IL,"Chicago, IL 60636",USA,Farmers Market,yes,https://www.dnainfo.com/chicago/20160407/downtown/chicago-farmers-markets-heres-schedule-map,,,,,,,,,,,,,,-87.670123,41.774317,City of Chicago Farmers Markets,SE,,,,,,
Enlace Chicago,2756 S. Harding Ave,60623,Chicago,IL,"Chicago, IL 60623",USA,Social Workshop,yes,www.enlacechicago.org,,,,,,,,,,,,,,-87.72334085,41.84137342,Accelerate77,SE,,,,,,
Equality Illinois,3318 N. Halsted Street,60657,Chicago,IL,"Chicago, IL 60657",USA,Social Workshop,yes,http://www.eqil.org/,,,,,,,,,,,,,,-87.64943381,41.94230468,Accelerate77,SE,,,,,,
EUROPEAN CREDIT MANAGEMENT,,,Chicago,IL,"Chicago, IL",USA,,no,https://mce.uwcc.wisc.edu/Cooperatives_map/,,,,,,,,,,,(312) 642-6510,,,,,SEWG,DC,,,,,,
ESCU ETHICON SUTURE CU,5235 W 65TH ST # C,60638,Chicago,IL,"Chicago, IL 60638",USA,Credit Union,yes,https://www.creditunionsonline.com/credit-union-4990.html,,,,,,,,,,,(708) 563-6205,,,-87.7536124,41.774065,SEWG,DC,,,,,,
ETA Creative Arts Foundation,7558 S. South Shore Dr,60649,Chicago,IL,"Chicago, IL 60649",USA,Arts Centre,yes,http://www.etacreativearts.org/,,,,,,,,,,,,,,-87.5561308,41.75939905,Accelerate77,SE,,,,,,
Ethicon Suture Credit Union,5235 W 65th St Unit C,60638,Chicago,IL,"Chicago, IL 60638",USA,Credit Union,yes,http://creditunionaccess.com/cu61448.htm,,,,,,,,,,,(708)728-0225,,,-87.75438945,41.77444233,creditunionaccess.com,SE,,,,,,
Experimental Station,6100 S. Blackstone Ave.,60637,Chicago,Il,"Chicago, Il 60637",USA,Social Workshop,yes,www.experimentalstation.org,,,,,,,,,,,,,,-87.59038586,41.78388065,Accelerate77,SE,,,,,,
Faith in Place,70 East Lake Street,60601,Chicago,IL,"Chicago, IL 60601",USA,Social Workshop,yes,faithinplace.org,,,,,,,,,,,,,,-87.62530779,41.8857337,Accelerate77,SE,,,,,,
Families Together Co-Op,1500 W Elmdale Ave,60660,Chicago,IL,"Chicago, IL 60660",USA,School,yes,ftcns.org,,,,,,,,,,,773-381-5200,,,-87.66761255,41.99091884,Shareable Map,SE,,,,,,
Family Matters (Project Sage),7731 N. Marshfield,60626,Chicago,IL,"Chicago, IL 60626",USA,Social Workshop,yes,www.familymatterschicago.org,,,,,,,,,,,,,,-87.67180235,42.02158693,Accelerate77,SE,,,,,,
FARMERS,13320 S BALTIMORE AVE,,Chicago,IL,"Chicago, IL",USA,,no,https://mce.uwcc.wisc.edu/Cooperatives_map/,,,,,,,,,,,,,,-87.5475046,41.65299,SEWG,DC,,,,,,
FEDERAL HOME LOAN BANK-CHICAGO,200 E RANDOLPH ST # 1700,,Chicago,IL,"Chicago, IL",USA,,no,https://www.fhlbc.com/,,,,,,,,,,,(312) 565-5700,,,-87.6215123,41.8852827,SEWG,DC,,,,,,
FAMILY WEALTH COLLECTIVE,180 N STETSON AVE # 3500,60601,Chicago,IL,"Chicago, IL 60601",USA,Cooperative,yes,http://www.familywealthcollective.com/,,,,,,,,,,,312-540-9840.,,,-87.6227258,41.8854342,SEWG,DC,,,,,,
Ferd Kramer Memorial Garden,61 W Polk St,,Chicago,IL,"Chicago, IL",USA,,no,,,,,,,,,,,,,,,-87.6297019,41.8720487,SEWG,DC,,,,,,
FAMILY WEALTH COLLECTIVE,30 S WACKER DR # 2200,60606,Chicago,IL,"Chicago, IL 60606",USA,cooperative,yes,http://www.familywealthcollective.com/,,,,,,,,,,,312-540-9840.,,,-87.6373976,41.8808789,SEWG,DC,,,,,,
FIREMENS MUTUAL AID BENEFIT,223 W JACKSON BLVD # 1114,,Chicago,IL,"Chicago, IL",USA,,no,https://mce.uwcc.wisc.edu/Cooperatives_map/,,,,,,,,,,,(312) 427-7111,,,-87.6347443,41.8779246,SEWG,DC,,,,,,
Far South Community Development Corporation,9923 S. Halsted St,60628,Chicago,Il,"Chicago, Il 60628",USA,Social Workshop,yes,http://www.farsouthcdc.org/,,,,,,,,,,,,,,-87.64289728,41.71379671,Accelerate77,SE,,,,,,
Fellowship Baptist Church Credit Union,4543 S Princeton Ave,60609,Chicago,IL,"Chicago, IL 60609",USA,Credit Union,yes,http://creditunionaccess.com/cu64252.htm,,,,,,,,,,,(773)373-8537,,,-87.63334748,41.81157081,creditunionaccess.com,SE,,,,,,
FILM COLLECTIVE PRODUCTIONS,150 N MICHIGAN 800,60603,Chicago,IL,"Chicago, IL 60603",USA,Cooperative,yes,http://filmcollectiveproductions.com/,,,,,,,,,,,(312) 588-3391,,,-87.624948,41.8848158,SEWG,DC,,,,,,
First Financial Credit Union,2942 W Peterson Ave,60659,Chicago,IL,"Chicago, IL 60659",USA,Credit Union,yes,https://www.firstfcu.org/,,,,,,,,,,,(773)565-2000,,,-87.70323082,41.99051146,creditunionaccess.com,SE,,,,,,
FIRST NORTHERN CREDIT UNION,1705 N SHERMAN AVE,60201,Evanston,IL,"Evanston, IL 60201",USA,Credit Union,yes,https://www.fncu.org/,,,,,,,,,,,(847) 332-0240,,,-87.6816333,42.0487698,SEWG,DC,,,,,,
First Northern Credit Union,230 W Monroe St Suite 2850,60606,Chicago,IL,"Chicago, IL 60606",USA,Credit Union,yes,https://www.fncu.org/,,,,,,,,,,,(312)332-6357,,,-87.634256,41.88074386,creditunionaccess.com,SE,,,,,,
Frankie Machine Garden,1800 W Haddon Ave,,Chicago,IL,"Chicago, IL",USA,,no,,,,,,,,,,,,,,,-87.6723964,41.9023897,SEWG,DC,,,,,,
FIRST NORTHERN CREDIT UNION,541 N FAIRBANKS CT # 120,60611,Chicago,IL,"Chicago, IL 60611",USA,Credit Union,yes,https://www.fncu.org/,,,,,,,,,,,(312) 527-2755,,,-87.6198335,41.8922354,SEWG,DC,,,,,,
Five Point Holistic Health,3234 W FULLERTON AVE,60647,Chicago,IL,"Chicago, IL 60647",USA,Workers Collective,yes,http://www.fivepointholistichealth.com/,,,,,,,,,,,,,,-87.7088889,41.925024,SEWG,DC,,,,,,
Freedom Road Coop,4441 North Malden Street,60640,Chicago,IL,"Chicago, IL 60640",USA,,no,http://www.uhab.org/coopresearch,,,,,,,,,,,,,,-87.6619599,41.962886,SEWG,DC,,,,,,
Food Not Bombs,2859 W North Ave,60647,Chicago,IL,"Chicago, IL 60647",USA,Social Workshop,yes,https://www.facebook.com/fnbhumboltpark/,,,,,,,,,,,,,,-87.69820003,41.91018437,Shareable Map,SE,,,,,,
Frankie Machine Garden,1800 W. Haddon Ave.,60622,Chicago,IL,"Chicago, IL 60622",USA,Community Garden,yes,https://www.facebook.com/FrankieMachineCommunityGarden,,,,,,,,,,,,,,-87.67239276,41.90244664,Accelerate77,SE,,,,,,
Free Geek,3411 W. Diversey Ave,60647,Chicago,IL,"Chicago, IL 60647",USA,Second Hand Shop,yes,freegeekchicago.org,,,,,,,,,,,,,,-87.71257139,41.93192744,Steve Ediger,SE,,,,,,
Fresh Taste,5555 N. Sheridan Rd. #18,60640,Chicago,IL,"Chicago, IL 60640",USA,Association Office,yes,www.freshtaste.org,,,,,,,,,,,,,,-87.65507625,41.98292871,Accelerate77,SE,,,,,,
Fulton Flower and Vegetable Garden,4427 W Fulton St,,Chicago,IL,"Chicago, IL",USA,,no,,,,,,,,,,,,,,,-87.736766,41.885141,SEWG,DC,,,,,,
Friends of the Chicago River,"411 S. Wells St., #800",60607,Chicago,IL,"Chicago, IL 60607",USA,Association Office,yes,www.chicagoriver.org,,,,,,,,,,,,,,-87.63360029,41.87672746,Accelerate77,SE,,,,,,
Friends of the Forest Preserves,"542 S. Dearborn St., #400",60604,Chicago,IL,"Chicago, IL 60604",USA,Association Office,yes,www.fotfp.org,,,,,,,,,,,,,,-87.62931507,41.87520973,Accelerate77,SE,,,,,,
Fulton Community Garden,2946 W. Fulton St.,60612,Chicago,IL,"Chicago, IL 60612",USA,Community Garden,yes,https://www.facebook.com/29462948WFultonStCommunityGarden,,,,,,,,,,,,,,-87.70005416,41.88658273,Accelerate77,SE,,,,,,
Fulton St. Flower and Vegetable Garden,4427 W. Fulton St.,60644,Chicago,IL,"Chicago, IL 60644",USA,Community Garden,yes,https://www.facebook.com/FultonGarden/,,,,,,,,,,,,,,-87.73638515,41.88527608,Accelerate77,SE,,,,,,
Fulton Street Collective,"1821 W. Hubbard Street, Suite 307",60622,Chicago,IL,"Chicago, IL 60622",USA,Arts Centre,yes,fultonstreetcollective.com,,,,,,,,,,,773-852-2481,,,-87.67249335,41.88970161,Shareable Map,SE,,,,,,
FWD Collective,,,Chicago,IL,"Chicago, IL",USA,Workers Collective,check,https://fwdcollective.io/page/chicago,,,,,,,,,,,,,,,,SEWG,DC,,,,,,
Gage Park Branch Library,2807 W. 55th Street,60632,Chicago,IL,"Chicago, IL 60632",USA,Library,yes,http://www.chipublib.org/locations/30,,,,,,,,,,,,,,-87.69406996,41.79359549,data.cityofchicago.org,SE,,,,,,
GAIA Movement,8918 S. Green Street,60620,Chicago,Il,"Chicago, Il 60620",USA,Social Workshop,yes,http://gaia-movement-usa.org/,,,,,,,,,,,,,,-87.64422233,41.73222166,Accelerate77,SE,,,,,,
Galewood-Mont Clare Branch Library,6871 W. Belden Avenue,60707,Chicago,IL,"Chicago, IL 60707",USA,Library,yes,http://www.chipublib.org/locations/31,,,,,,,,,,,,,,-87.79752564,41.9210572,data.cityofchicago.org,SE,,,,,,
Garden Resources of Woodlawn (GRoW),6145 S Dorchester Ave,60637,Chicago,IL,"Chicago, IL 60637",USA,Community Garden,yes,https://www.facebook.com/GROW-Garden-Resources-of-Woodlawn-167230636665709/,,,,,,,,,,,,,,-87.59131385,41.78309103,Accelerate77,SE,,,,,,
Garfield Park Community Council,300 N. Central Park Ave,60624,Chicago,IL,"Chicago, IL 60624",USA,Association Office,yes,www.gpcommunitycouncil.org,,,,,,,,,,,,,,-87.71615856,41.88758912,Accelerate77,SE,,,,,,
Garfield Park Community Market *,200 N. Kedzie Ave.,60612,Chicago,IL,"Chicago, IL 60612",USA,Farmers Market,yes,https://www.dnainfo.com/chicago/20160407/downtown/chicago-farmers-markets-heres-schedule-map,,,,,,,,,,,,,,-87.70631005,41.88437307,City of Chicago Farmers Markets,SE,,,,,,
Garfield Park Community Market *,200 N. Kedzie Ave.,60612,Chicago,IL,"Chicago, IL 60612",USA,Farmers Market,yes,https://www.dnainfo.com/chicago/20160407/downtown/chicago-farmers-markets-heres-schedule-map,,,,,,,,,,,,,,-87.70631005,41.88437307,City of Chicago Farmers Markets,SE,,,,,,
Garfield Ridge Branch Library,6348 S. Archer Avenue,60638,Chicago,IL,"Chicago, IL 60638",USA,Library,yes,http://www.chipublib.org/locations/26,,,,,,,,,,,,,,-87.77991514,41.79295074,data.cityofchicago.org,SE,,,,,,
Covenantal Community of University Church,,,,,,,Housing Coop,check,http://chicagocoop.net/directory/,,,,,,,,,,,,,,,,,,,,,,,
Cumberland Green Cooperative,,,,,,,Housing Coop,check,http://chicagocoop.net/directory/,,,,,,,,,,,,,,,,,,,,,,,
Gary Comer Youth Center,7200 S. Ingleside Avenue,60619,Chicago,IL,"Chicago, IL 60619",USA,Social Workshop,yes,http://www.gcychome.org/,,,,,,,,,,,,,,-87.60195308,41.76410314,Accelerate77,SE,,,,,,
Drexel House,6115 S Drexel Ave,60637,Chicago,IL,"Chicago, IL 60637",USA,Housing Coop,yes,http://www.ic.org/directory/drexel-house/,,,,,,,,,,,,,,-87.60428513,41.78359478,Fellowship of Intentional Communities,SE,,,,,,
Gender Just,,,Chicago,IL,"Chicago, IL",USA,social Workshop,check,http://genderjust.wixsite.com/genderjust,,,,,,,,,,,,,,,,SEWG,DC,,,,,,
George & Seeley Community Garden,2025 W. George St.,60618,Chicago,IL,"Chicago, IL 60618",USA,Community Garden,yes,https://www.facebook.com/George-Seeley-Community-Garden-210489818978267/,,,,,,,,,,,,,,-87.67879224,41.93401181,Accelerate77,SE,,,,,,
Ginkgo Organic Gardens,4055-59 N Kenmore Ave,60613,Chicago,IL,"Chicago, IL 60613",USA,Community Garden,yes,http://www.ginkgogardens.org/?refreshed,,,,,,,,,,,,,,-87.66121,41.955735,Neighborspace,SE,,,,,,
Glenwood Sunday Market,1448 W. Morse Ave,60626,Chicago,IL,"Chicago, IL 60626",USA,Farmers Market,yes,www.glenwoodsundaymarket.org,,,,,,,,,,,,,,-87.66698614,42.00797809,Accelerate77,SE,,,,,,
Glenwood Sunday Market,6950 N. Glenwood Ave.,60626,Chicago,IL,"Chicago, IL 60626",USA,Farmers Market,yes,https://www.dnainfo.com/chicago/20160407/downtown/chicago-farmers-markets-heres-schedule-map,,,,,,,,,,,,,,-87.66627348,42.00812778,City of Chicago Farmers Markets,SE,,,,,,
Global Garden Refugee Training Farm,2951 W. Lawrence,60625,Chicago,IL,"Chicago, IL 60625",USA,Community Garden,yes,https://www.facebook.com/Global-Garden-Refugee-Training-Farm-512136075471854/,,,,,,,,,,,,,,-87.70291957,41.96840948,Accelerate77,SE,,,,,,
Grassroots Ecology,Rogers Park,,Chicago,IL,"Chicago, IL",USA,Social Workshop,no,https://www.grassrootsecology.org/,,,,,,,,,,,,,,-87.6695529,42.010636,SEWG,DC,,,,,,
Good Shepherd Credit Union,5700 S Prairie Ave,60637,Chicago,IL,"Chicago, IL 60637",USA,Credit Union,yes,http://creditunionaccess.com/cu81117.htm,,,,,,,,,,,(773)684-6561,,,-87.61921978,41.79110957,creditunionaccess.com,SE,,,,,,
Grant Park Conservancy,330 S. Michigan Ave #1505,60604,Chicago,IL,"Chicago, IL 60604",USA,Association Office,yes,www.grantparkconservancy.com,,,,,,,,,,,,,,-87.62432905,41.87788251,Accelerate77,SE,,,,,,
Greater Auburn Gresham Dev. Corp.,1120 West 79th Street,60620,Chicago,Il,"Chicago, Il 60620",USA,Association Office,yes,https://www.gagdc.org,,,,,,,,,,,,,,-87.65217323,41.75060872,Accelerate77,SE,,,,,,
Greater Englewood Com. Dev. Corp.,945 W. 69th St,60621,Chicago,IL,"Chicago, IL 60621",USA,Association Office,yes,http://greaterenglewoodcdc.org/; http://www.facebook.com/pages/Greater-Englewood-CDC/340880019277783,,,,,,,,,,,,,,-87.64840148,41.7686897,Accelerate77,SE,,,,,,
Greater Grand Crossing Branch Library,1000 E. 73rd Street,60619,Chicago,IL,"Chicago, IL 60619",USA,Library,yes,http://www.chipublib.org/locations/172/,,,,,,,,,,,,,,-87.60054942,41.76237519,Accelerate77,SE,,,,,,
Greater Independence Park Neighborhood Assoc.,3945 N. Springfield Ave.,60618,Chicago,IL,"Chicago, IL 60618",USA,Association Office,yes,http://gipna.org/,,,,,,,,,,,,,,-87.72507872,41.95267581,Accelerate77,SE,,,,,,
Greater Institutional A.M.E. Church Credit Union,7800 S Indiana Ave,60619,Chicago,IL,"Chicago, IL 60619",USA,Credit Union,yes,http://creditunionaccess.com/cu65433.htm,,,,,,,,,,,(773)873-0880,,,-87.61989981,41.75284578,creditunionaccess.com,SE,,,,,,
Greater Lawndale Heritage,109 S. Lawndale Ave.,60623,Chicago,IL,"Chicago, IL 60623",USA,Association Office,yes,http://nlgreeningcommittee.org/,,,,,,,,,,,,,,-87.71724,41.846636,Accelerate77,SE,,,,,,
Greater Southwest Development Corporation,2601 West 63rd Street,60629,Chicago,IL,"Chicago, IL 60629",USA,Association Office,yes,http://www.greatersouthwest.org/,,,,,,,,,,,,,,-87.6885426,41.77909763,Accelerate77,SE,,,,,,
Green Chicago Restaurant Coalition,4554 N Springfield Ave,60625,Chicago,IL,"Chicago, IL 60625",USA,Resturaunt,yes,http://www.greenchicago.org/#an-environmental-conservation-nonprofit,,,,,,,,,,,,,,-87.72555054,41.96382073,Shareable Map,SE,,,,,,
Green City Market,1800 N. Clark St.,60614,Chicago,IL,"Chicago, IL 60614",USA,Farmers Market,yes,https://www.dnainfo.com/chicago/20160407/downtown/chicago-farmers-markets-heres-schedule-map,,,,,,,,,,,,,,-87.63398077,41.9148328,City of Chicago Farmers Markets,SE,,,,,,
Green City Market,2613 W. Lawrence Avenue,60625,Chicago,IL,"Chicago, IL 60625",USA,Farmers Market,yes,www.greencitymarket.org,,,,,,,,,,,,,,-87.69432489,41.96847627,Accelerate77,SE,,,,,,
Green City Market – West Loop,211 S. Peoria St.,60607,Chicago,IL,"Chicago, IL 60607",USA,Farmers Market,yes,https://www.dnainfo.com/chicago/20160407/downtown/chicago-farmers-markets-heres-schedule-map,,,,,,,,,,,,,,-87.64952377,41.87904717,City of Chicago Farmers Markets,SE,,,,,,
Green Grocer,1402 W. Grand Ave,60608,Chicago,IL,"Chicago, IL 60608",USA,greengrocer,yes,http://www.greengrocerchicago.com,,,,,,,,,,,,,,-87.66238859,41.89111651,Accelerate77,SE,,,,,,
GreenHouse Garden,1100 N Wood St,60622,Chicago,IL,"Chicago, IL 60622",USA,Community Garden,yes,https://www.facebook.com/tomandwood,,,,,,,,,,,,,,-87.6725401,41.9015248,SEWG,DC,,,,,,
Growing Home Inc.,2732 North Clark Street #310,60614,Chicago,Il,"Chicago, Il 60614",USA,Social Workshop,yes,http://growinghomeinc.org/,,,,,,,,,,,,,,-87.6447783,41.9320304,Accelerate77,SE,,,,,,
Growing Power,3333 S Iron St,60608,Chicago,IL,"Chicago, IL 60608",USA,Farm,yes,www.growingpower.org,,,,,,,,,,,,,,-87.66195179,41.83381393,Shareable Map,SE,,,,,,
Growing Power- Iron Street Farm,3333 S. Iron St,60608,Chicago,IL,"Chicago, IL 60608",USA,Farm,yes,http://www.ironstreetfarm.com/,,,,,,,,,,,,,,-87.66195179,41.83381393,Accelerate77,SE,,,,,,
Hall Branch Library,4801 S. Michigan Avenue,60615,Chicago,IL,"Chicago, IL 60615",USA,Library,yes,http://www.chipublib.org/locations/33,,,,,,,,,,,,,,-87.62269677,41.80745903,data.cityofchicago.org,SE,,,,,,
Harold Washington Cultural Center,4701 S. Martin Luther King Drive,60653,Chicago,IL,"Chicago, IL 60653",USA,Arts Centre,yes,http://www.broadwayinbronzeville.com/about/,,,,,,,,,,,,,,-87.612036,41.820185,Accelerate77,SE,,,,,,
Emma Goldman Cooperative,,,,,,,Housing Coop,check,http://chicagocoop.net/directory/,,,,,,,,,,,,,,,,,,,,,,,
Freedom Road Co-op,,,,,,,Housing Coop,check,http://chicagocoop.net/directory/,,,,,,,,,,,,,,,,,,,,,,,
Harold Washington Library Center Main Library,400 S. State Street,60605,Chicago,IL,"Chicago, IL 60605",USA,Library,yes,http://wwwchipublib.org/locations/15,,,,,,,,,,,,,,-87.62774182,41.87692111,data.cityofchicago.org,SE,,,,,,
HAYMAKER GYM,656 W Barry Ave,60618,Chicago,IL,"Chicago, IL 60618",USA,Community Center,yes,https://www.facebook.com/haymakerchi/,,,,,,,,,,,,,,-87.6465763,41.9381887,SEWG,DC,,,,,,
Healthy Food Hub at South Shore Good Foods Market,2423 E. 75th St.,60649,Chicago,IL,"Chicago, IL 60649",USA,Farmers Market,yes,https://www.dnainfo.com/chicago/20160407/downtown/chicago-farmers-markets-heres-schedule-map,,,,,,,,,,,,,,-87.56549482,41.75890786,City of Chicago Farmers Markets,SE,,,,,,
Heartland Housing Inc,208 S La Salle St # 1818,60604,Chicago,IL,"Chicago, IL 60604",USA,assisted living place,yes,http://www.heartlandhousing.org/,,,,,,,,,,,,,,-87.63237426,41.87913914,Shareable Map,SE,,,,,,
HEITMAN PROPERTIES,191 N WACKER DR # 2500,,Chicago,IL,"Chicago, IL",USA,,no,https://www.heitman.com,,,,,,,,,,,312.855.5700,,,-87.6366064,41.8854097,SEWG,DC,,,,,,
Genesis Cooperative,7019 S Merrill,60649,Chicago,IL,"Chicago, IL 60649",USA,Housing Coop,yes,https://www.facebook.com/GenesisChicago,,,,,,,,,,,,,,-87.57258266,41.76768025,Fellowship of Intentional Communities,SE,,,,,,
Hegewisch Branch Library,3048 130th Street,60633,Chicago,Il,"Chicago, Il 60633",USA,Library,yes,http://www.chipublib.org/locations/95/,,,,,,,,,,,,,,-87.54921803,41.65925778,Accelerate77,SE,,,,,,
Hermitage Street Community Garden,5643 S Hermitage Ave,60636,Chicago,IL,"Chicago, IL 60636",USA,Community Garden,yes,https://www.facebook.com/hermitagecommunitygardens/photos/a.206669536350867.1073741828.205890549762099/216563425361478/?type=3&theater,,,,,,,,,,,,,,-87.66807493,41.79138817,Neighborspace,SE,,,,,,
Genesis Cooperative Housing,7019 South Merrill Avenue,60649,Chicago,IL,"Chicago, IL 60649",USA,Housing Coop,yes,https://www.facebook.com/GenesisChicago,,,,,,,,,,,,,,-87.57258266,41.76768025,Shareable Map,SE,,,,,,
Genesis II Cooperative,,,,,,,Housing Coop,check,http://chicagocoop.net/directory/,,,,,,,,,,,,,,,,,,,,,,,
Hermosa Neighborhood Association,4300 West North Avenue,60639,Chicago,IL,"Chicago, IL 60639",USA,Association Office,yes,https://www.facebook.com/ourhermosa?fref=ts,,,,,,,,,,,,,,-87.73389217,41.90993781,Accelerate77,SE,,,,,,
HighSight,315 W Walton St,60610,Chicago,IL,"Chicago, IL 60610",USA,School,yes,highsight.org,,,,,,,,,,,,,,-87.63647347,41.89964286,Shareable Map,SE,,,,,,
Historic Pullman Beekeepers,10341 S Prospect Ave,60643,Chicago,Il,"Chicago, Il 60643",USA,beekeeper,yes,https://www.facebook.com/groups/171705946209846/,,,,,,,,,,,,,,-87.66195472,41.70542685,Accelerate77,,,,,,,
Hive Chicago,"18 S Michigan Ave, Floor 12",60603,Chicago,IL,"Chicago, IL 60603",USA,Social Workshop,yes,http://hivechicago.org,,,,,,,,,,,,,,-87.6243817,41.88189519,Steve Ediger,SE,,,,,,
Honore Street Farm,5830 S. Honore Street,60636,Chicago,IL,"Chicago, IL 60636",USA,Farm,yes,http://growinghomeinc.org/,,,,,,,,,,,,,,-87.67057406,41.78756347,Steve Ediger,SE,,,,,,
Hope Organization,6921 S. Halsted Street,60621,Chicago,IL,"Chicago, IL 60621",USA,Social Workshop,yes,http://hopeorgchi.com/,,,,,,,,,,,,,,-87.64440666,41.76846292,Accelerate77,SE,,,,,,
Horner Park Farmers Market,2741 W. Montrose Ave.,60618,Chicago,IL,"Chicago, IL 60618",USA,Farmers Market,yes,https://www.dnainfo.com/chicago/20160407/downtown/chicago-farmers-markets-heres-schedule-map,,,,,,,,,,,,,,-87.69762836,41.96116404,City of Chicago Farmers Markets,SE,,,,,,
House of Chloe,10701 S. Champlain Ave.,60628,Chicago,Il,"Chicago, Il 60628",USA,Social Workshop,yes,http://thehouseofchloeinc.org/,,,,,,,,,,,,,,-87.60727029,41.7000751,Accelerate77,SE,,,,,,
Howard Area Community Garden,7735 N Hermitage Ave,60626,Chicago,IL,"Chicago, IL 60626",USA,Community Garden,yes,https://www.facebook.com/hacgarden/,,,,,,,,,,,,,,-87.67415581,42.02188361,Accelerate77,SE,,,,,,
Hoxie Prairie Garden,10549 S. Hoxie Ave.,60617,Chicago,IL,"Chicago, IL 60617",USA,Community Garden,yes,https://www.facebook.com/Hoxie-prairie-gardens-307176966486372,,,,,,,,,,,,,,-87.56072557,41.70323081,Accelerate77,,,,,,,
Humble Parquito Community Garden,1621 N Humboldt Blvd,60647,Chicago,IL,"Chicago, IL 60647",USA,Community Garden,yes,https://www.facebook.com/humble.parquito,,,,,,,,,,,,,,-87.70144227,41.91068628,Neighborspace,SE,,,,,,
Humboldt Park Branch Library,1605 N. Troy Street,60647,Chicago,IL,"Chicago, IL 60647",USA,Library,yes,http://www.chipublib.org/locations/39,,,,,,,,,,,,,,-87.70558221,41.91064652,data.cityofchicago.org,SE,,,,,,
Hyde Park Art Center,5020 S. Cornell Ave,60615,Chicago,IL,"Chicago, IL 60615",USA,Arts Centre,yes,https://www.facebook.com/HydeParkArtCenter,,,,,,,,,,,,,,-87.58656691,41.80415615,Accelerate77,SE,,,,,,
Hyde Park Farmers Market,1704 E 53rd St,60615,Chicago,IL,"Chicago, IL 60615",USA,Farmers Market,yes,https://www.facebook.com/hydeparkchicagofarmersmarket/,,,,,,,,,,,,,,-87.58376978,41.79971612,Accelerate77,SE,,,,,,
Hyde Park Farmers Market,53rd St. & Harper Ct.,60615,Chicago,IL,"Chicago, IL 60615",USA,Farmers Market,yes,https://www.dnainfo.com/chicago/20160407/downtown/chicago-farmers-markets-heres-schedule-map,,,,,,,,,,,,,,-87.604568,41.800635,City of Chicago Farmers Markets,SE,,,,,,
Hyde Park Garden Fair,1525 E 53rd St #907,60615,Chicago,IL,"Chicago, IL 60615",USA,Community Garden,yes,http://www.hydeparkgardenfair.org/headerpages/projects.html,,,,,,,,,,,,,,-87.58776898,41.79946811,Neighborspace,SE,,,,,,
ILLINOIS NETWORK CHARTER SCHLS,150 N MICHIGAN AVE # 430,60601,Chicago,IL,"Chicago, IL 60601",USA,,no,https://www.incschools.org/,,,,,,,,,,,(312) 629-2063,,,-87.6248397,41.8848176,SEWG,DC,,,,,,
Hyde Park Neighborhood Club,5480 S. Kenwood Avenue,60615,Chicago,IL,"Chicago, IL 60615",USA,Association Office,yes,http://hpnclub.org/,,,,,,,,,,,,,,-87.59360367,41.79559898,Accelerate77,SE,,,,,,
Illinois Caucus for Adolescent Health,"719 S. State St., Floor 4",60605,Chicago,IL,"Chicago, IL 60605",USA,Social Workshop,yes,https://www.icah.org,,,,,,,,,,,,,,-87.627192,41.8726226,SEWG,DC,,,,,,
Illinois Worker Cooperative Alliance,,,Chicago,IL,"Chicago, IL",USA,cooperative,check,https://www.workerscooperativesalliance.org/,,,,,,,,,,,,,,,,SEWG,DC,,,,,,
Imagine Englewood If (IEi),730 W. 69th Street,60621,Chicago,IL,"Chicago, IL 60621",USA,Social Workshop,yes,www.imagineenglewoodif.org,,,,,,,,,,,,,,-87.64301322,41.76895202,Accelerate77,SE,,,,,,
Independence Park,"Triangle bounded by N Parkview, W Waveland, N Monticello",,Chicago,IL,"Chicago, IL",USA,,no,,,,,,,,,,,,,,,0,0,SEWG,DC,,,,,,
IMAN Fresh Beats and Eats Farmers Market,2744 W. 63rd St.,60629,Chicago,IL,"Chicago, IL 60629",USA,Farmers Market,yes,https://www.dnainfo.com/chicago/20160407/downtown/chicago-farmers-markets-heres-schedule-map,,,,,,,,,,,,,,-87.69243282,41.77921984,City of Chicago Farmers Markets,SE,,,,,,
Independence Branch Library,3548 W. Irving Park Road,60618,Chicago,IL,"Chicago, IL 60618",USA,Library,yes,http://www.chipublib.org/locations/41,,,,,,,,,,,,,,-87.71691762,41.95389289,data.cityofchicago.org,SE,,,,,,
Industrial Workers of the World,2036 W Montrose Ave,60618,Chicago,IL,"Chicago, IL 60618",USA,union,yes,iww.org,,,,,,,,,,,,,,-87.6804917,41.96152731,Shareable Map,SE,,,,,,
Inner-City Muslim Action Network (IMAN),2744 W. 63rd St.,60629,Chicago,IL,"Chicago, IL 60629",USA,Social Workshop,yes,www.imancentral.org,,,,,,,,,,,,,,-87.69243282,41.77921984,Accelerate77,SE,,,,,,
INNERVATION DANCE CO-OP,"6147 N. Sheridan Rd, 11B",60660,Chicago,IL,"Chicago, IL 60660",USA,Arts Centre,yes,http://www.innervationdance.org,,,,,,,,,,,773.450.0910,,,-87.6551152,41.9935886,SEWG,DC,,,,,,
Institute for Cooperative Economics and Economic Innovation,,,Chicago,IL,"Chicago, IL",USA,,no,https://www.blue1647.com/cooperative-economics,,,,,,,,,,,,,,,,SEWG,DC,,,,,,
Inspiration Kitchen of Garfield Park,3504 W. Lake St,60624,Chicago,IL,"Chicago, IL 60624",USA,Resturaunt,yes,http://www.inspirationkitchens.org,,,,,,,,,,,,,,-87.7136675,41.88487325,Accelerate77,SE,,,,,,
Institue of Cultural Affairs,4750 N. Sheridan Rd,60640,Chicago,Il,"Chicago, Il 60640",USA,Social Workshop,yes,http://www.ica-usa.org/?page=buildinginfo,,,,,,,,,,,,,,-87.65490013,41.96819205,Accelerate77,SE,,,,,,
Institute of Puerto Rican Arts and Culture,3015 W. Division St.,60622,Chicago,Il,"Chicago, Il 60622",USA,museum,yes,www.IPRAC.ORG,,,,,,,,,,,,,,-87.7022882,41.90278658,Accelerate77,SE,,,,,,
Interfaith Committee for Detained Immigrants,10024 S. Central Park Ave,60655,Chicago,IL,"Chicago, IL 60655",USA,social Workshop,yes,https://www.icdichicago.org,,,,,,,,,,,,,,-87.7120661,41.7107695,SEWG,DC,,,,,,
Invisible Institute,6100 S. Blackstone Ave.,60637,Chicago,Il,"Chicago, Il 60637",USA,media,yes,https://invisible.institute/,,,,,,,,,,,,,,-87.59038586,41.78388065,Darryl Holliday,SE,,,,,,
ISBA MUTUAL INSURANCE CO,223 W OHIO ST,,Chicago,IL,"Chicago, IL",USA,,no,https://mce.uwcc.wisc.edu/Cooperatives_map/,,,,,,,,,,,(800) 473-4722,,,-87.6350836,41.8921425,SEWG,DC,,,,,,
IRAQI MUTUAL AID SOCIETY,2600 W PETERSON AVE # 100,60660,Chicago,IL,"Chicago, IL 60660",USA,Social Workshop,yes,http://www.iraqimutualaid.org/,,,,,,,,,,,(773) 409-4597,,,-87.6947388,41.9907381,SEWG,DC,,,,,,
ISMIE MUTUAL INSURANCE CO,20 N MICHIGAN AVE # 700,,Chicago,IL,"Chicago, IL",USA,,no,https://www.ismie.com/home/,,,,,,,,,,,(800) 782-4767,,,-87.6249409,41.8826538,SEWG,DC,,,,,,
Irving Park Community Food Pantry,3801 N. Keeler Avenue,60641,Chicago,IL,"Chicago, IL 60641",USA,food bank,yes,http://www.irvingparkfoodpantry.com/,,,,,,,,,,,,,,-87.73227726,41.94998379,Accelerate77,SE,,,,,,
ISKCON-CHICAGO,1716 W LUNT AVE,60626,Chicago,IL,"Chicago, IL 60626",USA,Social Workshop,yes,http://iskconchicago.com/,,,,,,,,,,,773 973 0900,,,-87.6730229,42.0093219,SEWG,DC,,,,,,
Israel Methcomm Federal Credit Union,7620 S Cottage Grove Ave,60619,Chicago,IL,"Chicago, IL 60619",USA,Credit Union,yes,http://creditunionaccess.com/cu15673.htm,,,,,,,,,,,(773)483-1131,,,-87.60542471,41.75637773,creditunionaccess.com,eaz,,,,,,
Gill Park Cooperative,810 w Grace,60613,Chicago,IL,"Chicago, IL 60613",USA,Housing Coop,yes,http://www.uhab.org/coopresearch,,,,,,,,,,,,,,-87.6501183,41.951378,SEWG,DC,,,,,,
IWW,PO Box 180195,60618,Chicago,IL,"Chicago, IL 60618",USA,union,check,iww.org,,,,,,,,,,,,,,,,SEWG,DC,,,,,,
JANNEY MONTGOMERY SCOTT,30 S WACKER DR # 1760,,Chicago,IL,"Chicago, IL",USA,,no,https://www.janney.com/,,,,,,,,,,,(312) 705-4205,,,-87.6373976,41.8808789,SEWG,DC,,,,,,
Jackson Park Urban Farm,1601 E Marquette,60637,Chicago,IL,"Chicago, IL 60637",USA,Farm,yes,http://www.growingpower.org/education/chicago-farms-and-projects/,,,,,,,,,,,,,,-87.58630466,41.77508697,Accelerate77,SE,,,,,,
Jane Addams Hull-House Museum,800 S Halsted St,60607,Chicago,IL,"Chicago, IL 60607",USA,museum,yes,http://www.uic.edu/jaddams/hull/hull_house,,,,,,,,,,,,,,-87.64721599,41.87113682,Shareable Map,SE,,,,,,
JAPANESE MUTUAL AID SOCIETY,2249 W BERWYN AVE,60625,Chicago,IL,"Chicago, IL 60625",USA,Social Workshop,yes,http://jmaschicago.org/,,,,,,,,,,,773-907-3002,,,-87.6862529,41.9775354,SEWG,DC,,,,,,
Jardincito,2300 S Whipple St,60623,Chicago,IL,"Chicago, IL 60623",USA,Community Garden,yes,https://www.facebook.com/Jardincito-Little-Village-Nature-Play-Garden-392331197541734/,,,,,,,,,,,,,,-87.70161908,41.84998799,Neighborspace,SE,,,,,,
Jarvis Migratory Bird Sanctuary,3550 N Lake Shore Dr,60613,Chicago,IL,"Chicago, IL 60613",USA,Open Space,yes,www.jarvissanctuary.org,,,,,,,,,,,,,,-87.66121,41.955735,Accelerate77,SE,,,,,,
Jefferson Park Babysitting Coop,,60646,Chicago,IL,"Chicago, IL 60646",USA,cooperative,check,https://www.sittingaround.com/find-babysitting-cooperatives/US/illinois/chicago/60646/1063/jefferson-park-co-op/,,,,,,,,,,,,,,,,SEWG,DC,,,,,,
Jefferson Park Branch Library,5363 W. Lawrence Avenue,60630,Chicago,IL,"Chicago, IL 60630",USA,Library,yes,http://www.chipublib.org/locations/37,,,,,,,,,,,,,,-87.76143838,41.96750928,data.cityofchicago.org,SE,,,,,,
Jefferson Park Farmers Market,4800 N. Long Ave.,60630,Chicago,IL,"Chicago, IL 60630",USA,Farmers Market,yes,https://www.dnainfo.com/chicago/20160407/downtown/chicago-farmers-markets-heres-schedule-map,,,,,,,,,,,,,,-87.76273465,41.96769849,City of Chicago Farmers Markets,SE,,,,,,
Jelly Bean Garden,2125 W Adams St,,Chicago,IL,"Chicago, IL",USA,,no,,,,,,,,,,,,,,,-87.680097,41.878445,SEWG,DC,,,,,,
Ginger Ridge MHA,,,,,,,Housing Coop,check,http://chicagocoop.net/directory/,,,,,,,,,,,,,,,,,,,,,,,
GreenRise Intentional Community,4750 N Sheridan Rd,60640,Chicago,IL,"Chicago, IL 60640",USA,Housing Coop,yes,https://www.ica-usa.org/community.html,,,,,,,,,,,,,,-87.65490013,41.96819205,Fellowship of Intentional Communities,SE,,,,,,
Jefferson Park Neighborhood Association,5320 W. GiddingsP.O. Box 30072,60630,Chicago,IL,"Chicago, IL 60630",USA,Association Office,yes,http://www.jpna.net/,,,,,,,,,,,,,,-87.76044886,41.96644557,Accelerate77,SE,,,,,,
Joe-Ella Williams Memorial Garden,3817-19 W Flournoy St,,Chicago,IL,"Chicago, IL",USA,,no,,,,,,,,,,,,,,,-87.7211109,41.872344,SEWG,DC,,,,,,
Jeffery Manor Branch Library,2401 E. 100th Street,60617,Chicago,IL,"Chicago, IL 60617",USA,Library,yes,http://www.chipublib.org/locations/43,,,,,,,,,,,,,,-87.5657762,41.71341922,data.cityofchicago.org,SE,,,,,,
Jobs With Justice,333 S Ashland Ave,60607,Chicago,IL,"Chicago, IL 60607",USA,Social Workshop,yes,chicagojwj.org,,,,,,,,,,,,,,-87.66668173,41.87725324,Shareable Map,SE,,,,,,
Jose Obrero Mission,1856 S. Loomis St,60608,Chicago,IL,"Chicago, IL 60608",USA,Social Workshop,yes,www.sjom.org,,,,,,,,,,,,,,-87.66137486,41.85663293,Accelerate77,SE,,,,,,
Just Design Coop,,,Chicago,IL,"Chicago, IL",USA,cooperative,check,http://justdesign.coop/,,,,,,,,,,,,,,,,SEWG,DC,,,,,,
JUSTICE FEDERAL CREDIT UNION,2111 W ROOSEVELT RD,60608,Chicago,IL,"Chicago, IL 60608",USA,Credit Union,yes,https://www.creditunionsonline.com/credit-union-968-23.html,,,,,,,,,,,(800) 550-5328,,,-87.6799176,41.865508,SEWG,DC,,,,,,
KeHoMaCoCo Garden,313 S Richmond,,Chicago,IL,"Chicago, IL",USA,,no,,,,,,,,,,,,,,,-87.6996685,41.8769749,SEWG,DC,,,,,,
KAN-WIN,,60647,Chicago,IL,"Chicago, IL 60647",USA,Social Workshop,check,http://www.kanwin.org/services/,,,,,,,,,,,,,,,,SEWG,DC,,,,,,
KAPLAN LAW FIRM,,,Chicago,IL,"Chicago, IL",USA,Cooperative,check,http://www.sarahkaplanlaw.com/,,,,,,,,,,,,,,,,SEWG,DC,,,,,,
Kil-Parker Garden,4646 W Parker Ave,,Chicago,IL,"Chicago, IL",USA,,no,,,,,,,,,,,,,,,-87.7435751,41.9305597,SEWG,DC,,,,,,
Kelly Branch Library,6151 S. Normal Boulevard,60621,Chicago,IL,"Chicago, IL 60621",USA,Library,yes,http://www.chipublib.org/locations/44,,,,,,,,,,,,,,-87.63745283,41.78236272,data.cityofchicago.org,SE,,,,,,
Kiddie College Babysitting Coop,,60605,Chicago,IL,"Chicago, IL 60605",USA,Cooperative,check,https://www.sittingaround.com/find-babysitting-cooperatives/US/illinois/chicago/60605/1290/kiddie-college-babysitting-coop/,,,,,,,,,,,,,,,,SEWG,DC,,,,,,
King Branch Library,3436 S. King Drive,60616,Chicago,IL,"Chicago, IL 60616",USA,Library,yes,http://www.chipublib.org/locations/45,,,,,,,,,,,,,,-87.61706981,41.83209027,data.cityofchicago.org,SE,,,,,,
Harold Washington Unity Cooperative,636 n Albany,60612,Chicago,IL,"Chicago, IL 60612",USA,Housing Coop,yes,http://www.bickerdike.org/index.php/bickerdike-apartments/our-properties/harold-washington-unity-coop,,,,,,,,,,,,,,-87.7043489,41.893113,SEWG,DC,,,,,,
KLEO Community Family Life Center,119 E. Garfield Blvd,60637,Chicago,IL,"Chicago, IL 60637",USA,Social Workshop,yes,thekleocenter.org/,,,,,,,,,,,,,,-87.62215007,41.79429163,Accelerate77,SE,,,,,,
Knowledge Hook-up,3457 East 106th street,60617,Chicago,Il,"Chicago, Il 60617",USA,School,yes,http://www.knowledgehookup.org/,,,,,,,,,,,,,,-87.53951225,41.70266093,Accelerate77,SE,,,,,,
Harper Square Housing Co-Op,4800 S Lake Park Ave,60615,Chicago,IL,"Chicago, IL 60615",USA,Housing Coop,yes,http://www.realtymortgageco.com/find-apartment/neighborhoods/south-shore-harper-square-cooperative/,,,,,,,,,,,,,,-87.59071673,41.80802304,Shareable Map,SE,,,,,,
Kola Nut Collaborative,2423 E 75th St,60649,Chicago,IL,"Chicago , IL 60649",USA,Talent and Time Barter,yes,https://kolanutcollab.org/,,,,,,,,,,,,,,-87.56549482,41.75890786,Steve Ediger,SE,,,,,,
Hermitage Manor Co-Op,1717 W Lake St,60612,Chicago,IL,"Chicago, IL 60612",USA,Housing Coop,yes,https://www.facebook.com/pages/Hermitage-Manor-Co-Operative/160077417346088,,,,,,,,,,,,,,-87.66937959,41.885238,Shareable Map,SE,,,,,,
LAKESHORE CREDIT UNION,233 E WACKER DR # 8,,Chicago,IL,"Chicago, IL",USA,,no,https://mce.uwcc.wisc.edu/Cooperatives_map/,,,,,,,,,,,(312) 819-8063,,,-87.6212218,41.8876127,SEWG,DC,,,,,,
La Casa Norte,3533 W. North Avenue,60647,Chicago,Il,"Chicago, Il 60647",USA,Social Workshop,yes,http://www.lacasanorte.org,,,,,,,,,,,,,,-87.71474017,41.90998956,Accelerate77,SE,,,,,,
Hesed Community,,,Chicago,IL,"Chicago, IL",USA,Housing Coop,check,http://hesedcommunity.com/,,,,,,,,,,,,,,,,SEWG,DC,,,,,,
LaFollette Park Farmers Market *,1333 N. Laramie Ave.,60651,Chicago,IL,"Chicago, IL 60651",USA,Farmers Market,yes,https://www.dnainfo.com/chicago/20160407/downtown/chicago-farmers-markets-heres-schedule-map,,,,,,,,,,,,,,-87.75573978,41.90465943,City of Chicago Farmers Markets,SE,,,,,,
Hesed Community Cooperative,2241 S Marshall Blvd Chicago,60623,Chicago,IL,"Chicago, IL 60623",USA,Housing Coop,yes,http://hesedcommunity.com/,,,,,,,,,,,,,,-87.69897756,41.85111012,Fellowship of Intentional Communities,SE,,,,,,
LaPointe Park,4741 N Manor Ave,,Chicago,IL,"Chicago, IL",USA,,no,,,,,,,,,,,,,,,-87.7024724,41.9678145,SEWG,DC,,,,,,
Lakeside Community Development Corporation,1652 W. Wallen Ave,60626,Chicago,IL,"Chicago, IL 60626",USA,Social Workshop,yes,http://lakesidecdc.org/,,,,,,,,,,,,,,-87.67237941,42.00269652,Accelerate77,SE,,,,,,
Lakeview Pantry,3945 N Broadway,60613,Chicago,IL,"Chicago, IL 60613",USA,food bank,yes,http://www.lakeviewpantry.org/,,,,,,,,,,,,,,-87.64979753,41.95358347,Accelerate77,SE,,,,,,
Las Artelitas,,,Chicago,IL,"Chicago, IL",USA,social Workshop,check,https://www.facebook.com/pg/Lasartelitas,,,,,,,,,,,,,,,,SEWG,DC,,,,,,
Las Semillas de Justicia Garden,2727 S. Troy,60623,Chicago,IL,"Chicago, IL 60623",USA,Community Garden,yes,https://semillasdejusticia.weebly.com/,,,,,,,,,,,,,,-87.703394,41.841644,SEWG,DC,,,,,,
Las Visionarias Cooperative,,,Chicago,IL,"Chicago, IL",USA,cooperative,check,https://www.facebook.com/visionariascoop/,,,,,,,,,,,,,,,,SEWG,DC,,,,,,
Latino Organization of the Southwest,4051 S. 63rd St.,60629,Chicago,IL,"Chicago, IL 60629",USA,Social Workshop,yes,http://latinoorganizationofthesouthwest.blogspot.com/,,,,,,,,,,,,,,-87.72434493,41.77854683,Accelerate77,SE,,,,,,
Latino Union of Chicago,3416 W Bryn Mawr Ave,60659,Chicago,IL,"Chicago, IL 60659",USA,union,yes,latinounion.org,,,,,,,,,,,,,,-87.71445184,41.98308578,Shareable Map,SE,,,,,,
Lawndale Chicago Botanic Garden’s Windy City Harvest Market,3750 W. Ogden Ave.,60623,Chicago,IL,"Chicago, IL 60623",USA,Farmers Market,yes,https://www.dnainfo.com/chicago/20160407/downtown/chicago-farmers-markets-heres-schedule-map,,,,,,,,,,,,,,-87.71904871,41.85326573,City of Chicago Farmers Markets,SE,,,,,,
Lawndale Heritage Garden,1509 S Lawndale Ave,60623,Chicago,IL,"Chicago, IL 60623",USA,Community Garden,yes,http://neighbor-space.org/2012/06/17/lawndale-heritage-garden/,,,,,,,,,,,,,,-87.71760221,41.86062151,Neighborspace,SE,,,,,,
LEE MUTUAL ACCOUNTING,3530 W PETERSON AVE # 202,60659,Chicago,IL,"Chicago, IL 60659",USA,,no,https://mce.uwcc.wisc.edu/Cooperatives_map/,,,,,,,,,,,(773) 539-1236,,,-87.7178206,41.9904948,SEWG,DC,,,,,,
Lawndale Triangle Garden,4226-36 W. Ogden Ave,60623,Chicago,IL,"Chicago, IL 60623",USA,Community Garden,yes,https://www.facebook.com/LawndaleTriangleGarden/,,,,,,,,,,,,,,-87.730571,41.849288,SEWG,DC,,,,,,
LIBERTY MUTUAL,222 S RIVERSIDE PLZ # 1580,,Chicago,IL,"Chicago, IL",USA,,no,https://www.libertymutual.com/,,,,,,,,,,,(312) 454-9400,,,-87.6387652,41.8786309,SEWG,DC,,,,,,
LIGHTWEAVERS,6033 S COTTAGE GROVE AVE # 708,,Chicago,IL,"Chicago, IL",USA,,no,https://mce.uwcc.wisc.edu/Cooperatives_map/,,,,,,,,,,,773.667.3439 (Number has been disconnected),,,-87.6059079,41.7849776,SEWG,DC,,,,,,
LIMITS DEPOT FEDERAL CU,3369 W LAWRENCE,,Chicago,IL,"Chicago, IL",USA,,no,https://mce.uwcc.wisc.edu/Cooperatives_map/,,,,,,,,,,,,,,-87.7126893,41.9684991,SEWG,DC,,,,,,
LeClaire Community Garden,415 N LeClaire Ave,60644,Chicago,IL,"Chicago, IL 60644",USA,Community Garden,yes,http://neighbor-space.org/2012/06/23/leclaire-community-garden/,,,,,,,,,,,,,,-87.75281237,41.88806341,Neighborspace,SE,,,,,,
Legler Branch Library,115 S. Pulaski Road,60624,Chicago,IL,"Chicago, IL 60624",USA,Library,yes,http://www.chipublib.org/locations/47,,,,,,,,,,,,,,-87.72552839,41.87921685,data.cityofchicago.org,SE,,,,,,
Lincoln Belmont Branch Library,1659 W. Melrose Street,60657,Chicago,IL,"Chicago, IL 60657",USA,Library,yes,http://www.chipublib.org/locations/68,,,,,,,,,,,,,,-87.6705672,41.9404907,data.cityofchicago.org,SE,,,,,,
Lincoln Central Association,2216 N. Lincoln Avenue,60614,Chicago,IL,"Chicago, IL 60614",USA,Association Office,yes,www.lincolncentral.org,,,,,,,,,,,,,,-87.6443457,41.92217742,Accelerate77,SE,,,,,,
Lincoln Park Branch Library,1150 W. Fullerton Avenue,60614,Chicago,IL,"Chicago, IL 60614",USA,Library,yes,http://www.chipublib.org/locations/48,,,,,,,,,,,,,,-87.65762841,41.9253944,data.cityofchicago.org,SE,,,,,,
Lincoln Park Co-Op Nursery,1753 N Fern Ct,60614,Chicago,IL,"Chicago, IL 60614",USA,School,yes,lincolnparkcoop.org,,,,,,,,,,,,,,-87.63930961,41.91410664,Shareable Map,SE,,,,,,
Lincoln Park Conservancy,2000 N. Racine #4800,60614,Chicago,IL,"Chicago, IL 60614",USA,Association Office,yes,www.LincolnParkConservancy.org,,,,,,,,,,,,,,-87.653367,41.923621,Accelerate77,SE,,,,,,
Lincoln Park Farmers Market *,Armitage Ave. & Orchard St.,60614,Chicago,IL,"Chicago, IL 60614",USA,Farmers Market,yes,https://www.dnainfo.com/chicago/20160407/downtown/chicago-farmers-markets-heres-schedule-map,,,,,,,,,,,,,,-87.653367,41.923621,City of Chicago Farmers Markets,SE,,,,,,
Lincoln Square Area Weekday Helpers,,60625,Chicago,IL,"Chicago, IL 60625",USA,cooperative,check,https://www.sittingaround.com/find-babysitting-cooperatives/US/illinois/chicago/60625/1460/lincoln-square-area-weekday-helpers/,,,,,,,,,,,,,,,,SEWG,DC,,,,,,
Lincoln Square Community Garden,4811 N. Western Ave.,60625,Chicago,IL,"Chicago, IL 60625",USA,Community Garden,yes,https://www.facebook.com/Lincoln-Square-Community-Garden-233047780045542/,,,,,,,,,,,,,,-87.68881702,41.96866039,Neighborspace,SE,,,,,,
LINK UNLIMITED,2221 S STATE ST,,Chicago,IL,"Chicago, IL",USA,,no,https://mce.uwcc.wisc.edu/Cooperatives_map/,,,,,,,,,,,(312) 225-5465 (# disconnected),,,-87.6267362,41.8520138,SEWG,DC,,,,,,
Lincoln Square Evening Farmers Market,2301 W. Leland Ave.,60615,Chicago,IL,"Chicago, IL 60615",USA,Farmers Market,yes,https://www.dnainfo.com/chicago/20160407/downtown/chicago-farmers-markets-heres-schedule-map,,,,,,,,,,,,,,-87.6874513,41.96671831,City of Chicago Farmers Markets,SE,,,,,,
Lincoln Square Mamas Babysitting Exchange,,60625,Chicago,IL,"Chicago, IL 60625",USA,cooperative,check,https://www.sittingaround.com/find-babysitting-cooperatives/US/illinois/chicago/60625/937/lincoln-square-mamas-babysitting-exchange/,,,,,,,,,,,,,,,,SEWG,DC,,,,,,
Links Hall,3111 N Western Ave,60618,Chicago,IL,"Chicago, IL 60618",USA,Arts Centre,yes,http://www.linkshall.org/,,,,,,,,,,,,,,-87.68805129,41.93782796,Shareable Map,SE,,,,,,
Lion's Garden,3301 W Beach Ave,60651,Chiago,IL,"Chiago, IL 60651",USA,Community Garden,yes,http://neighbor-space.org/2012/06/17/lions-garden/,,,,,,,,,,,,,,-87.70939123,41.9072598,Neighborspace,SE,,,,,,
Literacenter,"641 W Lake St, #200",60661,Chicago,IL,"Chicago, IL 60661",USA,Social Workshop,yes,http://chicagoliteracyalliance.org/,,,,,,,,,,,,,,-87.64440757,41.88560624,Steve Ediger,SE,,,,,,
Little Black Pearl,1060 E. 47th St.,60653,Chicago,IL,"Chicago, IL 60653",USA,Arts Centre,yes,blackpearl.org,,,,,,,,,,,,,,-87.60021296,41.8096933,Accelerate77,SE,,,,,,
Little Village Branch Library,2311 S. Kedzie Avenue,60623,Chicago,IL,"Chicago, IL 60623",USA,Library,yes,http://www.chipublib.org/locations/51,,,,,,,,,,,,,,-87.70510341,41.84976148,data.cityofchicago.org,SE,,,,,,
Little Village Community Council,3610 W 26th St,60623,Chicago,IL,"Chicago, IL 60623",USA,Association Office,yes,https://www.facebook.com/Little-Village-Community-Council-119347054782470/,,,,,,,,,,,,,,-87.71528329,41.84446757,Accelerate77,SE,,,,,,
Little Village Environmental,2856 S Millard Ave,60623,Chicago,IL,"Chicago, IL 60623",USA,Community Center,yes,lvejo.org,,,,,,,,,,,,,,-87.71598767,41.84017979,Shareable Map,SE,,,,,,
JACKSON SHORE CO-OP,5490 S SHORE DR,,Chicago,IL,"Chicago, IL",USA,Housing Coop,yes,https://mce.uwcc.wisc.edu/Cooperatives_map/,,,,,,,,,,,,,,-87.5811785,41.7954642,SEWG,DC,,,,,,
Jesus People USA,920 W. Wilson,60640,Chicago,IL,"Chicago, IL 60640",USA,Housing Coop,check,https://www.facebook.com/jesuspeople?fref=ts&rf=115489581799871,,,,,,,,,,,,,,-87.65290103,41.96554764,Fellowship of Intentional Communities,SE,,,,,,
Living La Fiesta Catering,,,Chicago,IL,"Chicago, IL",USA,cooperative,check,https://www.facebook.com/Living-La-Fiesta-Catering-Co-op-375230956234555/,,,,,,,,,,,,,,,,SEWG,DC,,,,,,
Logan Square Branch Library,3030 West Fullerton,60647,Chicago,IL,"Chicago, IL 60647",USA,Library,yes,http://www.chipublib.org/locations/49/,,,,,,,,,,,,,,-87.70333502,41.92484331,Accelerate77,SE,,,,,,
Logan Square Farmers Market,3107 W. Logan Blvd.,60647,Chicago,IL,"Chicago, IL 60647",USA,Farmers Market,yes,https://www.dnainfo.com/chicago/20160407/downtown/chicago-farmers-markets-heres-schedule-map,,,,,,,,,,,,,,-87.70516104,41.92813703,City of Chicago Farmers Markets,SE,,,,,,
Logan Square Neighborhood Association,2840 N Milwaukee Ave,60618,Chicago,IL,"Chicago, IL 60618",USA,Association Office,yes,lsna.net,,,,,,,,,,,,,,-87.71370095,41.93280377,Shareable Map,SE,,,,,,
Jesus People USA,920 West Wilson Avenue,60640,Chicago,Il,"Chicago, Il 60640",USA,Housing Coop,check,www.jpusa.org,,,,,,,,,,,,,,-87.65290103,41.96554764,Accelerate77,SE,,,,,,
Logan Square Parents Babysitting Coop,,60647,Chicago,IL,"Chicago, IL 60647",USA,cooperative,check,https://www.sittingaround.com/find-babysitting-cooperatives/US/illinois/chicago/60647/1237/logan-square-parents-babysitting-co-op/,,,,,,,,,,,,,,,,SEWG,DC,,,,,,
Logan Square Parents Unite,,60647,Chicago,IL,"Chicago, IL 60647",USA,cooperative,check,https://www.sittingaround.com/find-babysitting-cooperatives/US/illinois/chicago/60647/926/logan-square-parents-unite/,,,,,,,,,,,,,,,,SEWG,DC,,,,,,
Loud Grade Produce Squad,4650 N Clarendon Ave,60640,Chicago,Il,"Chicago, Il 60640",USA,Community Garden,yes,www.loudgradeproducesquad.org,,,,,,,,,,,,,,-87.65013944,41.96671198,Neighborspace,SE,,,,,,
Loyola Dunes Habitat Restoration,1132 W. Lunt Ave,60626,Chicago,IL,"Chicago, IL 60626",USA,Association Office,yes,http://loyoladunesrestoration.wordpress.com/,,,,,,,,,,,,,,-87.66090935,42.00929205,Accelerate77,SE,,,,,,
Kenmore Plaza,,,,,,,Housing Coop,check,http://chicagocoop.net/directory/,,,,,,,,,,,,,,,,,,,,,,,
Loyola Farmers Market,1200 W. Loyola Ave.,60626,Chicago,IL,"Chicago, IL 60626",USA,Farmers Market,yes,https://www.dnainfo.com/chicago/20160407/downtown/chicago-farmers-markets-heres-schedule-map,,,,,,,,,,,,,,-87.66175909,42.0015049,City of Chicago Farmers Markets,SE,,,,,,
Lozano Branch Library,1805 S. Loomis Street,60608,Chicago,IL,"Chicago, IL 60608",USA,Library,yes,http://www.chipublib.org/locations/62,,,,,,,,,,,,,,-87.66122728,41.85781371,data.cityofchicago.org,SE,,,,,,
M.W.P.H. Grand Lodge of Illinois Federal Credit Union,809 E 42nd Pl,60653,Chicago,IL,"Chicago, IL 60653",USA,Credit Union,yes,http://creditunionaccess.com/cu24123.htm,,,,,,,,,,,(773)538-1488,,,-87.60636452,41.8178593,creditunionaccess.com,SE,,,,,,
Major Taylor Trail,2172 W 83rd St,60620,Chicago,IL,"Chicago, IL 60620",USA,Open Space,yes,www.majortaylortrail.org,,,,,,,,,,,,,,-87.67732461,41.74297705,Accelerate77,SE,,,,,,
MAKE!Chicago,1048 W. 37th St.,60609,Chicago,IL,"Chicago, IL 60609",USA,Hackerspace,yes,http://www.make-chicago.com/,,,,,,,,,,,,,,-87.65475787,41.82707396,Steve Ediger,SE,,,,,,
Manning Branch Library,6 S. Hoyne Avenue,60612,Chicago,IL,"Chicago, IL 60612",USA,Library,yes,http://www.chipublib.org/locations/55,,,,,,,,,,,,,,-87.67917611,41.88117947,data.cityofchicago.org,SE,,,,,,
MASS MUTUAL FINANCIAL GROUP,1 N FRANKLIN ST,,Chicago,IL,"Chicago, IL",USA,,no,https://mce.uwcc.wisc.edu/Cooperatives_map/,,,,,,,,,,,(312) 984-1000,,,-87.6350643,41.8822768,SEWG,DC,,,,,,
Margate Park Block Club,905 W. Margate Terrace #2W,60640,Chicago,IL,"Chicago, IL 60640",USA,Association Office,yes,https://www.facebook.com/Margate-Park-Block-Club-173144299413921/,,,,,,,,,,,,,,-87.65286429,41.97236288,Accelerate77,SE,,,,,,
Maroon Financial Credit Union,5525c S Ellis Ave,60637,Chicago,IL,"Chicago, IL 60637",USA,Credit Union,yes,https://www.maroonfinancial.org/home.htm,,,,,,,,,,,(773)702-7179,,,-87.60137616,41.79458091,creditunionaccess.com,SE,,,,,,
McKinley Library Park,3518-28 S Wolcott Ave,,Chicago,IL,"Chicago, IL",USA,,no,,,,,,,,,,,,,,,-87.6730131,41.8298446,SEWG,DC,,,,,,
Maya Essence,4357 N. Lincoln Ave.,60618,Chicago,IL,"Chicago, IL 60618",USA,Cooperative,yes,www.mayaessence.com,,,,,,,,,,,,,,-87.68335419,41.96086007,Accelerate77,SE,,,,,,
Mech Creations,231 N Pine,,Chicago,IL,"Chicago, IL",USA,,no,,,,,,,,,,,,,,,-87.7629566,41.8853738,SEWG,DC,,,,,,
Mayfair Branch Library,4400 W. Lawrence Avenue,60630,Chicago,IL,"Chicago, IL 60630",USA,Library,yes,http://www.chipublib.org/locations/52,,,,,,,,,,,,,,-87.73792488,41.96822377,data.cityofchicago.org,SE,,,,,,
McKinley Park Branch Library,1915 W. 35th Street,60609,Chicago,IL,"Chicago, IL 60609",USA,Library,yes,http://www.chipublib.org/locations/50,,,,,,,,,,,,,,-87.67345004,41.83032047,data.cityofchicago.org,SE,,,,,,
Merchant Park Community Garden,3522 Keeler Ave,60641,Chicago,IL,"Chicago, IL 60641",USA,Community Garden,yes,https://www.facebook.com/MPCGarden/,,,,,,,,,,,,,,-87.73228255,41.94559287,Neighborspace,SE,,,,,,
Mercy Housing,"120 S La Salle St, Chicago",60603,Chicago,IL,"Chicago, IL 60603",USA,assisted living place,yes,mercyhousing.org,,,,,,,,,,,,,,-87.63239987,41.88002943,Shareable Map,SE,,,,,,
Mercy Housing Youth Garden,4912 W Quincy St,60644,Chicago,IL,"Chicago, IL 60644",USA,Community Garden,yes,http://neighbor-space.org/2012/07/17/mercy-housing-youth-garden/,,,,,,,,,,,,,,-87.74767742,41.87775042,Neighborspace,SE,,,,,,
Merlo Branch Library,644 W. Belmont Avenue,60657,Chicago,IL,"Chicago, IL 60657",USA,Library,yes,http://www.chipublib.org/locations/46,,,,,,,,,,,,,,-87.64558219,41.94011118,data.cityofchicago.org,SE,,,,,,
Mexico US Solidarity Network,3460 West Lawrence Avenue,60625,Chicago,IL,"Chicago, IL 60625",USA,Social Workshop,yes,mexicosolidarity.org,,,,,,,,,,,,,,-87.71512817,41.9684728,Shareable Map,SE,,,,,,
Midway Garden Society,6423 W. 63rd Place,60638,Chicago,IL,"Chicago, IL 60638",USA,Community Garden,yes,http://www.midwaygardensociety.magix.net/public/,,,,,,,,,,,,,,-87.78178416,41.77667847,Accelerate77,SE,,,,,,
Millennium Neighborhoods Garden & Fillmore Apiary,3740 W. Fillmore St.,60624,Chicago,IL,"Chicago, IL 60624",USA,Community Garden,yes,https://communitygarden.org/find-a-garden/gardens/the-millennium-neighborhood-garden/,,,,,,,,,,,,,,-87.71838525,41.86816551,Accelerate77,SE,,,,,,
MML INVESTORS SVC,300 S WACKER DR # 2000,,Chicago,IL,"Chicago, IL",USA,,no,https://mce.uwcc.wisc.edu/Cooperatives_map/,,,,,,,,,,,,,,-87.6369152,41.8780652,SEWG,DC,,,,,,
Mindful Living Community Garden,3323 N. Drake Ave.,60618,Chicago,Il,"Chicago, Il 60618",USA,Community Garden,yes,https://www.facebook.com/Mindful-Living-57267667117/,,,,,,,,,,,,,,-87.71615737,41.94149869,Accelerate77,SE,,,,,,
MKP CHICAGO,1900 W FULTON ST,60612,Chicago,IL,"Chicago, IL 60612",USA,Social Workshop,yes,http://chicago.mkp.org/,,,,,,,,,,,(312) 243-6743 (# does not work),,,-87.6746408,41.8870753,SEWG,DC,,,,,,
Moms of Beverly Babysitting Coop,,60643,Chicago,IL,"Chicago, IL 60643",USA,cooperative,check,https://www.sittingaround.com/find-babysitting-cooperatives/US/illinois/chicago/60643/454/moms-of-beverly-babysitting-coop/,,,,,,,,,,,,,,,,SEWG,DC,,,,,,
Montrose Metra Community Gardens,4200-4400 N Ravenswood Ave,,Chicago,IL,"Chicago, IL",USA,,no,,,,,,,,,,,,,,,-87.6743307,41.956303,SEWG,DC,,,,,,
Morganway Community Garden,7844 S Morgan St,,Chicago,IL,"Chicago, IL",USA,,no,,,,,,,,,,,,,,,-87.6492449,41.751046,SEWG,DC,,,,,,
Monarch Community Garden,1050 N California Ave,60622,Chicago,IL,"Chicago, IL 60622",USA,Community Garden,yes,https://www.facebook.com/Monarch-Community-Garden-208194039212493/,,,,,,,,,,,,,,-87.6969138,41.9006042,Shareable Map,SE,,,,,,
Koinonia House,6925 N Ashland,60626,Chicago,IL,"Chicago, IL 60626",USA,Housing Coop,yes,https://www.facebook.com/Koinonia-House-216208748407449/,,,,,,,,,,,,,,-87.6699279,42.00743033,Fellowship of Intentional Communities,SE,,,,,,
Monticello Community Garden,2227 N. Monticello Avenue,60647,Chicago,Il,"Chicago, Il 60647",USA,Community Garden,yes,https://www.facebook.com/monticellogarden,,,,,,,,,,,,,,-87.71803535,41.92158204,Accelerate77,SE,,,,,,
Morse School Bird Habitat,613-15 N Sawyer Ave,60624,Chicago,IL,"Chicago, IL 60624",USA,Community Garden,yes,http://neighbor-space.org/2012/06/17/morse-school-bird-habitat/,,,,,,,,,,,,,,-87.723846,41.877445,Neighborspace,SE,,,,,,
Mount Greenwood Branch Library,11010 S. Kedzie Avenue,60655,Chicago,IL,"Chicago, IL 60655",USA,Library,yes,http://www.chipublib.org/locations/54,,,,,,,,,,,,,,-87.70097417,41.69319906,data.cityofchicago.org,SE,,,,,,
Mount Greenwood Garden Club,3442 W. 108th St..,60655,Chicago,IL,"Chicago, IL 60655",USA,Community Garden,yes,https://www.facebook.com/mtgreenwood.gardenclub,,,,,,,,,,,,,,-87.70738914,41.69703349,Accelerate77,SE,,,,,,
Mozart’s Community Garden,Mozart and Walton,60622,Chicago,IL,"Chicago, IL 60622",USA,Community Garden,yes,http://neighbor-space.org/2013/06/06/mozarts-community-garden/,,,,,,,,,,,,,,-87.67088,41.897111,Neighborspace,SE,,,,,,
Multikulti,1000 N Milwaukee Ave,60642,Chicago,IL,"Chicago, IL 60642",USA,Arts Centre,yes,mkchi.org,,,,,,,,,,,,,,-87.66102087,41.89976038,Shareable Map,SE,,,,,,
Mwrd Employees Credit Union,100 E Erie St,60611,Chicago,IL,"Chicago, IL 60611",USA,Credit Union,yes,http://creditunionaccess.com/cu65843.htm,,,,,,,,,,,(312)751-3111,,,-87.62541622,41.89420792,creditunionaccess.com,SE,,,,,,
National Immigrant Justice Center,"208 S. LaSalle St., Suite 1300",60604,Chicago,IL,"Chicago, IL 60604",USA,Social Workshop,yes,immigrantjustice.org,,,,,,,,,,,,,,-87.63237426,41.87913914,Shareable Map,SE,,,,,,
NATIONWIDE ADJUSTERS,105 W MADISON ST # 23,,Chicago,IL,"Chicago, IL",USA,,no,https://mce.uwcc.wisc.edu/Cooperatives_map/,,,,,,,,,,,,,,-87.6312282,41.8818297,SEWG,DC,,,,,,
NATIONWIDE FINANCIAL SVC,8912 S COMMERCIAL AVE,,Chicago,IL,"Chicago, IL",USA,,no,https://mce.uwcc.wisc.edu/Cooperatives_map/,,,,,,,,,,,,,,-87.5515069,41.733253,SEWG,DC,,,,,,
NATIONWIDE INSURANCE,1024 N WESTERN AVE # 102,,Chicago,IL,"Chicago, IL",USA,,no,https://mce.uwcc.wisc.edu/Cooperatives_map/,,,,,,,,,,,,,,-87.6873022,41.9001693,SEWG,DC,,,,,,
NATIONWIDE INSURANCE,1024 W FRY #102,,Chicago,IL,"Chicago, IL",USA,,no,https://www.abegtinsurance.com/,,,,,,,,,,,(312) 738-1384,,,-87.6530157,41.8975437,SEWG,DC,,,,,,
NATIONWIDE INSURANCE,1024 W FRY ST # 102,,Chicago,IL,"Chicago, IL",USA,,no,https://mce.uwcc.wisc.edu/Cooperatives_map/,,,,,,,,,,,312-733-5400,,,-87.6530157,41.8975437,SEWG,DC,,,,,,
NATIONWIDE INSURANCE,135 S LA SALLE ST # 2950,,Chicago,IL,"Chicago, IL",USA,,no,https://mce.uwcc.wisc.edu/Cooperatives_map/,,,,,,,,,,,,,,-87.6317882,41.8797853,SEWG,DC,,,,,,
NATIONWIDE INSURANCE,525 W HAWTHORNE PL,,Chicago,IL,"Chicago, IL",USA,,no,https://mce.uwcc.wisc.edu/Cooperatives_map/,,,,,,,,,,,,,,-87.642142,41.944427,SEWG,DC,,,,,,
NATIONWIDE INSURANCE,7823 S WESTERN AVE,,Chicago,IL,"Chicago, IL",USA,,no,https://mce.uwcc.wisc.edu/Cooperatives_map/,,,,,,,,,,,,,,-87.6824788,41.7512126,SEWG,DC,,,,,,
NATIONWIDE INSURANCE,7908 S HALSTED ST,,Chicago,IL,"Chicago, IL",USA,,no,https://mce.uwcc.wisc.edu/Cooperatives_map/,,,,,,,,,,,,,,-87.644316,41.7498755,SEWG,DC,,,,,,
NATIONWIDE INSURANCE,8613 S ASHLAND AVE,,Chicago,IL,"Chicago, IL",USA,,no,https://mce.uwcc.wisc.edu/Cooperatives_map/,,,,,,,,,,,,,,-87.6628524,41.7371547,SEWG,DC,,,,,,
NATIONWIDE MUTUAL INSURANCE,135 S LA SALLE ST # 2950,,Chicago,IL,"Chicago, IL",USA,,no,https://mce.uwcc.wisc.edu/Cooperatives_map/,,,,,,,,,,,,,,-87.6317882,41.8797853,SEWG,DC,,,,,,
NATIONWIDE RETIREMENT SLTNS,205 W RANDOLPH ST # 1540,,Chicago,IL,"Chicago, IL",USA,,no,https://mce.uwcc.wisc.edu/Cooperatives_map/,,,,,,,,,,,(312) 443-1975,,,-87.6341776,41.8839255,SEWG,DC,,,,,,
National Museum of Mexican Art,1852 W. 19th St,60608,Chicago,IL,"Chicago, IL 60608",USA,museum,yes,http://www.nationalmuseumofmexicanart.org/,,,,,,,,,,,,,,-87.67234738,41.85597446,Accelerate77,SE,,,,,,
National Public Housing Museum,625 N Kingsbury,60654,Chicago,IL,"Chicago, IL 60654",USA,Museum,yes,https://www.nphm.org,,,,,,,,,,,,,,-87.6407312,41.8928203,SEWG,DC,,,,,,
Near North Branch Library,310 W. Division Street,60610,Chicago,IL,"Chicago, IL 60610",USA,Library,yes,http://www.chipublib.org/locations/60,,,,,,,,,,,,,,-87.63676077,41.9039084,data.cityofchicago.org,SE,,,,,,
Lafayette Plaza Housing Cooperative,50 w 71st,60621,Chicago,IL,"Chicago, IL 60621",USA,Housing Coop,yes,https://www.facebook.com/pages/Lafayette-Plaza-Housing-Co-Op/162466630449253,,,,,,,,,,,,,,-87.6271603,41.7657266,SEWG,DC,,,,,,
LAKE EDGE CO-OP,3017 E 78TH ST,,Chicago,IL,"Chicago, IL",USA,Housing Coop,yes,https://mce.uwcc.wisc.edu/Cooperatives_map/,,,,,,,,,,,(773) 374-2718,,,-87.5506525,41.7553647,SEWG,DC,,,,,,
Near Northwest Arts Council (NNWAC),2418 W Bloomingdale Ave,60647,Chicago,IL,"Chicago, IL 60647",USA,Arts Centre,yes,www.nnwac.org/,,,,,,,,,,,,,,-87.68796193,41.91407574,Accelerate77,SE,,,,,,
Near South Planning Board,2600 S. Michigan Ave,60616,Chicago,IL,"Chicago, IL 60616",USA,Association Office,yes,http://thenearsouthplanningboard.org/,,,,,,,,,,,,,,-87.62372585,41.84563006,Accelerate77,SE,,,,,,
NeighborSpace,"445 N Sacramento Blvd, Suite 204",60612,Chicago,IL,"Chicago, IL 60612",USA,Community Garden,yes,http://neighbor-space.org/,,,,,,,,,,,,,,-87.7008823,41.8895641,SEWG,DC,,,,,,
New Era Doors & Windows,2600 W. 35th St. Suite 127,60632,Chicago,IL,"Chicago, IL 60632",USA,cooperative,yes,http://newerawindows.com,,,,,,,,,,,,,,-87.6906691,41.8308707,SEWG,DC,,,,,,
NEW LEADERS FOR NEW SCHOOLS,3423 W NORTH AVE,60647,Chicago,IL,"Chicago, IL 60647",USA,,no,https://mce.uwcc.wisc.edu/Cooperatives_map/,,,,,,,,,,,"312.546.8246 (Chi), 646.792.1070 (NYC)",,,-87.712905,41.9098535,SEWG,DC,,,,,,
New Era Windows,2600 W. 35th St. Suite 127,60632,Chicago,IL,"Chicago, IL 60632",USA,Workers Collective,yes,http://www.newera.com,,,,,,,,,,,,,,-87.69439253,41.83018824,Steve Ediger,SE,,,,,,
Lakeview East Cooperative,707 W Waveland,60613,Chicago,IL,"Chicago, IL 60613",USA,Housing Coop,yes,https://lakevieweastco-op.com/,,,,,,,,,,,,,,-87.6469756,41.9493527,SEWG,DC,,,,,,
New Foundation of Hope,8146 S Kedzie Avenue,60652,Chicago,IL,"Chicago, IL 60652",USA,Social Workshop,yes,http://www.newfoundationofhope.org,,,,,,,,,,,,,,-87.70235853,41.7452914,Accelerate77,SE,,,,,,
Lakeview Towers Cooperative Assoiciation,4550 N Clarendon St,60604,Chicago,IL,"Chicago, IL 60604",USA,Housing Coop,yes,http://www.lakeviewtowerschicago.com/,,,,,,,,,,,,,,-87.650079,41.9656254,SEWG,DC,,,,,,
Next Space River North,"230 W Superior, 2F",60654,Chicago,IL,"Chicago, IL 60654",USA,Coworking Space,yes,http://nextspace.us/chicago/river-north/,,,,,,,,,,,,,,-87.636511,41.887141,Shareable Map,SE,,,,,,
North American Students of Cooperation (NASCO),3707 West Montrose Avenue,60618,Chicago,IL,"Chicago, IL 60618",USA,Social Workshop,yes,www.nasco.coop/,,,,,,,,,,,,,,-87.7208597,41.9608077,Find.coop,SE,,,,,,
North Park Tower Cooperative,300 w North,,Chicago,IL,"Chicago, IL",USA,,no,http://www.uhab.org/coopresearch,,,,,,,,,,,,,,-87.6371076,41.91158,SEWG,DC,,,,,,
North Austin Branch Library,5724 W. North Avenue,60639,Chicago,IL,"Chicago, IL 60639",USA,Library,yes,http://www.chipublib.org/locations/56,,,,,,,,,,,,,,-87.76886658,41.90942603,data.cityofchicago.org,SE,,,,,,
North Center Farmers Market *,4100 N. Lincoln Ave.,60618,Chicago,IL,"Chicago, IL 60618",USA,Farmers Market,yes,https://www.dnainfo.com/chicago/20160407/downtown/chicago-farmers-markets-heres-schedule-map,,,,,,,,,,,,,,-87.68010636,41.95592498,City of Chicago Farmers Markets,SE,,,,,,
North Pulaski Branch Library,4300 W. North Avenue,60639,Chicago,IL,"Chicago, IL 60639",USA,Library,yes,http://www.chipublib.org/locations/58,,,,,,,,,,,,,,-87.73389217,41.90993781,data.cityofchicago.org,SE,,,,,,
North River Commission,3403 W. Lawrence Ave. #201,60625,Chicago,IL,"Chicago, IL 60625",USA,Association Office,yes,http://northrivercommission.org/,,,,,,,,,,,,,,-87.71346774,41.96830968,Accelerate77,SE,,,,,,
Northern Raptor Kung Fu,7014 N Western Ave,60645,Chicago,IL,"Chicago, IL 60645",USA,,no,https://www.facebook.com/NorthernRaptorKungFu,,,,,,,,,,,773-895-9837,,,-87.6905272,42.0091522,SEWG,DC,,,,,,
North Side Community Federal Credit Union,1011 W Lawrence Ave,60640,Chicago,IL,"Chicago, IL 60640",USA,Credit Union,yes,http://www.northsidecommunityfcu.org/,,,,,,,,,,,(773)769-5800,,,-87.65529688,41.96899352,creditunionaccess.com,eaz,,,,,,
North Side L Federal Credit Union,4753 N Broadway St Suite 808,60640,Chicago,IL,"Chicago, IL 60640",USA,Credit Union,yes,http://creditunionaccess.com/cu02467.htm,,,,,,,,,,,(708) 345-3231,,,-87.65918808,41.96824751,creditunionaccess.com,eaz,,,,,,
Northside Babysitting Coop,,60657,Chicago,IL,"Chicago, IL 60657",USA,cooperative,check,https://www.sittingaround.com/find-babysitting-cooperatives/US/illinois/chicago/60657/714/northside-babysitting-coop/,,,,,,,,,,,,,,,,SEWG,DC,,,,,,
NORTHSTAR CREDIT UNION,555 W 31ST ST,60616,Chicago,IL,"Chicago, IL 60616",USA,Credit Union,yes,https://www.nscu.org,,,,,,,,,,,312.225.1258,,,-87.6411745,41.8378984,SEWG,DC,,,,,,
NORTHWESTERN MUTUAL LIFE,1 N WACKER DR # 4600,,Chicago,IL,"Chicago, IL",USA,,no,https://mce.uwcc.wisc.edu/Cooperatives_map/,,,,,,,,,,,(312) 690-9750,,,-87.6361052,41.8822594,SEWG,DC,,,,,,
NORTHWESTERN MUTUAL LIFE INS,20 N WACKER DR # 1544,,Chicago,IL,"Chicago, IL",USA,,no,https://mce.uwcc.wisc.edu/Cooperatives_map/,,,,,,,,,,,(312) 609-0800,,,-87.6374869,41.8825299,SEWG,DC,,,,,,
NORTHWESTERN MUTUAL LIFE INS,311 W SUPERIOR ST # 525,,Chicago,IL,"Chicago, IL",USA,,no,http://rivernorth.nm.com/,,,,,,,,,,,(773) 537-2030,,,-87.6365723,41.8953172,SEWG,DC,,,,,,
NORTHWESTERN MUTUAL LIFE INS,3516 N SHEFFIELD AVE,,Chicago,IL,"Chicago, IL",USA,,no,https://mce.uwcc.wisc.edu/Cooperatives_map/,,,,,,,,,,,(866) 950-4644,,,-87.6546834,41.9460251,SEWG,DC,,,,,,
Northtown Branch Library,6435 N. California Avenue,60645,Chicago,IL,"Chicago, IL 60645",USA,Library,yes,http://www.chipublib.org/locations/59,,,,,,,,,,,,,,-87.69957497,41.99821117,data.cityofchicago.org,SE,,,,,,
Northwest Food Partners Network,3533 W. North Ave,60647,Chicago,Il,"Chicago, Il 60647",USA,food bank,yes,http://northwestfoodpartnersnetwork.wordpress.com/,,,,,,,,,,,,,,-87.71474017,41.90998956,Accelerate77,SE,,,,,,
Logan Square Cooperative,3934 West George Street,60613,Chicago,IL,"Chicago, IL 60613",USA,Housing Coop,check,https://www.facebook.com/logansquarecoop,,,,,,,,,,,,,,-87.7260719,41.93377,SEWG,DC,,,,,,
Norwood Park Babysitting Coop,,60631,Chicago,IL,"Chicago, IL 60631",USA,cooperative,check,https://www.sittingaround.com/find-babysitting-cooperatives/US/illinois/chicago/60631/1543/norwood-park-and-surrounding-area/,,,,,,,,,,,,,,,,SEWG,DC,,,,,,
Norwood Park Historical Society,5624 N. Newark Ave.,60631,Chicago,IL,"Chicago, IL 60631",USA,Association Office,yes,http://www.norwoodparkhistoricalsociety.org,,,,,,,,,,,,,,-87.79511985,41.98337186,Accelerate77,SE,,,,,,
Old Town Triangle Park,1900-06 N Clark St,,Chicago,IL,"Chicago, IL",USA,,no,,,,,,,,,,,,,,,-87.635397,41.916762,SEWG,DC,,,,,,
Oak Park Coop,,60304,Chicago,IL,"Chicago, IL 60304",USA,cooperative,check,https://www.sittingaround.com/find-babysitting-cooperatives/US/illinois/oak-park/60304/1255/oak-park-coop/,,,,,,,,,,,,,,,,SEWG,DC,,,,,,
OfficePort,9 W Washington St,60602,Chicago,IL,"Chicago, IL 60602",USA,Coworking Space,yes,officeportnetwork.com,,,,,,,,,,,,,,-87.62815288,41.88312706,Shareable Map,SE,,,,,,
Olive's Neighborhood Garden,5201 W. Ainslie,60630,Chicago,IL,"Chicago, IL 60630",USA,Community Garden,yes,https://www.facebook.com/OlivesNeighborhoodGarden,,,,,,,,,,,,,,-87.75759218,41.969646,Accelerate77,SE,,,,,,
Olive’s Garden for the Hungry,4895 N Laramie Ave,60630,Chicago,IL,"Chicago, IL 60630",USA,Community Garden,yes,https://www.facebook.com/OlivesNeighborhoodGarden,,,,,,,,,,,,,,-87.7575804,41.9696562,SEWG,DC,,,,,,
Onward Coworking,954 W Washington Blvd #500,60607,Chicago,IL,"Chicago, IL 60607",USA,Coworking Space,yes,onwardcoworking.com,,,,,,,,,,,,,,-87.65131796,41.88316591,Shareable Map,SE,,,,,,
Onward Neighborhood House,5413 W. Diversey Ave.,60639,Chicago,IL,"Chicago, IL 60639",USA,Social Workshop,yes,http://www.onwardhouse.org/,,,,,,,,,,,,,,-87.76190178,41.9312409,Accelerate77,SE,,,,,,
OP D97,,60302,Chicago,IL,"Chicago, IL 60302",USA,cooperative,check,https://www.sittingaround.com/find-babysitting-cooperatives/US/illinois/oak-park/60302/855/op-d97/,,,,,,,,,,,,,,,,SEWG,DC,,,,,,
Open Lands,25 E. Washington St. #1650,60602,Chicago,IL,"Chicago, IL 60602",USA,Social Workshop,yes,http://www.openlands.org/,,,,,,,,,,,,,,-87.6269823,41.88312897,Accelerate77,SE,,,,,,
PACIFIC LIFE INSURANCE CO,300 S WACKER DR # 2700,,Chicago,IL,"Chicago, IL",USA,,no,https://mce.uwcc.wisc.edu/Cooperatives_map/,,,,,,,,,,,(312) 922-5777,,,-87.6369152,41.8780652,SEWG,DC,,,,,,
Oriole Park Branch Library,7454 W. Balmoral Avenue,60656,Chicago,IL,"Chicago, IL 60656",USA,Library,yes,http://www.chipublib.org/locations/61,,,,,,,,,,,,,,-87.81329876,41.9781001,data.cityofchicago.org,SE,,,,,,
Paradise Garden on Drake,2214 N Drake Ave,,Chicago,IL,"Chicago, IL",USA,,no,,,,,,,,,,,,,,,-87.7152953,41.9214175,SEWG,DC,,,,,,
Overflow Coffee Bar,1550 S. State St,60605,Chicago,IL,"Chicago, IL 60605",USA,Resturaunt,yes,overflowcoffeebar.org,,,,,,,,,,,,,,-87.62729171,41.86073622,Accelerate77,SE,,,,,,
PARENT COOPERATIVE-EARLY LRNG,5300 S SHORE DR # 1,,Chicago,IL,"Chicago, IL",USA,,no,https://mce.uwcc.wisc.edu/Cooperatives_map/,,,,,,,,,,,(773) 684-6363,,,-87.5829312,41.7992847,SEWG,DC,,,,,,
Paradise Garden,652-658 N Latrobe Ave,60644,Chicago,IL,"Chicago, IL 60644",USA,Community Garden,yes,http://neighbor-space.org/2011/05/20/paradise-garden/,,,,,,,,,,,,,,-87.757606,41.881955,Neighborspace,SE,,,,,,
Logan Square Cooperative,3934-46 W George St,60618,Chicago,IL,"Chicago, IL 60618",USA,Housing Coop,check,https://www.facebook.com/logansquarecoop/,,,,,,,,,,,,,,-87.702859,41.944335,Fellowship of Intentional Communities,SE,,,,,,
Parent Cooperative-Early Learning,5300 S Shore Dr,60637,Chicago,IL,"Chicago, IL 60637",USA,School,yes,parentcoop.org,,,,,,,,,,,,,,-87.58240971,41.79963279,Shareable Map,SE,,,,,,
London Towne Homes,830 E 100th,60628,Chicago,IL,"Chicago, IL 60628",USA,Housing Coop,yes,http://www.lthcoop.com/wordpress/,,,,,,,,,,,,,,-87.6013333,41.71153,SEWG,DC,,,,,,
Park Manor Christian Church Credit Union,600 E 73rd St,60619,Chicago,IL,"Chicago, IL 60619",USA,Credit Union,yes,http://www.parkmanorchristianchurch.org/uploads/PMCCCreditUnion.pdf,,,,,,,,,,,(773)483-0840,,,-87.6103227,41.7622364,creditunionaccess.com,SE,,,,,,
Park West Cooperative Nursery School,2335 N Orchard St,60614,Chicago,IL,"Chicago, IL 60614",USA,School,yes,parkwestcoop.org,,,,,,,,,,,(773) 327-1116,,,-87.64621795,41.92461791,Shareable Map,SE,,,,,,
Partners for Rogers Park,1607 W. Howard St 2nd Floor,60626,Chicago,IL,"Chicago, IL 60626",USA,Social Workshop,yes,http://www.partnersforrogerspark.org/,,,,,,,,,,,,,,-87.669133,42.005107,Accelerate77,SE,,,,,,
Peace in the Valley Garden,168 N Laramie Ave,60644,Chicago,IL,"Chicago, IL 60644",USA,Community Garden,yes,http://neighbor-space.org/2012/06/17/peace-in-the-valley-garden/,,,,,,,,,,,,,,-87.75528767,41.88399202,Neighborspace,SE,,,,,,
Peanut Gallery Art Coop,1000 N California Ave,60622,Chicago,IL,"Chicago, IL 60622",USA,Arts Centre,yes,http://peanutgallerychicago.com,,,,,,,,,,,,,,-87.69688135,41.89929643,Shareable Map,SE,,,,,,
PEOPLES CO-OP MANAGEMENT SVC,460 E 41ST ST,,Chicago,IL,"Chicago, IL",USA,,no,https://mce.uwcc.wisc.edu/Cooperatives_map/,,,,,,,,,,,(773) 451-2578,,,-87.6137921,41.820311,SEWG,DC,,,,,,
Peerless Garden,2701 N Lakewood,60644,Chicago,IL,"Chicago, IL 60644",USA,Community Garden,yes,http://neighbor-space.org/2013/09/16/peerless-garden/,,,,,,,,,,,,,,-87.66099908,41.93071165,Neighborspace,,,,,,,
People for Community Recovery,13330 S. Corliss,60827,Chicago,Il,"Chicago, Il 60827",USA,Social Workshop,yes,www.peopleforcommunityrecovery.org,,,,,,,,,,,,,,-87.60225576,41.65399486,Accelerate77,SE,,,,,,
Peoples Energy Credit Union,200 E Randolph St Fl 22,60601,Chicago,IL,"Chicago, IL 60601",USA,Credit Union,yes,http://www.peoplesenergycu.org/,,,,,,,,,,,(312)240-4970,,,-87.62296664,41.88438065,creditunionaccess.com,SE,,,,,,
Perry Ave Commons,5749 s Perry,60621,Chicago,IL,"Chicago, IL 60621",USA,Community Garden,yes,https://www.sweetwaterfoundation.com/perry-ave-commons,,,,,,,,,,,,,,-87.6273832,41.789563,SEWG,DC,,,,,,
Peterson Garden Project,4642 N Francisco Ave,60625,Chicago,IL,"Chicago, IL 60625",USA,Community Garden,yes,www.petersongarden.org,,,,,,,,,,,,,,87.701192,41.966014,Neighborspace,SE,,,,,,
Phone-Co. Credit Union(Great Lakes Credit Union),225 W Randolph St Suite 1035,60606,Chicago,IL,"Chicago, IL 60606",USA,Credit Union,yes,https://www.glcu.org/pccu/,,,,,,,,,,,(312)372-6264,,,-87.63419359,41.884467,creditunionaccess.com,SE,,,,,,
Pilgrim Baptist Credit Union,3300 S Indiana Ave,60616,Chicago,IL,"Chicago, IL 60616",USA,Credit Union,yes,http://creditunionaccess.com/cu65231.htm,,,,,,,,,,,(312)842-6666,,,-87.62192981,41.8347069,creditunionaccess.com,SE,,,,,,
Lunt-Lake Co-op,1132 Lunt Ave,60626,Chicago,IL,"Chicago, IL 60626",USA,Housing Coop,yes,https://luntlake.org/,,,,,,,,,,,,,,-87.6610573,42.0092289,SEWG,DC,,,,,,
Pioneer Cooperative,"41°47'49""N 87°35'29""W",,Chicago,IL,"Chicago, IL",USA,,no,http://www.uhab.org/coopresearch,,,,,,,,,,,,,,0,0,SEWG,DC,,,,,,
Pilsen Community Market,1800 S. Halsted St.,60608,Chicago,IL,"Chicago, IL 60608",USA,Farmers Market,yes,https://www.dnainfo.com/chicago/20160407/downtown/chicago-farmers-markets-heres-schedule-map,,,,,,,,,,,,,,-87.6467389,41.85808266,City of Chicago Farmers Markets,SE,,,,,,
Pilsen Environmental Rights and Reform Organization,Box 891140,60608,Chicago,IL,"Chicago, IL 60608",USA,Social Workshop,yes,http://pilsenperro.org,,,,,,,,,,,,,,-87.667335,41.849103,Shareable Map,SE,,,,,,
Planites Credit Union,300 E Randolph St Fl 14,60601,Chicago,IL,"Chicago, IL 60601",USA,Credit Union,yes,http://www.planites.org/,,,,,,,,,,,(312)653-6371,,,-87.6207352,41.8843951,creditunionaccess.com,SE,,,,,,
Plant Chicago Community Market,1400 W. 46th St.,60609,Chicago,IL,"Chicago, IL 60609",USA,Farmers Market,yes,https://www.dnainfo.com/chicago/20160407/downtown/chicago-farmers-markets-heres-schedule-map,,,,,,,,,,,,,,-87.66029162,41.81058176,City of Chicago Farmers Markets,SE,,,,,,
Platform Coworking,1286 N Milwaukee Ave,60622,Chicago,IL,"Chicago, IL 60622",USA,Coworking Space,yes,platformcoworking.com,,,,,,,,,,,,,,-87.66873924,41.90470067,Shareable Map,SE,,,,,,
PMSLIC INSURANCE CO,939 W NORTH AVE # 750,,Chicago,IL,"Chicago, IL",USA,,no,https://mce.uwcc.wisc.edu/Cooperatives_map/,,,,,,,,,,,,,,-87.652853,41.9106721,SEWG,DC,,,,,,
Platform Coworking,4422 N. Ravenswood Ave.,60640,Chicago,IL,"Chicago, IL 60640",USA,Coworking Space,yes,platformcoworking.com,,,,,,,,,,,,,,-87.67462246,41.96192945,Shareable Map,SE,,,,,,
Pleasant Farms,964 West 31st Street,60608,Chicago,IL,"Chicago, IL 60608",USA,Farm,yes,http://pleasantfarmschicago.com/,,,,,,,,,,,,,,-87.65080667,41.8380742,Accelerate77,SE,,,,,,
Pocket Guide to Hell,"175 N Desplaines St,",60661,Chicago,IL,"Chicago, IL 60661",USA,tour operator,yes,http://pocketguidetohell.com,,,,,,,,,,,,,,-87.6441416,41.88531001,Shareable Map,SE,,,,,,
Portage Park Farmers Market,4100 N. Long Ave.,60641,Chicago,Il,"Chicago, Il 60641",USA,Farmers Market,yes,https://www.facebook.com/Portage-Park-Farmers-Market-375836939182171/,,,,,,,,,,,,,,-87.76222628,41.95507111,Accelerate77,SE,,,,,,
Portage Park Farmers Market,Berteau Ave. & Central Ave.,60634,Chicago,IL,"Chicago, IL 60634",USA,Farmers Market,yes,https://www.dnainfo.com/chicago/20160407/downtown/chicago-farmers-markets-heres-schedule-map,,,,,,,,,,,,,,-87.811483,41.944287,City of Chicago Farmers Markets,SE,,,,,,
Manchester Knolls,,,,,,,Housing Coop,check,http://chicagocoop.net/directory/,,,,,,,,,,,,,,,,,,,,,,,
Portage-Cragin Branch Library,5108 W. Belmont Avenue,60641,Chicago,IL,"Chicago, IL 60641",USA,Library,yes,http://www.chipublib.org/locations/63,,,,,,,,,,,,,,-87.75445426,41.93881902,data.cityofchicago.org,SE,,,,,,
Prairie District Neighborhood Alliance,1801 S Indiana Ave,60616,Chicago,IL,"Chicago, IL 60616",USA,Association Office,yes,http://www.pdnachicago.com/,,,,,,,,,,,,,,-87.62232093,41.85789508,Accelerate77,SE,,,,,,
Praxis Collaborative,4750 N. Sheridan Rd,60640,Chicago,IL,"Chicago, IL 60640",USA,Group Home,yes,https://praxiscollaborativechicago.org/,,,,,,,,,,,,,,-87.65490013,41.96819205,Shareable Map,SE,,,,,,
preServe Garden,3546 W. 12th Place,60623,Chicago,IL,"Chicago, IL 60623",USA,Community Garden,yes,http://www.slowfoodchicago.org/preserve-garden/,,,,,,,,,,,,,,-87.71410959,41.86524301,Accelerate77,SE,,,,,,
Printers Row Farmers Market *,Polk St. & Dearborn St.,60605,Chicago,IL,"Chicago, IL 60605",USA,Farmers Market,check,https://www.dnainfo.com/chicago/20160407/downtown/chicago-farmers-markets-heres-schedule-map,,,,,,,,,,,,,,-87.627039,41.865699,City of Chicago Farmers Markets,SE,,,,,,
Proyecto Xochiquetzal / Xochiquetzal Peace Garden,1903 W. 23rd St,60608,Chicago,IL,"Chicago, IL 60608",USA,Community Garden,yes,http://xochiquetzalpilsen.org/,,,,,,,,,,,,,,-87.67344207,41.85030729,Accelerate77,SE,,,,,,
Public Media Institute,3219 S. Morgan Street,60608,Chicago,IL,"Chicago, IL 60608",USA,Arts Centre,yes,http://www.publicmediainstitute.com/,,,,,,,,,,,,,,-87.65099632,41.83572722,Accelerate77,SE,,,,,,
PUERTO RICAN HIGH SCHOOL,2700 W HADDON AVE,,Chicago,IL,"Chicago, IL",USA,,no,https://mce.uwcc.wisc.edu/Cooperatives_map/,,,,,,,,,,,(773) 342-8022,,,-87.6946275,41.9022283,SEWG,DC,,,,,,
Puerto Rican Arts Alliance,3000 North Elbridge,60618,Chicago,Il,"Chicago, Il 60618",USA,Arts Centre,yes,www.praachicago.org,,,,,,,,,,,,,,-87.71726961,41.9354723,Accelerate77,SE,,,,,,
PUERTO RICAN CULTURE CTR,2739 W DIVISION,60622,Chicago,IL,"Chicago, IL 60622",USA,Association Office,yes,http://www.prcc-chgo.org/,,,,,,,,,,,773.227.7794 is the correct #,,,-87.6959754,41.9026974,SEWG,DC,,,,,,
Pui Tak Center,2216 S. Wentworth Avenue,60616,Chicago,IL,"Chicago, IL 60616",USA,Social Workshop,yes,puitak.org,,,,,,,,,,,,,,-87.63209521,41.85261809,Accelerate77,SE,,,,,,
Pullman Branch Library,11001 S. Indiana Avenue,60628,Chicago,IL,"Chicago, IL 60628",USA,Library,yes,http://www.chipublib.org/locations/64,,,,,,,,,,,,,,-87.61820072,41.69444638,data.cityofchicago.org,SE,,,,,,
Pullman Farmers Market *,111th St. & Cottage Grove Ave.,60628,Chicago,IL,"Chicago, IL 60628",USA,Farmers Market,yes,https://www.dnainfo.com/chicago/20160407/downtown/chicago-farmers-markets-heres-schedule-map,,,,,,,,,,,,,,-87.62171,41.69154,City of Chicago Farmers Markets,SE,,,,,,
MOSAIC Co-op,2000 Sherman Ave.,60201,Evanston,IL,"Evanston, IL 60201",USA,Housing Coop,yes,https://www.facebook.com/mosaiccooperative/,,,,,,,,,,,,,,-87.68180049,42.05391224,Fellowship of Intentional Communities,SE,,,,,,
Neighborhood Commons,1600 N Vine Street,60614,Chicago,IL,"Chicago, IL 60614",USA,Housing Coop,check,http://neighborhoodcommonscoop.com/,,,,,,,,,,,,,,-87.64444621,41.9109914,Fellowship of Intentional Communities,SE,,,,,,
Neighborhood Commons Co-Op,1600 N Vine St,60614,Chicago,IL,"Chicago, IL 60614",USA,Housing Coop,check,http://neighborhoodcommonscoop.com/,,,,,,,,,,,,,,-87.64444621,41.9109914,Shareable Map,SE,,,,,,
Noble Square Co-op,1165 N Milwaukee Avenue,60622,Chicago,IL,"Chicago, IL 60622",USA,Housing Coop,yes,http://noblesquarecoop.com/,,,,,,,,,,,,,,-87.66581136,41.90303546,Fellowship of Intentional Communities,SE,,,,,,
NORTH AMERICAN STUDENTS-COOP,2150 S Canalport Ave STE 2A-11,60608,Chicago,IL,"Chicago, IL 60608",USA,Housing Coop,yes,https://www.nasco.coop,,,,,,,,,,,773-404-2667,,,-87.65372,41.8527216,SEWG,DC,,,,,,
North Park Tower,,,,,,,Housing Coop,check,http://chicagocoop.net/directory/,,,,,,,,,,,,,,,,,,,,,,,
Nuestro Hogar,3653 w Wabansia,60647,Chicago,IL,"Chicago, IL 60647",USA,Housing Coop,yes,http://www.bickerdike.org/index.php/bickerdike-apartments/our-properties/nuestro-hogar-apartments,,,,,,,,,,,,,,-87.718724,41.9115591,SEWG,DC,,,,,,
Park Forest Cooperative,,,,,,,Housing Coop,check,http://chicagocoop.net/directory/,,,,,,,,,,,,,,,,,,,,,,,
Park Shore East Cooperative,1561 e 61st,60637,Chicago,IL,"Chicago, IL 60637",USA,Housing Coop,yes,https://www.facebook.com/pages/Park-Shore-East-Cooperative/167410189941803,,,,,,,,,,,,,,-87.5879751,41.783714,SEWG,DC,,,,,,
Pullman Gateway Garden,647-657 E 111th St,60628,Chicago,IL,"Chicago, IL 60628",USA,Community Garden,yes,http://www.hpgc.org/gateway.html,,,,,,,,,,,,,,-87.62171,41.69154,Neighborspace,SE,,,,,,
Pumping Station: One,3519 N Elston Ave,60618,Chicago,IL,"Chicago, IL 60618",USA,Hackerspace,yes,pumpingstationone.org,,,,,,,,,,,,,,-87.70655422,41.94516877,Shareable Map,SE,,,,,,
Ravenswood Community Services,4550 N Hermitage St.,60640,Chicago,IL,"Chicago, IL 60640",USA,Social Workshop,yes,http://www.ravenswoodcommunityservices.org,,,,,,,,,,,,,,-87.67257748,41.96429653,Accelerate77,SE,,,,,,
Ravenswood Farmers Market,4900 N. Damen Ave.,60625,Chicago,IL,"Chicago, IL 60625",USA,Farmers Market,yes,https://www.dnainfo.com/chicago/20160407/downtown/chicago-farmers-markets-heres-schedule-map,,,,,,,,,,,,,,-87.67932927,41.9705804,City of Chicago Farmers Markets,SE,,,,,,
PARKSHORE THE CO-OP,1755 E 55TH ST,,Chicago,IL,"Chicago, IL",USA,Housing Coop,yes,https://mce.uwcc.wisc.edu/Cooperatives_map/,,,,,,,,,,,(773) 752-8990,,,-87.5815604,41.7949183,SEWG,DC,,,,,,
Read/Write Library,914 N California Ave,60622,Chicago,IL,"Chicago, IL 60622",USA,Library,yes,http://readwritelibrary.org/,,,,,,,,,,,,,,-87.69685063,41.89799753,Shareable Map,SE,,,,,,
Refugee Sewing Coop,,60640,Chicago,IL,"Chicago, IL 60640",USA,cooperative,no,,,,,,,,,,,,,,,,,SEWG,DC,,,,,,
Reason to Give,2701 W. Thomas St.,60622,Chicago,IL,"Chicago, IL 60622",USA,School,yes,http://reasontogive.com/,,,,,,,,,,,,,,-87.69438173,41.90103884,Accelerate77,SE,,,,,,
Rebuilding Exchange,1740 W. Webster Ave,60614,Chicago,Il,"Chicago, Il 60614",USA,Second Hand Shop,yes,www.rebuildingexchange.org,,,,,,,,,,,,,,-87.6714143,41.92159193,Accelerate77,SE,,,,,,
REI,905 West Eastman St,60642,Chicago,IL,"Chicago, IL 60642",USA,cooperative,yes,https://www.rei.com/,,,,,,,,,,,312.951.6020,,,-87.745937,41.944713,SEWG,DC,,,,,,
Resource Center - Creative Reuse Warehouse,222 East 135th Place,60827,Chicago,Il,"Chicago, Il 60827",USA,Second Hand Shop,yes,http://www.resourcecenterchicago.org/,,,,,,,,,,,,,,-87.61670224,41.648931,Accelerate77,SE,,,,,,
Resurrection Lutheran Federal Credit Union,9349 S Wentworth Ave,60620,Chicago,IL,"Chicago, IL 60620",USA,Credit Union,yes,http://creditunionaccess.com/cu15240.htm,,,,,,,,,,,(773)995-6441,,,-87.655494,41.742065,creditunionaccess.com,SE,,,,,,
Riverbank Neighbors,"411 S. Wells Street, #800",60607,Chicago,IL,"Chicago, IL 60607",USA,Association Office,yes,www.Riverbankneighbors.org,,,,,,,,,,,,,,-87.63360029,41.87672746,Accelerate77,SE,,,,,,
Roden Branch Library,6083 N. Northwest Highway,60631,Chicago,IL,"Chicago, IL 60631",USA,Library,yes,http://www.chipublib.org/locations/100,,,,,,,,,,,,,,-87.79825766,41.99199224,data.cityofchicago.org,SE,,,,,,
Rodeo Garden,2801 S. Washtenaw Ave,60608,Chicago,IL,"Chicago, IL 60608",USA,Community Garden,yes,http://www.chicagobotanic.org/urbanagriculture/apprenticeship/farms,,,,,,,,,,,,,,-87.69170475,41.84465661,Accelerate77,SE,,,,,,
Rogers Park Branch Library,6907 N. Clark Street,60626,Chicago,IL,"Chicago, IL 60626",USA,Library,yes,http://www.chipublib.org/locations/121,,,,,,,,,,,,,,-87.67335605,42.00678881,data.cityofchicago.org,SE,,,,,,
Rogers Park Farms,1610 W. Howard St,60626,Chicago,IL,"Chicago, IL 60626",USA,Farm,yes,http://www.facebook.com/pages/Rogers-Park-Farms/189229727800425,,,,,,,,,,,,,,-87.669133,42.005107,Accelerate77,SE,,,,,,
Rogers Park Garden Group,1500 W. Jarvis Ave,60626,Chicago,IL,"Chicago, IL 60626",USA,Community Garden,yes,https://www.facebook.com/RogersParkGardenGroup,,,,,,,,,,,,,,-87.66815768,42.0161397,Accelerate77,SE,,,,,,
Roosevelt Branch Library,1101 W. Taylor Street,60607,Chicago,IL,"Chicago, IL 60607",USA,Library,yes,http://www.chipublib.org/locations/122,,,,,,,,,,,,,,-87.65423575,41.86936681,data.cityofchicago.org,SE,,,,,,
Root Riot Harambee Garden,500 N Waller St.,60644,Chicago,Il,"Chicago, Il 60644",USA,Community Garden,yes,https://www.facebook.com/RootRiot,,,,,,,,,,,,,,-87.76780819,41.88883425,Accelerate77,SE,,,,,,
Roots and Rays,1523 W Cullerton,60608,Chicago,IL,"Chicago, IL 60608",USA,Community Garden,yes,https://www.facebook.com/lahuertarootsandrays/,,,,,,,,,,,,,,-87.66424154,41.85502078,Neighborspace,SE,,,,,,
S C EMPLOYEE CREDIT UNION,6601 N RIDGE BLVD,,Chicago,IL,"Chicago, IL",USA,,no,https://www.sandc.com,,,,,,,,,,,(773) 338-1000,,,-87.6765717,42.0030257,SEWG,DC,,,,,,
Roseland Community Market,11400 S. Michigan Ave.,60628,Chicago,IL,"Chicago, IL 60628",USA,Farmers Market,yes,https://www.dnainfo.com/chicago/20160407/downtown/chicago-farmers-markets-heres-schedule-map,,,,,,,,,,,,,,-87.62101034,41.68704913,City of Chicago Farmers Markets,SE,,,,,,
Pilsen Housing Coop,1900 W Cullerton St,60608,Chicago,IL,"Chicago, IL 60608",USA,Housing Coop,yes,https://www.pilsenhousingcoop.org,,,,,,,,,,,,,,-87.6736585,41.8553174,SEWG,DC,,,,,,
Ruby Garden,1552 W. Schreiber Ave,60626,Chicago,IL,"Chicago, IL 60626",USA,Community Garden,yes,www.therubygarden.com,,,,,,,,,,,,,,-87.66940361,41.99907446,Accelerate77,SE,,,,,,
"S.O.U.L., Inc",,,Chicago,IL,"Chicago, IL",USA,social Workshop,check,https://www.facebook.com/SoulSustainableOptionsForUrbanLiving/,,,,,,,,,,,773) 250-1770,,,,,SEWG,DC,,,,,,
Salsedo Press,3139 W. Chicago Ave,60622,Chicago,IL,"Chicago, IL 60622",USA,Workers Collective,yes,http://salsedopressinc.com/index.html,,,,,,,,,,,,,,-87.70544447,41.89547351,Steve Ediger,SE,,,,,,
Scottsdale Branch Library,4101 W. 79th Street,60652,Chicago,IL,"Chicago, IL 60652",USA,Library,yes,http://www.chipublib.org/locations/69,,,,,,,,,,,,,,-87.72429026,41.74937263,data.cityofchicago.org,SE,,,,,,
SECOND FEDERAL SAVINGS,3960 W 26TH ST,,Chicago,IL,"Chicago, IL",USA,,no,https://mce.uwcc.wisc.edu/Cooperatives_map/,,,,,,,,,,,(773) 277-8500,,,-87.7243035,41.8445556,SEWG,DC,,,,,,
Season of the Bitch,,,Chicago,IL,"Chicago, IL",USA,Social Workshop,check,https://www.seasonoftheb.com/,,,,,,,,,,,,,,,,SEWG,DC,,,,,,
Seaway Bank Farmers Market,87th St. & Langley Ave.,60619,Chicago,IL,"Chicago, IL 60619",USA,Farmers Market,yes,https://www.dnainfo.com/chicago/20160407/downtown/chicago-farmers-markets-heres-schedule-map,,,,,,,,,,,,,,-87.607643,41.745767,City of Chicago Farmers Markets,SE,,,,,,
Selfreliance Ukrainian American Federal Credit Union,2332 W Chicago Ave,60622,Chicago,IL,"Chicago, IL 60622",USA,Credit Union,yes,http://www.selfreliance.com/,,,,,,,,,,,(773)328-7500,,,-87.68520148,41.89586067,creditunionaccess.com,SE,,,,,,
Share Your Soles Foundation,900 E 103rd St,60628,Chicago,IL,"Chicago, IL 60628",USA,Give-away shops,yes,shareyoursoles.org,,,,,,,,,,,,,,-87.60140926,41.70761763,Shareable Map,SE,,,,,,
Sherman Park Branch Library,5440 S. Racine Avenue,60609,Chicago,IL,"Chicago, IL 60609",USA,Library,yes,http://www.chipublib.org/locations/70,,,,,,,,,,,,,,-87.65498313,41.79523605,data.cityofchicago.org,SE,,,,,,
Pioneer Cooperative,,,,,,,Housing Coop,check,http://chicagocoop.net/directory/,,,,,,,,,,,,,,,,,,,,,,,
Sherwood Peace Garden,257 W 61st St,60621,Chicago,IL,"Chicago, IL 60621",USA,Community Garden,yes,http://neighbor-space.org/2012/06/23/prentiss-place-community-garden/,,,,,,,,,,,,,,-87.6324212,41.78350364,Neighborspace,SE,,,,,,
Shiloh Englewood Federal Credit Union,7058 S Racine Ave,60636,Chicago,IL,"Chicago, IL 60636",USA,Credit Union,yes,http://creditunionaccess.com/cu15454.htm,,,,,,,,,,,(773)651-1750,,,-87.65422477,41.76579724,creditunionaccess.com,SE,,,,,,
Poplar Creek Cooperative,,,,,,,Housing Coop,check,http://chicagocoop.net/directory/,,,,,,,,,,,,,,,,,,,,,,,
Pratt Ashland Cooperative,6807 N. Ashland,60626,Chicago,IL,"Chicago, IL 60626",USA,Housing Coop,yes,http://pac-chicago.blogspot.com/,,,,,,,,,,,,,,-87.6698649,42.00559946,Fellowship of Intentional Communities,SE,,,,,,
Praxis Collaborative Chicago,,,,,,,Housing Coop,check,http://chicagocoop.net/directory/,,,,,,,,,,,,,,,,,,,,,,,
Qumbya -- Blackstone House,5225 South Blackstone Avenue,60615,Chicago,IL,"Chicago, IL 60615",USA,Housing Coop,yes,https://www.nasco.coop/membership/directory,,,,,,,,,,,,,,-87.5901392,41.8002435,SEWG,DC,,,,,,
SkyART,3026 E. 91st St,60617,Chicago,IL,"Chicago, IL 60617",USA,Arts Centre,yes,http://www.skyart.org/,,,,,,,,,,,,,,-87.55014225,41.73017906,Accelerate77,SE,,,,,,
Smart Chicago,"225 North Michigan Avenue, #2200",60601,Chicago,IL,"Chicago, IL 60601",USA,Social Workshop,yes,http://www.smartchicagocollaborative.org/,,,,,,,,,,,,,,-87.62443287,41.88601645,Steve Ediger,SE,,,,,,
Sol House,1500 w Cemak,60608,Chicago,IL,"Chicago, IL 60608",USA,Housing Coop,yes,http://chicagocoop.net/directory/,,,,,,,,,,,,,,-87.6644873,41.8527923,SEWG,DC,,,,,,
SOUTEASTERN DATA CO-OP,180 N STETSON AVE,,Chicago,IL,"Chicago, IL",USA,,no,https://www.sedata.com/,,,,,,,,,,,(312) 233-0010,,,-87.6227258,41.8854342,SEWG,DC,,,,,,
SOURCEONE CREDIT UNION,542 S DEARBORN ST # 410,60605,Chicago,IL,"Chicago, IL 60605",USA,Credit Union,yes,https://chicago.source1cu.com,,,,,,,,,,,(312) 922-0495,,,-87.6294164,41.874823,SEWG,DC,,,,,,
South Chicago Peoples Park,3257-59 E 91st St,,Chicago,IL,"Chicago, IL",USA,,no,,,,,,,,,,,,,,,-87.5445699,41.7299,SEWG,DC,,,,,,
SOUTH DIVISION CREDIT UNION,9059 S Kedzie,60805,Evergreen Park,IL,"Evergreen Park, IL 60805",USA,Credit Union,yes,https://mce.uwcc.wisc.edu/Cooperatives_map/,,,,,,,,,,,(708) 857-7070,,,-87.7018273,41.728375,SEWG,DC,,,,,,
SourceOne Credit Union,542 S Dearborn St #410,60605,Chicago,IL,"Chicago, IL 60605",USA,Credit Union,yes,source1cu.com,,,,,,,,,,,,,,-87.62931507,41.87520973,Shareable Map,SE,,,,,,
SourceOne Credit Union,542 S Dearborn St Suite 410,60605,Chicago,IL,"Chicago, IL 60605",USA,Credit Union,yes,http://chicago.source1cu.com/,,,,,,,,,,,(312)922-0495,,,-87.62931507,41.87520973,creditunionaccess.com,SE,,,,,,
South Chicago Branch Library,9055 S. Houston Avenue,60617,Chicago,IL,"Chicago, IL 60617",USA,Library,yes,http://www.chipublib.org/locations/73,,,,,,,,,,,,,,-87.54979739,41.73090671,data.cityofchicago.org,SE,,,,,,
South East Chicago Commission,1511 E. 53rd Street,60637,Chicago,IL,"Chicago, IL 60637",USA,Social Workshop,yes,http://www.secc-chicago.org/,,,,,,,,,,,,,,-87.58849407,41.79945901,Accelerate77,SE,,,,,,
South Loop Farmers Market,1936 S. Michigan Ave.,60616,Chicago,IL,"Chicago, IL 60616",USA,Farmers Market,yes,https://www.dnainfo.com/chicago/20160407/downtown/chicago-farmers-markets-heres-schedule-map,,,,,,,,,,,,,,-87.62398518,41.85623835,City of Chicago Farmers Markets,SE,,,,,,
South Loop Neighbors,47 W. Polk,60605,Chicago,IL,"Chicago, IL 60605",USA,Association Office,yes,http://www.southloopneighbors.org/Green.asp,,,,,,,,,,,,,,-87.63017187,41.8721772,Steve Ediger,SE,,,,,,
South Merrill Community Garden,7030-34 S Merrill St,60649,Chicago,IL,"Chicago, IL 60649",USA,Community Garden,yes,https://www.facebook.com/groups/301500169983305/,,,,,,,,,,,,,,-87.567858,41.762027,Neighborspace,SE,,,,,,
South Shop Federal Credit Union,3300 W 127TH,60803,Blue Island,IL,"Blue Island, IL 60803",USA,Credit Union,yes,https://southshopfcu.org,,,,,,,,,,,(708) 925-9500,,,-87.7026742,41.6626478,SEWG,DC,,,,,,
South Shore Branch Library,2505 E. 73rd Street,60649,Chicago,IL,"Chicago, IL 60649",USA,Library,yes,http://www.chipublib.org/locations/74,,,,,,,,,,,,,,-87.56382399,41.76256209,data.cityofchicago.org,SE,,,,,,
South Shore Farmers Market Rainbow Beach Park,79th St. & South Shore Dr.,60649,Chicago,IL,"Chicago, IL 60649",USA,Farmers Market,yes,https://www.dnainfo.com/chicago/20160407/downtown/chicago-farmers-markets-heres-schedule-map,,,,,,,,,,,,,,-87.567858,41.762027,City of Chicago Farmers Markets,SE,,,,,,
South Shore Mommies,,60637,Chicago,IL,"Chicago, IL 60637",USA,cooperative,check,https://www.sittingaround.com/find-babysitting-cooperatives/US/illinois/chicago/60637/852/south-shore-mommies/,,,,,,,,,,,,,,,,SEWG,DC,,,,,,
South Side Community Federal Credit Union,5401 S Wentworth Ave Suite 25,60609,Chicago,IL,"Chicago, IL 60609",USA,Credit Union,yes,http://www.southsidecommunityfcu.org/,,,,,,,,,,,(773)548-5500,,,-87.63046153,41.79623768,creditunionaccess.com,eaz,,,,,,
SOUTHSIDE COMMUNITY FED CU,5401 S WENTWORTH AVE # 25,,Chicago,IL,"Chicago, IL",USA,,no,https://mce.uwcc.wisc.edu/Cooperatives_map/,,,,,,,,,,,(773) 548-5500,,,-87.6290854,41.7959939,SEWG,DC,,,,,,
South Side Hackerspace,1048 W 37th St,60609,Chicago,IL,"Chicago, IL 60609",USA,Coworking Space,yes,http://sshchicago.org/,,,,,,,,,,,,,,-87.65475787,41.82707396,Steve Ediger,SE,,,,,,
Southeast Environmental Task Force,13300 South Baltimore Ave.,60633,Chicago,Il,"Chicago, Il 60633",USA,Social Workshop,yes,http://www.setaskforce.org,,,,,,,,,,,,,,-87.54723906,41.65366923,Accelerate77,SE,,,,,,
Southport Lowline Market,3411 N. Southport Ave.,60657,Chicago,IL,"Chicago, IL 60657",USA,Farmers Market,yes,https://www.dnainfo.com/chicago/20160407/downtown/chicago-farmers-markets-heres-schedule-map,,,,,,,,,,,,,,-87.66383521,41.94373162,City of Chicago Farmers Markets,SE,,,,,,
Southside Hub of Production,1448 E. 57th Street,60637,Chicago,IL,"Chicago, IL 60637",USA,Community Center,yes,https://southsidehub.wordpress.com/,,,,,,,,,,,,,,-87.58996911,41.79160092,Shareable Map,SE,,,,,,
Spaulding Collective,Spaulding & Beldon,,Chicago,IL,"Chicago, IL",USA,,no,http://www.uhab.org/coopresearch,,,,,,,,,,,,,,-87.7104079,41.9228606,SEWG,DC,,,,,,
Southwest REACH Center,2601 W.63rd St.,60629,Chicago,IL,"Chicago, IL 60629",USA,Social Workshop,yes,http://greatersouthwest.org/,,,,,,,,,,,,,,-87.6885426,41.77909763,Steve Ediger,SE,,,,,,
Space Park,815 W Roscoe St,60657,Chicago,IL,"Chicago, IL 60657",USA,Community Garden,yes,https://www.facebook.com/pages/Space-Park/150922214933894,,,,,,,,,,,,,,-87.6500329,41.943348,SEWG,DC,,,,,,
ST BERNARDS HOSPITAL EMPL FCU,326 W 64TH ST,,Chicago,IL,"Chicago, IL",USA,,no,https://mce.uwcc.wisc.edu/Cooperatives_map/,,,,,,,,,,,(773) 962-4045,,,-87.6336764,41.7785632,SEWG,DC,,,,,,
Spark of the Heart,1630 W. Wilson Ave,60640,Chicago,IL,"Chicago, IL 60640",USA,Community Center,yes,http://aic-chicago.org/,,,,,,,,,,,,,,-87.66983925,41.96531679,Accelerate77,SE,,,,,,
Spudnik Press,"1821 W Hubbard St, Ste 202",60622,Chicago,IL,"Chicago, IL 60622",USA,Cooperative,yes,https://www.spudnikpress.org,,,,,,,,,,,,,,-87.672845,41.889084,SEWG,DC,,,,,,
SRB Community Spirit Garden,4935 N Central Ave,60630,Chicago,IL,"Chicago, IL 60630",USA,Community Garden,yes,https://www.facebook.com/SrbCommunitySpiritGarden,,,,,,,,,,,,,,-87.7673944,41.9705307,SEWG,DC,,,,,,
ST GREGORY PARISH CREDIT UNION,1609 W GREGORY ST,60640,Chicago,IL,"Chicago, IL 60640",USA,Credit Union,yes,http://stgregorycu.org/,,,,,,,,,,,(773) 561-5493,,,-87.6702108,41.982146,SEWG,DC,,,,,,
St. Elizabeth's Credit Union,50 E 41st St,60653,Chicago,IL,"Chicago, IL 60653",USA,Credit Union,yes,http://creditunionaccess.com/cu65232.htm,,,,,,,,,,,(773)268-1518,,,-87.62428306,41.82022201,creditunionaccess.com,SE,,,,,,
St. Gregory Parish Credit Union,1609 W Gregory St Fl 1,60640,Chicago,IL,"Chicago, IL 60640",USA,Credit Union,yes,http://creditunionaccess.com/cu60680.htm,,,,,,,,,,,(773)561-5493,,,-87.67041934,41.98246376,creditunionaccess.com,SE,,,,,,
St. Helena Parish Credit Union,10101 S Parnell Ave,60628,Chicago,IL,"Chicago, IL 60628",USA,Credit Union,yes,http://creditunionaccess.com/cu66296.htm,,,,,,,,,,,(312)806-3835,,,-87.63677155,41.71063325,creditunionaccess.com,SE,,,,,,
St. Jude Credit Union,205 W Monroe St Fl 7,60606,Chicago,IL,"Chicago, IL 60606",USA,Credit Union,yes,http://creditunionaccess.com/cu65484.htm,,,,,,,,,,,(312)544-8213,,,-87.63386424,41.88056947,creditunionaccess.com,SE,,,,,,
St. Mark Credit Union,8441 S Saint Lawrence Ave,60619,Chicago,IL,"Chicago, IL 60619",USA,Credit Union,yes,http://creditunionaccess.com/cu61566.htm,,,,,,,,,,,(773)846-4433,,,-87.60970147,41.74098696,creditunionaccess.com,SE,,,,,,
St. Martin De Porres Parish Federal Credit Union,4300 W Washington Blvd,60624,Chicago,IL,"Chicago, IL 60624",USA,Credit Union,yes,http://creditunionaccess.com/cu14058.htm,,,,,,,,,,,(773)626-0776,,,-87.73307944,41.88204687,creditunionaccess.com,SE,,,,,,
STARFISH LEARNING CTR,1543 W HOWARD ST,60626,Chicago,IL,"Chicago, IL 60626",USA,Social Workshop,yes,https://www.starfishchicago.org/,,,,,,,,,,,773-465-4608,,,-87.6698518,42.0191394,SEWG,DC,,,,,,
STONE SOUP CO-OP,1430 W LELAND AVE,60640,Chicago,IL,"Chicago, IL 60640",USA,,no,https://leland.stonesoupcoop.org,,,,,,,,,,,,,,-87.6654145,41.9672843,SEWG,DC,,,,,,
Stars Garden,6100 N. Lincoln Ave.,60645,Chicago,IL,"Chicago, IL 60645",USA,Community Garden,yes,http://www.petersongarden.org,,,,,,,,,,,,,,-87.71162469,41.99288921,Accelerate77,SE,,,,,,
"Qumbya Co-op, Concord House",5225 S Blackstone Ave,60615,Chicago,IL,"Chicago, IL 60615",USA,Housing Coop,yes,https://qumbya.com/,,,,,,,,,,,,,,-87.59037528,41.80063169,Fellowship of Intentional Communities,SE,,,,,,
"Qumbya Coop, Bowers House",5130 S University Ave,60637,Chicago,IL,"Chicago, IL 60637",USA,Housing Coop,check,https://qumbya.com/,,,,,,,,,,,,,,-87.59832505,41.80190289,Fellowship of Intentional Communities,SE,,,,,,
STILL POINT THEATRE COLLECTIVE,4300 N HERMITAGE AVE,60613,Chicago,IL,"Chicago, IL 60613",USA,Arts Centre,yes,http://stillpointtheatrecollective.org/,,,,,,,,,,,(773) 868-1700,,,-87.6727148,41.9599418,SEWG,DC,,,,,,
STOCKSY,,,Chicago,IL,"Chicago, IL",USA,cooperative,check,https://www.stocksy.com,,,,,,,,,,,,,,,,SEWG,DC,,,,,,
Super Block Park,815 N Harding St,,Chicago,IL,"Chicago, IL",USA,,no,,,,,,,,,,,,,,,-87.72452,41.895928,SEWG,DC,,,,,,
Stone Soup Co-Op,3549 S. Hoyne,60609,Chicago,IL,"Chicago, IL 60609",USA,Group Home,yes,stonesoupcoop.org,,,,,,,,,,,,,,-87.67760284,41.82929531,Shareable Map,SE,,,,,,
Sugar Beet Cooperative,812 W Madison,60302,Oak Park,IL,"Oak Park, IL 60302",USA,Cooperative,yes,http://sugarbeetcoop.squarespace.com,,,,,,,,,,,,,,-87.79554362,41.87983456,SEWG,DC,,,,,,
Sulzer Regional Branch Library,4455 N. Lincoln Avenue,60625,Chicago,IL,"Chicago, IL 60625",USA,Library,yes,http://www.chipublib.org/locations/38,,,,,,,,,,,,,,-87.68439934,41.96242796,data.cityofchicago.org,SE,,,,,,
Sweet Beginnings LLC.,3726 W. Flournoy St.,60624,Chicago,Il,"Chicago, Il 60624",USA,workshop for manufacture or repair of goods,yes,http://www.beelovebuzz.com/,,,,,,,,,,,,,,-87.71850725,41.87262998,Accelerate77,SE,,,,,,
Sweetwater Foundation,5749 S Perry Ave,60621,Chicago,IL,"Chicago, IL 60621",USA,Social Workshop,yes,https://www.sweetwaterfoundation.com/,,,,,,,,,,,,,,-87.6273832,41.789563,SEWG,DC,,,,,,
Synergy Partners Credit Union,11615 S Avenue O,60617,Chicago,IL,"Chicago, IL 60617",USA,Credit Union,yes,http://synergypartnerscu.org/,,,,,,,,,,,(773)646-3000,,,-87.5400376,41.68430128,creditunionaccess.com,SE,,,,,,
Taylor Street Farms,944 S Ada St,60607,Chicago,IL,"Chicago, IL 60607",USA,Community Garden,yes,http://taylorstreetfarm.org/,,,,,,,,,,,,,,-87.66021594,41.86988221,Neighborspace,SE,,,,,,
Teamwork Englewood,815 W. 63rd Street #2,60621,Chicago,IL,"Chicago, IL 60621",USA,Social Workshop,yes,teamworkenglewood.org,,,,,,,,,,,,,,-87.64542043,41.77965151,Accelerate77,SE,,,,,,
Qumbya Haymarket House,5405 Ridgewood Ct,60615,chicago,IL,"chicago, IL 60615",USA,Housing Coop,yes,https://qumbya.com/,,,,,,,,,,,,,,-87.59252249,41.79792998,Fellowship of Intentional Communities,SE,,,,,,
Tenants Union of Illinois,4616 N Drake Ave,60625,Chicago,IL,"Chicago, IL 60625",USA,Social Workshop,yes,tenant.org,,,,,,,,,,,,,,-87.7170175,41.96502534,Shareable Map,SE,,,,,,
Tenants United Hyde Park Woodlawn,,,Chicago,IL,"Chicago, IL 60626",USA,Social Workshop,check,https://www.facebook.com/pg/tenantsunited1/about/,,,,,,,,,,,,,,,,Tenants United,SE,,,,,,
TESA Collective,,,Chicago,IL,"Chicago, IL",USA,cooperative,check,http://www.toolboxfored.org/,,,,,,,,,,,,,,,,SEWG,DC,,,,,,
Qumbya: Bowers House,52nd & University,60615,Chicago,IL,"Chicago, IL 60615",USA,Housing Coop,check,https://qumbya.com/,,,,,,,,,,,,,,-87.5987133,41.7886079,SEWG,DC,,,,,,
The Back of the Yards Neighborhood Council,1751 W 47th Street,60609,Chicago,IL,"Chicago, IL 60609",USA,Association Office,yes,bync.org,,,,,,,,,,,,,,-87.66897174,41.80847483,Shareable Map,SE,,,,,,
The Back Office Cooperative,"333 South Wabash Ave, Suite 2750",60603,Chicago,IL,"Chicago, IL 60603",USA,Workers Collective,yes,http://www.thebackofficecoop.org/,,,,,,,,,,,,,,-87.62598565,41.87782969,Shareable Map,SE,,,,,,
The Chicago Collective,POB 7358,60680,Chicago,IL,"Chicago, IL 60680",USA,,check,https://www.ic.org/directory/maps/,,,,,,,,,,,,,,-87.64,41.88,SEWG,DC,,,,,,
The Dancers Resource,,,Chicago,IL,"Chicago, IL",USA,Social Workshop,check,https://actorsfund.org/services-and-programs/dancers-resource,,,,,,,,,,,,,,,,SEWG,DC,,,,,,
The Field Museum,1400 Lake Shore Dr,60605,Chicago,IL,"Chicago, IL 60605",USA,museum,yes,fieldmuseum.org,,,,,,,,,,,,,,-87.61919927,41.86475699,Accelerate77,SE,,,,,,
Qumbya: Concord House,53rd & Blackstone,60615,Chicago,IL,"Chicago, IL 60615",USA,Housing Coop,yes,https://qumbya.com/,,,,,,,,,,,,,,-87.5904508,41.7995027,SEWG,DC,,,,,,
Qumbya: Haymarket House,54th & Ridgewood,60615,Chicago,IL,"Chicago, IL 60615",USA,Housing Coop,yes,https://qumbya.com/,,,,,,,,,,,,,,-87.5926051,41.7980215,SEWG,DC,,,,,,
Qumbya: Wells House,41st & Michigan,60653,Chicago,IL,"Chicago, IL 60653",USA,Housing Coop,yes,https://qumbya.com/,,,,,,,,,,,,,,-87.623125,41.8201331,SEWG,DC,,,,,,
The Greater Englewood Comm. Dev. Corp.,815 W 63rd Street,60621,Chicago,IL,"Chicago, IL 60621",USA,Social Workshop,yes,http://greaterenglewoodcdc.org,,,,,,,,,,,,,,-87.64542043,41.77965151,Steve Ediger,SE,,,,,,
The Green Chicago Restaurant Coalition,"30 E Wacker Dr, #1200",60601,Chicago,IL,"Chicago, IL 60601",USA,Association Office,yes,http://www.greenchicago.org/,,,,,,,,,,,,,,-87.6263107,41.88691547,Accelerate77,SE,,,,,,
The Green Exchange,2545 W Diversey Ave #213,60647,Chicago,IL,"Chicago, IL 60647",USA,Coworking Space,yes,http://www.greenexchange.com/,,,,,,,,,,,,,,-87.69181978,41.93204687,Shareable Map,SE,,,,,,
The HUB,2358 S Marshall Blvd Chicago,60623,Chicago,IL,"Chicago, IL 60623",USA,Housing Coop,check,http://chicagocoop.net/directory/,,,,,,,,,,,,,,-87.6995606,41.8483297,SEWG,DC,,,,,,
The Plant Chicago,1400 W 46th St,60609,Chicago,IL,"Chicago, IL 60609",USA,Farm,yes,http://www.plantchicago.com/,,,,,,,,,,,,,,-87.66029162,41.81058176,Shareable Map,SE,,,,,,
Racine Courts Cooperative,10759 s racine,60643,Chicago,IL,"Chicago, IL 60643",USA,Housing Coop,yes,http://www.uhab.org/coopresearch,,,,,,,,,,,,,,-87.6520436,41.6978747,SEWG,DC,,,,,,
The Recyclery Collective,7628 N Paulina St,60626,Chicago,IL,"Chicago, IL 60626",USA,Bicycle Store,yes,therecyclery.org,,,,,,,,,,,773-262-5900,,,-87.67318087,42.01990194,Shareable Map,SE,,,,,,
The Renaissance Collaborative (TRC),3757 S. Wabash Avenue,60653,Chicago,IL,"Chicago, IL 60653",USA,Social Workshop,yes,www.trcwabash.org/,,,,,,,,,,,,,,-87.62476668,41.82614039,Accelerate77,SE,,,,,,
The Resurrection Project,1818 S. Paulina Ave,60608,Chicago,IL,"Chicago, IL 60608",USA,Social Workshop,yes,http://www.resurrectionproject.org/About-Us/index.html,,,,,,,,,,,,,,-87.66873171,41.85741502,Accelerate77,SE,,,,,,
The Riverbank Neighbors,2546 W. Hutchinson Street,60618,Chicago,IL,"Chicago, IL 60618",USA,Social Workshop,yes,http://www.riverbankneighbors.org/index.htm,,,,,,,,,,,,,,-87.69283514,41.95864291,Accelerate77,SE,,,,,,
The Roost,1245 W Jarvis,60626,Chicago,IL,"Chicago, IL 60626",USA,Housing Coop,yes,http://chicagocoop.net/directory/,,,,,,,,,,,,,,-87.6641431,42.0158521,SEWG,DC,,,,,,
The Seminary Co-op Bookstores,5751 S Woodlawn Ave,60637,Chicago,IL,"Chicago, IL 60637",USA,book store,yes,semcoop.com,,,,,,,,,,,(773) 752-4381,,,-87.59634508,41.79051861,Shareable Map,SE,,,,,,
The Urban Canopy,1400 W 46th St.,60680,Chicago,IL,"Chicago, IL 60680",USA,Farm,yes,www.TheUrbanCanopy.org,,,,,,,,,,,,,,-87.66029162,41.81058176,Accelerate77,SE,,,,,,
TITAN INSURANCE,5415 N LINCOLN AVE,,Chicago,IL,"Chicago, IL",USA,,no,https://mce.uwcc.wisc.edu/Cooperatives_map/,,,,,,,,,,,1-800-848-2687,,,-87.6924785,41.9800226,SEWG,DC,,,,,,
The Urban Islander’s Market at Treasure Island,2121 N. Clybourn Ave.,60614,Chicago,IL,"Chicago, IL 60614",USA,Farmers Market,yes,https://www.dnainfo.com/chicago/20160407/downtown/chicago-farmers-markets-heres-schedule-map,,,,,,,,,,,,,,-87.66164626,41.91974181,City of Chicago Farmers Markets,SE,,,,,,
The WasteShed,914 N. California Ave.,60622,Chicago,IL,"Chicago, IL 60622",USA,Second Hand Shop,yes,http://www.thewasteshed.com/,,,,,,,,,,,,,,-87.69685063,41.89799753,Accelerate77,SE,,,,,,
Tranquil Garden,1436-38 E 68th St,,Chicago,IL,"Chicago, IL",USA,,no,,,,,,,,,,,,,,,-87.589544,41.771742,SEWG,DC,,,,,,
Thomas Street Garden,2655 W. Thomas St.,60647,Chicago,IL,"Chicago, IL 60647",USA,Community Garden,yes,http://www.facebook.com/thomasstreetgarden,,,,,,,,,,,,,,-87.69336154,41.90104816,Accelerate77,SE,,,,,,
TRAVELEX CANADA,10 S WACKER DR,,Chicago,IL,"Chicago, IL",USA,,no,https://mce.uwcc.wisc.edu/Cooperatives_map/,,,,,,,,,,,(312) 683-0700,,,-87.6372737,41.8813538,SEWG,DC,,,,,,
Three Walls,119 N Peoria St,60607,Chicago,IL,"Chicago, IL 60607",USA,Arts Centre,yes,three-walls.org,,,,,,,,,,,,,,-87.64966927,41.88396167,Shareable Map,SE,,,,,,
Thurgood Marshall Branch Library,7506 S. Racine Avenue,60620,Chicago,IL,"Chicago, IL 60620",USA,Library,yes,http://www.chipublib.org/locations/5,,,,,,,,,,,,,,-87.65401338,41.75760927,data.cityofchicago.org,SE,,,,,,
TOGETHER SYSTEMS,,,Chicago,IL,"Chicago, IL",USA,social Workshop,check,https://togethersystems.org/,,,,,,,,,,,,,,,,SEWG,DC,,,,,,
Reba Place Fellowship,737 B Reba Place,60202,Evanston,IL,"Evanston, IL 60202",USA,Housing Coop,yes,http://www.rebaplacefellowship.org/,,,,,,,,,,,,,,-87.68103768,42.02990956,Fellowship of Intentional Communities,SE,,,,,,
Turtle Park and Garden,4900 N Troy St,,Chicago,IL,"Chicago, IL",USA,,no,,,,,,,,,,,,,,,-87.707649,41.970419,SEWG,DC,,,,,,
Toman Branch Library,2708 S. Pulaski Road,60623,Chicago,IL,"Chicago, IL 60623",USA,Library,yes,http://www.chipublib.org/locations/78,,,,,,,,,,,,,,-87.72458471,41.84224929,data.cityofchicago.org,SE,,,,,,
Transition Rogers Park,1336 W. Birchwood Ave,60626,Chicago,IL,"Chicago, IL 60626",USA,Social Workshop,yes,https://www.facebook.com/Transition-Rogers-Park-212090655497787/,,,,,,,,,,,,,,-87.66443409,42.018318,Accelerate77,SE,,,,,,
Trinity U.C.C. Federal Credit Union,400 W 95th St,60628,Chicago,IL,"Chicago, IL 60628",USA,Credit Union,yes,http://creditunionaccess.com/cu23245.htm,,,,,,,,,,,(773)966-1505,,,-87.63396052,41.72076868,creditunionaccess.com,SE,,,,,,
True Nature Health Foods,7000 N Glenwood Ave,60626,Chicago,IL,"Chicago, IL 60626",USA,supermarket,yes,truenaturefoods.com,,,,,,,,,,,,,,-87.66630968,42.009134,Shareable Map,SE,,,,,,
TRUSTMARK INSURANCE CO,400 FIELD DRIVE,60045,Lake Forest,IL,"Lake Forest, IL 60045",USA,cooperative,yes,http://www.trustmarkcompanies.com,,,,,,,,,,,847.615.1500,,,-87.8996113,42.2462007,SEWG,DC,,,,,,
Ujima Garden,545 N Central Park Ave,,Chicago,IL,"Chicago, IL",USA,,no,,,,,,,,,,,,,,,-87.7159343,41.8915217,SEWG,DC,,,,,,
UKRAINIAN NATIONAL CU ASSN,2315 W CHICAGO AVE,,Chicago,IL,"Chicago, IL",USA,,no,https://mce.uwcc.wisc.edu/Cooperatives_map/,,,,,,,,,,,(773) 489-0533,,,-87.6850904,41.8955144,SEWG,DC,,,,,,
Tudor Gables Building,,,Chicago,IL,"Chicago, IL",USA,Housing Coop,check,http://chicagocoop.net/directory/,,,,,,,,,,,,,,,,SEWG,DC,,,,,,
Tutor-Mentor Connection,Merchandise Mart PO Box 3303,60654,Chicago,IL,"Chicago, IL 60654",USA,Social Workshop,yes,http:/www.tutormentorexchange.net,,,,,,,,,,,,,,-87.636511,41.887141,Steve Ediger,SE,,,,,,
U-Farm IIT,3350 S Michigan Ave,60616,Chicago,IL,"Chicago, IL 60616",USA,Community Garden,yes,https://www.facebook.com/U.Farm.IIT,,,,,,,,,,,,,,-87.62340467,41.83377225,Accelerate77,SE,,,,,,
U.S. Employees Credit Union,230 S Dearborn St Suite 2962,60604,Chicago,IL,"Chicago, IL 60604",USA,Credit Union,yes,https://www.myusecu.org/,,,,,,,,,,,(312)922-5310,,,-87.62943278,41.87908519,creditunionaccess.com,SE,,,,,,
U.S. Employees Credit Union,610 S Canal St #240,60607,Chicago,IL,"Chicago, IL 60607",USA,Credit Union,yes,usemployees.org,,,,,,,,,,,,,,-87.6395216,41.87429136,Shareable Map,SE,,,,,,
Ujamaa Community Land Trust,Englewood,,Chicago,IL,"Chicago, IL",USA,social Workshop,check,https://www.facebook.com/ujamaaclt/,,,,,,,,,,,,,,,,SEWG,DC,,,,,,
Ukrainian Village Babysitting Coop,,60622,Chicago,IL,"Chicago, IL 60622",USA,cooperative,check,https://www.sittingaround.com/find-babysitting-cooperatives/US/illinois/chicago/60622/796/ukrainian-village/,,,,,,,,,,,,,,,,SEWG,DC,,,,,,
UNITED NATIONAL MAINTENANCE CO,1550 S INDIANA AVE # 300,,Chicago,IL,"Chicago, IL",USA,,no,https://mce.uwcc.wisc.edu/Cooperatives_map/,,,,,,,,,,,800) 248-8558,,,-87.6228437,41.8606586,SEWG,DC,,,,,,
UNITED SECURITY SVC,1550 S INDIANA AVE # 30,,Chicago,IL,"Chicago, IL",USA,,no,https://mce.uwcc.wisc.edu/Cooperatives_map/,,,,,,,,,,,800) 248-8558,,,-87.6228617,41.8606092,SEWG,DC,,,,,,
UNITED SERVICE CO,1550 S INDIANA,,Chicago,IL,"Chicago, IL",USA,,no,https://mce.uwcc.wisc.edu/Cooperatives_map/,,,,,,,,,,,800) 248-8558,,,-87.6228617,41.8606092,SEWG,DC,,,,,,
UNITED TEMPS,1550 S INDIANA AVE # 300,,Chicago,IL,"Chicago, IL",USA,,no,https://mce.uwcc.wisc.edu/Cooperatives_map/,,,,,,,,,,,800) 248-8558,,,-87.6228437,41.8606586,SEWG,DC,,,,,,
UNITED TEMPS,2904 W CERMAK RD,,Chicago,IL,"Chicago, IL",USA,,no,https://mce.uwcc.wisc.edu/Cooperatives_map/,,,,,,,,,,,(773) 521-7005,,,-87.6997366,41.852262,SEWG,DC,,,,,,
River Oaks Cooperative,,,,,,,Housing Coop,check,http://chicagocoop.net/directory/,,,,,,,,,,,,,,,,,,,,,,,
Unity Garden,5102 W Fulton St,,Chicago,IL,"Chicago, IL",USA,,no,,,,,,,,,,,,,,,-87.753106,41.886043,SEWG,DC,,,,,,
Unity Park,1900 S Kostner Ave,,Chicago,IL,"Chicago, IL",USA,,no,,,,,,,,,,,,,,,-87.7349412,41.8545684,SEWG,DC,,,,,,
Underground Film Festival,2646 N Milwaukee Ave,60647,Chicago,IL,"Chicago, IL 60647",USA,Arts Centre,yes,http://cuff.org/,,,,,,,,,,,,,,-87.70880568,41.92981768,Shareable Map,SE,,,,,,
Unified Homeowners of Illinois Federal Credit Union,4464 N Milwaukee Ave,60630,Chicago,IL,"Chicago, IL 60630",USA,Credit Union,yes,http://uhifcu.virtualcu.net/,,,,,,,,,,,(773)283-9340,,,-87.75568409,41.96188759,creditunionaccess.com,SE,,,,,,
UNITED CREDIT UNION,1526 E 55TH ST # 3,60615,Chicago,IL,"Chicago, IL 60615",USA,Credit Union,yes,https://www.unitedcreditunion.com/contact-us/,,,,,,,,,,,(773) 843-8900,,,-87.5885461,41.7961907,SEWG,DC,,,,,,
United Credit Union,4444 S Pulaski Rd,60632,Chicago,IL,"Chicago, IL 60632",USA,Credit Union,yes,http://www.unitedcreditunion.com/,,,,,,,,,,,(773)376-6000,,,-87.72385201,41.81254219,creditunionaccess.com,SE,,,,,,
UNITED CREDIT UNION,4444 S PULASKI RD,60632,Chicago,IL,"Chicago, IL 60632",USA,Credit Union,yes,https://www.unitedcreditunion.com/contact-us/,,,,,,,,,,,(773) 376-6000,,,-87.7239957,41.8118736,SEWG,DC,,,,,,
UNITED CREDIT UNION,5901 N CICERO AVE # 106,60646,Chicago,IL,"Chicago, IL 60646",USA,Credit Union,yes,https://www.unitedcreditunion.com/,,,,,,,,,,,1-800-848-3444,,,-87.7480762,41.9889186,SEWG,DC,,,,,,
US AVIATION,1550 S INDIANA AVE # 300,,Chicago,IL,"Chicago, IL",USA,,no,https://mce.uwcc.wisc.edu/Cooperatives_map/,,,,,,,,,,,800) 248-8558,,,-87.6228437,41.8606586,SEWG,DC,,,,,,
Uptown Branch Library,929 W. Buena Avenue,60613,Chicago,IL,"Chicago, IL 60613",USA,Library,yes,http://www.chipublib.org/locations/87,,,,,,,,,,,,,,-87.65349699,41.95835307,data.cityofchicago.org,SE,,,,,,
Uptown Farmers Market at Weiss Memorial Hospital,4646 N. Marine Drive,60640,Chicago,IL,"Chicago, IL 60640",USA,Farmers Market,yes,https://www.weisshospital.com/connect-with-us/farmers-market,,,,,,,,,,,,,,-87.64892966,41.96635768,Accelerate77,SE,,,,,,
Uptown United,4753 North Broadway #822,60640,Chicago,Il,"Chicago, Il 60640",USA,Social Workshop,yes,http://www.uptownunited.org/,,,,,,,,,,,,,,-87.65918808,41.96824751,Accelerate77,SE,,,,,,
Urban Array,2201 S Halsted,60608,Chicago,IL,"Chicago, IL 60608",USA,Social Workshop,yes,https://urbanarray.org/,,,,,,,,,,,,,,-87.6461661,41.8524124,SEWG,DC,,,,,,
Velma Johnson Memorial Garden,3401 W Flournoy St,,Chicago,IL,"Chicago, IL",USA,,no,,,,,,,,,,,,,,,-87.7108918,41.8726167,SEWG,DC,,,,,,
Veteran’s Peace Garden,5413 W Madison St,,Chicago,IL,"Chicago, IL",USA,,no,,,,,,,,,,,,,,,-87.760779,41.8799629,SEWG,DC,,,,,,
Victory Garden,8911 S Exchange Ave,,Chicago,IL,"Chicago, IL",USA,,no,,,,,,,,,,,,,,,-87.552306,41.7332759,SEWG,DC,,,,,,
Urban Gateways,205 W Randolph St # 1700,60606,Chicago,IL,"Chicago, IL 60606",USA,Arts Centre,yes,urbangateways.org,,,,,,,,,,,,,,-87.63396595,41.88437884,Shareable Map,SE,,,,,,
Urban Habitat,3409 N. Hamlin Ave.,60618,Chicago,IL,"Chicago, IL 60618",USA,Social Workshop,yes,www.urbanhabitatchicago.org,,,,,,,,,,,,,,-87.7223163,41.94295685,Accelerate77,SE,,,,,,
US EMPLOYEES CREDIT UNION,30 S DEARBORN ST # 2962,60604,Chicago,IL,"Chicago, IL 60604",USA,Credit Union,yes,https://www.myusecu.org,,,,,,,,,,,(312) 922-5310,,,-87.6296593,41.881569,SEWG,DC,,,,,,
Warner Park and Garden,1446 W Warner Ave,,Chicago,IL,"Chicago, IL",USA,,no,,,,,,,,,,,,,,,-87.666194,41.957329,SEWG,DC,,,,,,
US EMPLOYEES CREDIT UNION,610 S CANAL ST # 240,60607,Chicago,IL,"Chicago, IL 60607",USA,Credit Union,yes,https://www.myusecu.org,,,,,,,,,,,(312)922-5310,,,-87.6400076,41.8739471,SEWG,DC,,,,,,
VA SOUTH DIV CREDIT UNION,820 S DAMEN AVE # 1408,60612,Chicago,IL,"Chicago, IL 60612",USA,Credit Union,yes,https://www.sdcu.org,,,,,,,,,,,(312) 243-8592,,,-87.6769904,41.8699473,SEWG,DC,,,,,,
Vedgewater Gardens,6300 N Broadway,60640,Chicago,Il,"Chicago, Il 60640",USA,Community Garden,yes,http://www.petersongarden.org/,,,,,,,,,,,,,,-87.66054936,41.99637851,Accelerate77,SE,,,,,,
Vendors Kitchen,,,Chicago,IL,,USA,Workers Collective,check,www.vendorskitchen.org,,,,,,,,,,,,,,,,Steve Ediger,SE,,,,,,
Vodak-East Side Branch Library,3710 E. 106th Street,60617,Chicago,IL,"Chicago, IL 60617",USA,Library,yes,http://www.chipublib.org/locations/24,,,,,,,,,,,,,,-87.53365379,41.70263496,data.cityofchicago.org,SE,,,,,,
Walker Branch Library,11071 S. Hoyne Avenue,60643,Chicago,IL,"Chicago, IL 60643",USA,Library,yes,http://www.chipublib.org/locations/80,,,,,,,,,,,,,,-87.67413709,41.69240893,data.cityofchicago.org,SE,,,,,,
Washington Park Chicago Botanic Garden’s Windy City Harvest Market,555 E. 51st St.,60615,Chicago,IL,"Chicago, IL 60615",USA,Farmers Market,yes,https://www.dnainfo.com/chicago/20160407/downtown/chicago-farmers-markets-heres-schedule-map,,,,,,,,,,,,,,-87.61571017,41.80201496,City of Chicago Farmers Markets,SE,,,,,,
Water Works Branch Library,163 E. Pearson Street,60611,Chicago,IL,"Chicago, IL 60611",USA,Library,yes,http://www.chipublib.org/locations/171,,,,,,,,,,,,,,-87.62320804,41.89750589,data.cityofchicago.org,SE,,,,,,
We Farm America,2545 W Diversey Ave #213,60647,Chicago,IL,"Chicago, IL 60647",USA,garden centre,yes,http://wefarmamerica.com/,,,,,,,,,,,,,,-87.69181978,41.93204687,Shareable Map,SE,,,,,,
WECAN - Woodlawn East Community And Neighbors,6450 S. Stony Island Ave.,60637,Chicago,IL,"Chicago, IL 60637",USA,Association Office,yes,www.wecanwoodlawn.org,,,,,,,,,,,,,,-87.58646646,41.77785143,Accelerate77,SE,,,,,,
Weiss Uptown Farmers Market,4646 N. Marine Dr.,60640,Chicago,IL,"Chicago, IL 60640",USA,Farmers Market,yes,https://www.dnainfo.com/chicago/20160407/downtown/chicago-farmers-markets-heres-schedule-map,,,,,,,,,,,,,,-87.64892966,41.96635768,City of Chicago Farmers Markets,SE,,,,,,
West Belmont Branch Library,3104 N. Narragansett Avenue,60634,Chicago,IL,"Chicago, IL 60634",USA,Library,yes,http://www.chipublib.org/locations/83,,,,,,,,,,,,,,-87.78596635,41.93662158,data.cityofchicago.org,SE,,,,,,
West Chicago Avenue Branch Library,4844 West Chicago Avenue,60651,Chicago,IL,"Chicago, IL 60651",USA,Library,yes,http://www.chipublib.org/locations/139/,,,,,,,,,,,,,,-87.74690961,41.89508499,Accelerate77,SE,,,,,,
West Englewood Branch Library,1745 W. 63rd Street,60636,Chicago,IL,"Chicago, IL 60636",USA,Library,yes,http://www.chipublib.org/locations/135,,,,,,,,,,,,,,-87.66812837,41.7793058,data.cityofchicago.org,SE,,,,,,
WESTERN SOUTHERN LIFE INS CO,4610C W DIVERSEY AVE,,Chicago,IL,"Chicago, IL",USA,,no,https://www.westernsouthern.com/wslife,,,,,,,,,,,(773) 736-3272,,,-87.7424086,41.9323861,SEWG,DC,,,,,,
Westside Learning Centers of Malcolm X College,1019 S MAY ST,60607,Chicago,IL,"Chicago, IL 60607",USA,,no,https://www.yelp.com/biz/westside-education-center-chicago,,,,,,,,,,,312.850.7420,,,-87.6549238,41.8688231,SEWG,DC,,,,,,
West Humboldt Park Family & Comm. Dev. Cncl.,3620 W Chicago Ave.,60651,Chicago,Il,"Chicago, Il 60651",USA,Association Office,yes,http://www.whpdevelopmentcouncil.net/index.html,,,,,,,,,,,,,,-87.71717258,41.8955426,Accelerate77,SE,,,,,,
West Humboldt Park Farmers Market *,3601 W. Chicago Ave.,60651,Chicago,IL,"Chicago, IL 60651",USA,Farmers Market,yes,https://www.dnainfo.com/chicago/20160407/downtown/chicago-farmers-markets-heres-schedule-map,,,,,,,,,,,,,,-87.71633352,41.89537072,City of Chicago Farmers Markets,SE,,,,,,
West Lawn Branch Library,4020 W. 63rd St.,60629,Chicago,IL,"Chicago, IL 60629",USA,Library,yes,http://www.chipublib.org/locations/84/,,,,,,,,,,,,,,-87.72357041,41.77873851,Accelerate77,SE,,,,,,
West Pullman Branch Library,830 W. 119th St.,60643,Chicago,IL,"Chicago, IL 60643",USA,Library,yes,http://www.chipublib.org/locations/136/,,,,,,,,,,,,,,-87.64312507,41.67788671,Accelerate77,SE,,,,,,
West Town Bikes,2459 West Division Street,60622,Chicago,IL,"Chicago, IL 60622",USA,Bicycle Store,yes,http://westtownbikes.org/,,,,,,,,,,,,,,-87.68847062,41.90291137,Shareable Map,SE,,,,,,
West Town Branch Library,1625 W. Chicago Avenue,60622,Chicago,IL,"Chicago, IL 60622",USA,Library,yes,http://www.chipublib.org/locations/170,,,,,,,,,,,,,,-87.66819875,41.89596722,data.cityofchicago.org,SE,,,,,,
Whipple / Dickens Community Garden,2056 N. Whipple St,60647,Chicago,IL,"Chicago, IL 60647",USA,Community Garden,yes,https://www.facebook.com/whipplecommunitygarden/,,,,,,,,,,,,,,-87.70392699,41.91856722,Accelerate77,SE,,,,,,
Windy City Harvest’s People’s Garden,215-21 N Kenneth Ave,,Chicago,IL,"Chicago, IL",USA,,no,,,,,,,,,,,,,,,-87.7392422,41.9526918,SEWG,DC,,,,,,
"Whitney M. Young, Jr. Branch Library",7901 S. King Drive,60619,Chicago,IL,"Chicago, IL 60619",USA,Library,yes,http://www.chipublib.org/locations/90,,,,,,,,,,,,,,-87.607643,41.745767,data.cityofchicago.org,SE,,,,,,
Winthrop Family Historical Garden,4328 N Winthrop Ave,,Chicago,IL,"Chicago, IL",USA,,no,,,,,,,,,,,,,,,-87.6562146,41.9658485,SEWG,DC,,,,,,
Wicker Park Babysitting Coop,,60642,Chicago,IL,"Chicago, IL 60642",USA,cooperative,check,https://www.sittingaround.com/find-babysitting-cooperatives/US/illinois/chicago/60642/640/wicker-park/,,,,,,,,,,,,,,,,SEWG,DC,,,,,,
Wicker Park Farmers Market,1425 N. Damen Ave.,60622,Chicago,IL,"Chicago, IL 60622",USA,Farmers Market,yes,https://www.dnainfo.com/chicago/20160407/downtown/chicago-farmers-markets-heres-schedule-map,,,,,,,,,,,,,,-87.67729043,41.90742049,City of Chicago Farmers Markets,SE,,,,,,
Wicker Park Farmers' Market,1425 N. Damen St.,60622,Chicago,IL,"Chicago, IL 60622",USA,Farmers Market,yes,https://www.facebook.com/Wicker-Park-Farmers-Market-251165281566761/,,,,,,,,,,,,,,-87.67729043,41.90742049,Accelerate77,SE,,,,,,
Win-Hood Co-Op Credit Union,6149 N Wolcott Ave,60660,Chicago,IL,"Chicago, IL 60660",USA,Credit Union,yes,http://winhoodcu.com/,,,,,,,,,,,(773)761-3400,,,-87.67705808,41.99343932,creditunionaccess.com,SE,,,,,,
Saint Francis Catholic Worker House of Hospitality,4652 N Kenmore Ave,60640,Chicago,IL,"Chicago, IL 60640",USA,Housing Coop,yes,http://stfrancisworker.weebly.com/,,,,,,,,,,,,,,-87.65628898,41.96649095,Fellowship of Intentional Communities,SE,,,,,,
Windy City Harvest Youth Farm in North Lawndale,3539-49 W Ogden Ave,60623,Chicago,IL,"Chicago, IL 60623",USA,Community Garden,yes,http://www.chicagobotanic.org/urbanagriculture/youthfarm/farms,,,,,,,,,,,,,,-87.71724,41.846636,Neighborspace,SE,,,,,,
Winthrop Avenue Family Historical Garden,4630 N Winthrop Ave,60640,Chicago,Il,"Chicago, Il 60640",USA,Community Garden,yes,https://sites.google.com/site/winthropinitiatives/home,,,,,,,,,,,,,,-87.65733545,41.96649185,Accelerate77,SE,,,,,,
Winthrop Harmony Arts Garden,4919 N. Winthrop,60640,Chicago,IL,"Chicago, IL 60640",USA,Community Garden,yes,http://www.greenscenechicago.org/About_the_Garden.html,,,,,,,,,,,,,,-87.65761165,41.97206661,creditunionaccess.com,SE,,,,,,
Women's Business Development Center,8 S Michigan Ave,60603,Chicago,IL,"Chicago, IL 60603",USA,Social Workshop,yes,https://www.wbdc.org,,,,,,,,,,,,,,-87.624881,41.8818946,SEWG,DC,,,,,,
Wood Street Urban Farm,5814 S. Wood St.,60636,Chicago,IL,"Chicago, IL 60636",USA,Farm,yes,www.growinghomeinc.org,,,,,,,,,,,,,,-87.66937782,41.78824614,Accelerate77,SE,,,,,,
Woodson Regional Branch Library,9525 S. Halsted Street,60628,Chicago,IL,"Chicago, IL 60628",USA,Library,yes,http://www.chipublib.org/locations/98,,,,,,,,,,,,,,-87.64310895,41.72101275,data.cityofchicago.org,SE,,,,,,
Working Bikes Cooperative,2434 S Western Ave,60608,Chicago,IL,"Chicago, IL 60608",USA,Bicycle Store,yes,workingbikes.org,,,,,,,,,,,,,,-87.68559226,41.8470678,Shareable Map,SE,,,,,,
Workshop 88,481 N Main St. Rear Building Unit B,60137,Glen Ellyn,IL,"Glen Ellyn, IL 60137",USA,Hackerspace,yes,http://blog.workshop88.com/,,,,,,,,,,,,,,-88.06662801,41.87689689,Steve Ediger,SE,,,,,,
Wrightwood-Ashburn Branch Library,8530 S. Kedzie Avenue,60652,Chicago,IL,"Chicago, IL 60652",USA,Library,yes,http://www.chipublib.org/locations/89,,,,,,,,,,,,,,-87.70216888,41.73836723,data.cityofchicago.org,SE,,,,,,
Xochiquetzal Peace Garden,1903 W 23rd St,60608,Chicago,IL,"Chicago, IL 60608",USA,Community Garden,yes,https://www.facebook.com/xochiquetzalpeacegarden/,,,,,,,,,,,,,,-87.67344207,41.85030729,creditunionaccess.com,SE,,,,,,
Silent Cooperative,2500 w Belmont,60618,Chicago,IL,"Chicago, IL 60618",USA,Housing Coop,yes,https://www.facebook.com/pages/Silent-Cooperative/117493831645655,,,,,,,,,,,(773) 935-0640,,,-87.691124,41.9398684,SEWG,DC,,,,,,
Yollocalli Arts Research and Radio Arte,2801 S Ridgeway,60623,Chicago,IL,"Chicago, IL 60623",USA,Arts Centre,yes,http://yollocalli.org/,,,,,,,,,,,,,,-87.71826486,41.84066188,Accelerate77,SE,,,,,,
Solarium/The Roost,1245 W. Jarvis,60626,Chicago,il,"Chicago, il 60626",USA,Housing Coop,yes,http://www.ic.org/directory/solarium/,,,,,,,,,,,,,,-87.66401705,42.01603039,Fellowship of Intentional Communities,SE,,,,,,
Sophia Community,5615 s woodlawn,60637,Chicago,IL,"Chicago, IL 60637",USA,Housing Coop,check,https://www.sophiacommunity.org/,,,,,,,,,,,,,,-87.5964611,41.7927505,SEWG,DC,,,,,,
Sophia Community,5615 S Woodlawn Ave,60637,Chicago,IL,"Chicago, IL 60637",USA,Housing Coop,check,http://www.sophiacommunity.org/,,,,,,,,,,,,,,-87.5964034,41.79300255,Fellowship of Intentional Communities,SE,,,,,,
Spaulding Collective,,,,,,,Housing Coop,check,http://chicagocoop.net/directory/,,,,,,,,,,,,,,,,,,,,,,,
Su Casa,,,Chicago,IL,"Chicago, IL",USA,Housing Coop,check,https://new.sucasacw.org/,,,,,,,,,,,,,,,,SEWG,DC,,,,,,
Su Casa Catholic Worker Community,5045 S Laflin St,60609,Chicago,IL,"Chicago, IL 60609",USA,Housing Coop,yes,http://www.sucasacw.org/,,,,,,,,,,,,,,-87.66228284,41.80234087,Fellowship of Intentional Communities,SE,,,,,,
The Albany Consensus,2425 N Albany,60612,Chicago,IL,"Chicago, IL 60612",USA,Housing Coop,yes,http://albanyconsensus.org/,,,,,,,,,,,,,,-87.70478484,41.9254372,Fellowship of Intentional Communities,SE,,,,,,
The Community of the Holy Trinity,3748 W EastWood Ave #2,60660,Chicago,IL,"Chicago, IL 60660",USA,Housing Coop,yes,https://www.facebook.com/Community-of-the-Holy-Trinity-178817609238/,,,,,,,,,,,,,,-87.722613,41.965844,SEWG,DC,,,,,,
Young Aggies,3052 S Gratten Ave,60608,Chicago,IL,"Chicago, IL 60608",USA,Farm,yes,https://www.facebook.com/YoungAggies,,,,,,,,,,,,,,-87.65439858,41.83927959,Shareable Map,SE,,,,,,
The HUB Housing Cooperative,2358 S Marshall Blvd,60623,Chicago,IL,"Chicago, IL 60623",USA,Housing Coop,check,https://www.facebook.com/HUBHousingCooperative,,,,,,,,,,,,,,-87.69909534,41.84898579,Fellowship of Intentional Communities,SE,,,,,,
The Imaginal Cell,Pulaski & North,,Chicago,IL,"Chicago, IL",USA,Housing Coop,check,http://imaginalcellchicago.com/,,,,,,,,,,,,,,-87.7271788,41.9391102,SEWG,DC,,,,,,
Young Men's Educational Network,1241 S. Pulaski Rd.,60623,Chicago,IL,"Chicago, IL 60623",USA,Social Workshop,yes,www.ymenchicago.com/,,,,,,,,,,,,,,-87.72505562,41.86543127,Accelerate77,SE,,,,,,
Zhao B. Art Center,1029 W. 35th Street,60609,Chicago,IL,"Chicago, IL 60609",USA,museum,yes,http://www.zhoubartcenter.com/,,,,,,,,,,,,,,-87.65170643,41.83058717,Accelerate77,SE,,,,,,
Tudor Gables Building,,,,,,,Housing Coop,check,http://chicagocoop.net/directory/,,,,,,,,,,,,,,,,,,,,,,,
United Winthrop Tower,4848 n Winthrop,60640,Chicago,IL,"Chicago, IL 60640",USA,Housing Coop,yes,https://www.unitedwinthroptowercooperative.com/,,,,,,,,,,,,,,-87.6581901,41.9709114,SEWG,DC,,,,,,
Woolman-Washington Co-Op,2049 W Pierce Ave,60622,Chicago,IL,"Chicago, IL 60622",USA,Housing Coop,yes,http://section-8-housing.credio.com/l/6127/Woolman-Washington-Cooperative-Apartments,,,,,,,,,,,,,,-87.67917428,41.90924886,Shareable Map,SE,,,,,,
,2840 N. Francisco,,,,,,Housing Coop,check,http://chicagocoop.net/directory/,,,,,,,,,,,,,,,,,,,,,,,
